country_code,Account,Master_id,Account_id,latitude2,longitude,country2,Postal_code,street_name,Street_number
CA,"Gerlach, Cassin and Parker",1599,1599-E6G-78670,45.9891389,-67.2412221,Canada,E6G,Oneill,78670
CN,Ziemann LLC,1227,1227--40,37.943121,115.217658,China,0,Kipling,40
CN,"Medhurst, Aufderhar and Mosciski",1857,1857--758,26.170171,118.190467,China,0,Glendale,758
AR,Larson-Fritsch,1793,1793-6140-77,-33.9162938,-64.3897946,Argentina,6140,Manley,77
MX,Jast-Quigley,1725,1725-40230-69,18.5591814,-99.5982999,Mexico,40230,Leroy,69
TH,Swift Group,1381,1381-52120-1971,18.2868231,99.4819782,Thailand,52120,Coolidge,1971
CO,"Batz, Weber and Stamm",1175,1175-763029-6614,3.9878168,-75.946324,Colombia,763029,Kennedy,6614
CR,Cole Inc,1537,1537-60901-7,9.477773,-84.2662901,Costa Rica,60901,Oak,7
CN,Cremin-Welch,1213,1213--612,23.353501,116.078631,China,0,Welch,612
CN,Daugherty and Sons,2606,2606--4,38.240395,114.926498,China,0,Hallows,4
NO,"Beer, Raynor and Ernser",1222,1222-1266-45327,59.8435756,10.8173713,Norway,1266,Michigan,45327
CO,Goyette-Wehner,2151,2151-275038-3,4.953434,-77.366019,Colombia,275038,Talmadge,3
CN,Denesik Group,2205,2205--6396,32.009016,112.122426,China,0,Farmco,6396
PL,"Kiehn, Schmitt and Fay",1785,1785-37-230-299,49.9569799,22.3925325,Poland,37-230,Stephen,299
MX,O'Hara and Sons,1561,1561-87078-37437,23.7322067,-99.1829833,Mexico,87078,Milwaukee,37437
CN,Nolan-Toy,2224,2224--74395,36.7010563,118.9112031,China,0,Buena Vista,74395
PH,"Stokes, Rohan and Satterfield",1846,1846-3303-33,14.7292218,121.051001,Philippines,3303,Corry,33
BG,Labadie Group,1383,1383-7159-2,43.5592985,25.9323591,Bulgaria,7159,Hoard,2
CI,Wisozk-Jenkins,2277,2277--2685,7.6730918,-5.5722297,Ivory Coast,0,Grasskamp,2685
CN,Nienow-Gislason,1569,1569--75,31.654375,120.752481,China,0,Toban,75
CN,Jakubowski-Will,1029,1029--8,24.908293,102.650211,China,0,Sutherland,8
CN,"Monahan, Weimann and Morissette",2090,2090--73231,24.874132,118.675675,China,0,Lillian,73231
JP,"McClure, Dare and Barton",1750,1750-996-0087-796,38.7731612,140.297972,Japan,996-0087,Myrtle,796
PT,"Kshlerin, Gleichner and Hickle",1686,1686-4640-580-41,41.1509639,-7.9737002,Portugal,4640-580,Carpenter,41
SE,Olson-Hackett,1309,1309-165 60-23213,59.3609203,17.841489,Sweden,165 60,Hoffman,23213
PL,Murray-Reilly,1389,1389-34-480-18,49.494604,19.7094323,Poland,34-480,Eagan,18
SE,Pfannerstill Inc,1121,1121-953 34-32,65.8368628,24.0986491,Sweden,953 34,Sunfield,32
FR,Stark LLC,1124,1124-92901 CEDEX-37046,48.892701,2.233089,France,92901 CEDEX,American,37046
CN,"Bode, Cummerata and Johnson",1035,1035--1,32.661925,120.601922,China,0,Farmco,1
CA,Beahan-Hickle,2012,2012-M4H-80,54.2331,-125.7533,Canada,M4H,Starling,80
AR,Bruen-Fisher,2084,2084-5889-4,-31.730594,-65.006098,Argentina,5889,Lakewood,4
BR,"Mohr, Collier and Powlowski",2110,2110-37810-000-2,-21.2352558,-46.7865516,Brazil,37810-000,Sunnyside,2
CN,Raynor LLC,1446,1446--79215,23.5958633,120.2858846,China,0,Schmedeman,79215
CN,Jast-Leannon,2042,2042--5,35.664323,117.251195,China,0,Wayridge,5
CN,"Beahan, Mohr and Hyatt",1679,1679--68976,46.748522,82.978928,China,0,6th,68976
CN,Lueilwitz-Wilkinson,2307,2307--3995,23.119172,113.202334,China,0,Bay,3995
CN,Hand-Harris,1219,1219--665,41.1846097,80.3038321,China,0,Maple Wood,665
CN,Roberts Inc,1380,1380--8705,44.766541,129.688614,China,0,Manitowish,8705
CN,Hegmann Inc,1767,1767--94,29.117096,110.479191,China,0,John Wall,94
PT,Vandervort-Lebsack,1853,1853-2950-137-70,38.5866475,-8.923424,Portugal,2950-137,Orin,70
CN,Stracke and Sons,1915,1915--45183,23.099153,113.810423,China,0,Karstens,45183
GR,"Sauer, Pfeffer and Hamill",1422,1422--865,40.417311,21.0565269,Greece,0,Texas,865
PL,Homenick Inc,1294,1294-33-140-3,50.0994713,21.0432139,Poland,33-140,Dayton,3
PT,"Ankunding, Ward and Nitzsche",2558,2558-3070-605-8,40.4423844,-8.6946024,Portugal,3070-605,Mandrake,8
NL,Hagenes Inc,1974,1974-1209-95,52.2239735,5.1704277,Netherlands,1209,Stone Corner,95
DE,Bernhard Inc,1265,1265-45886-4,51.4964248,7.1215271,Germany,45886,Orin,4
CN,"Gutmann, Barrows and Watsica",1313,1313--3,39.9226132,116.4606871,China,0,Hollow Ridge,3
PH,Grady-Heathcote,2572,2572-2614-1,12.0379785,124.6581969,Philippines,2614,Clemons,1
CN,Medhurst LLC,1633,1633--58721,27.048088,119.28827,China,0,Texas,58721
CN,Mertz Inc,1697,1697--2836,41.664757,123.344062,China,0,Continental,2836
CN,Bode-Abernathy,1976,1976--212,31.9311556,120.3086809,China,0,Michigan,212
CN,Mitchell Group,1486,1486--5,19.238934,108.957345,China,0,Fallview,5
CN,Cremin-Borer,2231,2231--9,22.9550072,113.0126011,China,0,Golf Course,9
CN,Cremin-Welch,1213,2153--27765,23.353501,116.078631,China,0,Welch,612
CN,Nienow-Gislason,1569,2075--3207,31.654375,120.752481,China,0,Toban,75
CN,Windler and Sons,2153,1960--7113,24.722747,118.152148,China,0,Coleman,27765
CN,"Pfeffer, Lang and Ullrich",2075,1782-26003 CEDEX-33134,44.840524,82.353656,China,0,Surrey,3207
CN,"Rutherford, Ebert and Treutel",1960,1907--9,35.319084,114.540858,China,0,Huxley,7113
FR,"Lemke, Balistreri and Buckridge",1782,1279-30034 CEDEX 1-9,44.9280296,4.8932938,France,26003 CEDEX,Moulton,33134
CN,"Rohan, Bartoletti and Moen",1907,1989-5163-594,31.248842,88.417003,China,0,Packers,9
FR,"Fadel, Wunsch and Volkman",1279,2024-94269 CEDEX-4224,43.8324929,4.3662321,France,30034 CEDEX 1,Jana,9
ZA,"Prohaska, Douglas and Lang",1989,1387--9,-31.5469052,29.0213682,South Africa,5163,Graceland,594
FR,Brown-Emmerich,2024,2149-67391-6223,48.759003,2.323941,France,94269 CEDEX,Buhler,4224
CN,Tillman LLC,1387,1557-68300-64659,27.578926,110.040315,China,0,Nevada,9
PK,Witting LLC,2149,1707--85182,32.1018288,72.7912031,Pakistan,67391,Northridge,6223
FI,"Murray, Larkin and Green",1557,1638-851 78-835,63.8601923,23.4541136,Finland,68300,Hovde,64659
CN,Walsh-Lubowitz,1707,2240-959-1855-14,40.731316,124.783659,China,0,Lukken,85182
SE,"Homenick, Johnson and Kris",1638,1983--1,62.3946271,17.2842162,Sweden,851 78,Northview,835
JP,Wilderman Inc,2240,1148-46025-74881,37.7977942,139.1253637,Japan,959-1855,Truax,14
GM,Stehr-Willms,1983,2029--86,13.5712781,-15.3262905,Gambia,0,Algoma,1
ES,Stoltenberg Group,1148,1773-442 53-9,39.5013158,-0.3889622,Spain,46025,Longview,74881
CN,Powlowski Inc,2029,1875--54005,30.5383451,117.0666454,China,0,Ryan,86
SE,Nikolaus Group,1773,1098-116 23-4072,57.855421,11.8951003,Sweden,442 53,Londonderry,9
CN,Gulgowski-Welch,1875,2259-79977-76,32.009016,112.122426,China,0,John Wall,54005
SE,Abbott Inc,1098,1163-06750-000-2,59.3125021,18.0760798,Sweden,116 23,Maryland,4072
US,Kreiger Inc,2259,1231--3,31.7698671,-106.4161964,United States,79977,Twin Pines,76
BR,Heaney Group,1163,2175-747 20-61435,-23.6228759,-46.7816647,Brazil,06750-000,Amoth,2
CN,"Schultz, Gutmann and Feest",1231,1909-24000-000-52458,33.001096,106.91786,China,0,Portage,3
CZ,Langosh and Sons,2175,2069-96835-43574,49.9469881,18.1870189,Czech Republic,747 20,Sommers,61435
BR,"Stracke, Jakubowski and Halvorson",1909,1643-2303-22,-22.8262707,-43.0152252,Brazil,24000-000,Clarendon,52458
US,"Volkman, Funk and West",2069,2531--5,21.3488387,-157.9435603,United States,96835,Holmberg,43574
PH,Rohan Group,1643,2544--255,15.613097,120.438477,Philippines,2303,Moose,22
CN,"Schultz, Gutmann and Feest",1231,2386--85,33.001096,106.91786,China,0,Portage,3
CN,Heathcote LLC,2531,2383--4012,28.879936,106.935101,China,0,Sunnyside,5
CZ,Langosh and Sons,2175,1509--1,49.9469881,18.1870189,Czech Republic,747 20,Sommers,61435
CN,Rolfson LLC,2544,2532-55470-7490,42.438551,127.295067,China,0,Annamark,255
CN,McDermott-Turcotte,2386,1143-41355 CEDEX-482,32.165,108.8822222,China,0,Longview,85
CN,"Beahan, Mohr and Hyatt",1679,2255-254 62-5,46.748522,82.978928,China,0,6th,68976
CN,Kozey-Roberts,2383,1160--4,32.060255,118.796877,China,0,Blaine,4012
CN,Connelly LLC,1509,1699-4620-787-719,31.231121,121.466039,China,0,Fieldstone,1
US,Lockman and Sons,2532,2475--62,44.9799999,-93.26,United States,55470,Miller,7490
FR,Medhurst-Schiller,1143,1383--1782,47.581201,1.375111,France,41355 CEDEX,Susan,482
SE,"Schmidt, Wiegand and Crist",2255,2494--515,56.0660092,12.7332992,Sweden,254 62,Carberry,5
CN,"Kris, Rath and Sipes",1160,1066--1,30.274084,120.15507,China,0,South,4
PT,Bernhard-Russel,1699,1928--76,41.2918839,-8.1963545,Portugal,4620-787,Village,719
CN,Murazik LLC,2475,1112-20566-336,28.706919,117.821005,China,0,Jackson,62
CN,Labadie Group,1383,1608-4820-560-6,28.260141,112.571923,China,0,Troy,1782
CN,Cole-Fahey,2494,1791--9,30.945515,117.81154,China,0,Lillian,515
CN,Dicki LLC,1066,1959--3,23.681774,113.056042,China,0,Acker,1
SE,Pfannerstill Inc,1121,1065-43261-88,65.8368628,24.0986491,Sweden,953 34,Sunfield,32
CN,Runte LLC,1928,2456-H4S-6935,30.594336,105.236903,China,0,Elka,76
US,Grady and Sons,1112,1368-86130-000-0,38.889471,-77.0578855,United States,20566,Springs,336
PT,"West, Steuber and Walker",1608,2256--6,41.5212778,-8.1366948,Portugal,4820-560,Eastlawn,6
CN,Kuvalis Inc,1791,2165-95560-000-9,36.334307,99.670448,China,0,Mitchell,9
KR,"Schroeder, Mann and King",1959,2182--5356,34.9904542,126.4816856,South Korea,0,Grover,3
PK,Shields Inc,1065,2422-9930-025-64433,34.0112004,71.9795856,Pakistan,43261,Cardinal,88
CA,"Jacobson, Koch and Emmerich",2456,1168-137 24-56,50.2536,-96.06116,Canada,H4S,Talmadge,6935
BR,Stehr Inc,1368,1293-63211-9,-22.9941291,-51.1931385,Brazil,86130-000,La Follette,0
CN,"Tillman, Stokes and Beier",2256,1802--9,19.233277,109.412626,China,0,Hansons,6
CN,"Tillman, Stokes and Beier",2256,1055-1103-2060,19.233277,109.412626,China,0,Hansons,6
BR,"Dooley, Boyle and Weissnat",2165,1209--4,-29.3344108,-49.723909,Brazil,95560-000,Oak Valley,9
CN,"Fahey, Hintz and Volkman",2182,1797--48,38.5142512,116.5977552,China,0,Forest Dale,5356
PT,Monahan-Bernier,2422,1337-28300-000-8895,38.402951,-28.080155,Portugal,9930-025,Commercial,64433
SE,Kautzer LLC,1168,1522-76029 CEDEX-42,59.1575081,18.1350248,Sweden,137 24,Shoshone,56
PK,Rogahn-Douglas,1293,1777-21240-3074,28.0159533,69.5483393,Pakistan,63211,Ridgeway,9
CI,Hayes-Lynch,1802,1376-4515-462,5.7866228,-6.5890166,Ivory Coast,0,Cordelia,9
PH,Smitham Group,1055,1460-38703-15511,6.737092,124.600287,Philippines,1103,Kedzie,2060
QA,"Satterfield, Wuckert and Jerde",1209,1635--753,25.9210961,51.3385684,Qatar,0,Arrowood,4
CY,Marvin LLC,1797,1245-71309 CEDEX-84900,34.9922836,34.0140113,Cyprus,0,Florence,48
BR,Huel LLC,1337,2586--86,-21.1877747,-41.8799408,Brazil,28300-000,Northview,8895
FR,Graham-Hartmann,1522,2506--59,47.8225694,0.3908219,France,76029 CEDEX,Montana,42
HR,Volkman Inc,1777,2479-190018-48,43.6190257,16.7236298,Croatia,21240,Calypso,3074
PH,Flatley LLC,1376,1326-7947-8,13.0730815,123.5982956,Philippines,4515,Fairview,462
MX,Mann-Erdman,1460,1652--31,17.7409147,-91.7660525,Mexico,38703,La Follette,15511
GR,"Cremin, Spinka and Ernser",1635,2480--8,39.8949802,22.1890872,Greece,0,Hintze,753
FR,"Thompson, Kemmer and Mitchell",1245,2328-2500-645,46.6750305,4.3642884,France,71309 CEDEX,Ridgeview,84900
CN,Reinger Group,2586,1237-66-220-2500,30.677233,121.015142,China,0,Erie,86
CN,Buckridge Inc,2506,1507--5582,29.913085,97.817792,China,0,Tony,59
CO,Boehm Inc,2479,1172-63-720-72794,2.481207,-76.6990172,Colombia,190018,Thompson,48
ZA,"Gulgowski, Bartoletti and Ziemann",1326,1998--6,-34.0736398,18.470633,South Africa,7947,Forest Run,8
CN,Carter Inc,1652,2602-245-19,31.93957,121.012416,China,0,Carey,31
CN,Kerluke-Medhurst,2480,1374-32-607-72824,29.461194,110.152436,China,0,Reinke,8
AR,"Muller, Block and Schoen",2328,1659-2755-163-221,-34.6637851,-58.5017947,Argentina,2500,Trailsway,645
PL,West-Hyatt,1237,1334-5102-22,52.3369183,15.3336362,Poland,66-220,Packers,2500
CN,Schneider and Sons,1507,1383-999-3776-3063,32.0378049,118.7870855,China,0,Shoshone,5582
CI,Wisozk-Jenkins,2277,1218--4355,7.6730918,-5.5722297,Ivory Coast,0,Grasskamp,2685
PL,"Kunze, Will and Wiegand",1172,1543-21130-7639,51.82709,17.4539199,Poland,63-720,Union,72794
PL,"Kunze, Will and Wiegand",1172,1820-20016-7,51.82709,17.4539199,Poland,63-720,Union,72794
KR,Paucek-Altenwerth,1998,1085-41190-9,36.6424341,127.4890319,South Korea,0,Bonner,6
NZ,Bahringer-Rogahn,2602,1077--47,-35.229035,173.94869,New Zealand,245,Warrior,19
PL,Bailey LLC,1374,1104-4508-942,49.9851242,19.3263098,Poland,32-607,Eastwood,72824
PT,Dickinson Group,1659,2521-5016-552,38.751115,-9.4574506,Portugal,2755-163,Basil,221
PH,"Beatty, Friesen and Lind",1334,2508-8029-2,37.0594675,-120.8204617,Philippines,5102,Maryland,22
JP,Labadie Group,1383,1273-68610-000-92,38.3559764,140.3748668,Japan,999-3776,Boyd,3063
CN,Watsica LLC,1218,1405-32-708-7313,32.905305,101.755566,China,0,Canary,4355
TH,Raynor-Sawayn,1543,1454-39180-638,12.7361733,101.0782727,Thailand,21130,Brentwood,7639
US,Pouros-Doyle,1820,2337-37-306-16442,38.9374808,-77.0852258,United States,20016,Montana,7
TH,Kassulke Inc,1085,1498-76110-450,17.7032238,103.2317225,Thailand,41190,Center,9
CN,Kuhic LLC,1077,1714--6209,22.6229329,113.2773942,China,0,Butterfield,47
PH,Ledner-Jacobi,1104,2345-63-640-4438,13.2317498,123.7702587,Philippines,4508,Carberry,942
PH,Hammes-VonRueden,2521,2181-985-0862-2,11.042265,123.9418261,Philippines,5016,Cody,552
NO,Feeney LLC,2508,1254--3,67.2929841,14.587686,Norway,8029,Hansons,2
BR,Ebert-Altenwerth,1273,1269-501-0531-2,-1.0762009,-46.5547852,Brazil,68610-000,Glendale,92
PL,Halvorson-Ziemann,1405,1198-45922 CEDEX 9-3932,50.0751569,20.4549189,Poland,32-708,Anderson,7313
TH,"Lubowitz, Von and Lind",1454,1443-3070-063-70979,16.961392,102.2728739,Thailand,39180,Johnson,638
PL,Ryan Inc,2337,1882-8650-8,50.242123,22.4674999,Poland,37-306,Armistice,16442
TH,Towne and Sons,1498,1019-123 57-5307,15.1955811,104.8304807,Thailand,76110,Canary,450
CN,"King, Cartwright and Mertz",1714,1678-64130-7,24.565521,117.936238,China,0,Little Fleur,6209
PL,"Terry, Kilback and Dooley",2345,1813-472 01-594,51.2820434,17.9082196,Poland,63-640,Hagan,4438
JP,Kessler Inc,2181,2234-2520-053-92,38.2956138,140.9969841,Japan,985-0862,Warrior,2
CN,Thiel-Lang,1254,1084-70324-283,24.265926,116.081656,China,0,Talisman,3
JP,Predovic Inc,1269,2194-4111-6,35.4420431,136.6271698,Japan,501-0531,Spohn,2
FR,Simonis-Gutmann,1198,2299-30045-38,47.3591366,2.8002946,France,45922 CEDEX 9,Kinsman,3932
PT,"Gleason, Weissnat and Stroman",1443,1914-94140-8,40.3753066,-8.7157832,Portugal,3070-063,Fisk,70979
US,"Kuhic, Bode and Orn",1882,1023-4580-290-335,40.1929685,-74.6502902,United States,8650,Dapin,8
SE,Jerde-Pfeffer,1019,1333-112 75-15,59.2524333,18.0761199,Sweden,123 57,Judy,5307
US,Crist LLC,1678,1281-4730-220-9701,39.0345609,-94.5521274,United States,64130,Alpine,7
CZ,"Legros, Mann and Kuphal",1813,1208--3,50.5658445,14.6542767,Czech Republic,472 01,Roth,594
PT,"Bahringer, Ruecker and Smitham",2234,2065--67,39.3688081,-9.3284939,Portugal,2520-053,Tennyson,92
CN,Reinger Group,2586,1164--8108,30.677233,121.015142,China,0,Erie,86
MX,Jaskolski and Sons,1084,2195--27,21.8756188,-102.2848729,Mexico,70324,Ridge Oak,283
CN,Connelly LLC,1509,1823-39-215-230,31.231121,121.466039,China,0,Fieldstone,1
PH,Kemmer-Pacocha,2194,1280-11730-000-42,13.751166,121.0645073,Philippines,4111,Vermont,6
US,Wilkinson Group,2299,1881-4424-6,33.9255183,-83.9214896,United States,30045,7th,38
TH,Herman and Sons,1914,1955--420,6.6802044,101.4112049,Thailand,94140,Lighthouse Bay,8
PT,Koss Group,1023,1394--9,41.2263185,-8.344485,Portugal,4580-290,Katie,335
SE,"Hansen, Daugherty and Hamill",1333,1042-1028-46,59.2963732,18.068622,Sweden,112 75,Holmberg,15
PT,"Oberbrunner, D'Amore and Halvorson",1281,2489-10004-284,41.6698545,-8.4450745,Portugal,4730-220,Chive,9701
CN,Kautzer-Bernhard,1208,2112-50402-69,30.033679,119.971302,China,0,Center,3
CN,"O'Reilly, Thiel and Parisian",2065,2142--2518,19.710084,110.735357,China,0,Farwell,67
CN,Romaguera-Bernhard,1164,2410-48217-594,26.312444,99.850365,China,0,Milwaukee,8108
CN,"Barrows, Kuhic and Watsica",2195,2477-118 92-36186,40.634244,108.893327,China,0,Nobel,27
PL,Grimes LLC,1823,1981-347-0105-20988,50.0672776,21.2406149,Poland,39-215,Dwight,230
ZA,"Prohaska, Douglas and Lang",1989,1299-675 75-61,-31.5469052,29.0213682,South Africa,5163,Graceland,594
SE,Abbott Inc,1098,2446--3,59.3125021,18.0760798,Sweden,116 23,Maryland,4072
BR,Hickle Group,1280,1930-94174 CEDEX-3,-24.068741,-46.6512239,Brazil,11730-000,Jenifer,42
AR,"Heidenreich, Von and Kirlin",1881,1099--34340,-25.7792984,-64.9562897,Argentina,4424,Warrior,6
GM,Stehr-Willms,1983,1225-748 31-9338,13.5712781,-15.3262905,Gambia,0,Algoma,1
CN,"Schiller, Franecki and Feest",1955,2381-4507-4111,36.049805,-115.244096,China,0,Stoughton,420
VN,Wisozk LLC,1394,1758-88736-15049,20.1276773,105.6691136,Vietnam,0,Londonderry,9
AU,Senger and Sons,1042,1353-5246-9976,-34.0349557,151.0998291,Australia,1028,Dottie,46
PH,Hammes-VonRueden,2521,2129-S3N-63,11.042265,123.9418261,Philippines,5016,Cody,552
US,Harvey-Nolan,2489,1395-P56-71,40.7038704,-74.0138541,United States,10004,Butternut,284
CR,"Ernser, Ziemann and Larson",2112,2147--553,10.5943971,-85.2017554,Costa Rica,50402,Kingsford,69
CN,Harris-Stehr,2142,1652-45638-000-0,29.956858,107.209965,China,0,Walton,2518
US,Ryan-Hackett,2410,2216--6858,42.2827426,-83.1488186,United States,48217,Del Mar,594
SE,Gorczany-Spinka,2477,2443-3109-59,47.02018,-68.1434996,Sweden,118 92,Fisk,36186
JP,Farrell Group,1981,1934--98351,36.1008689,139.5772452,Japan,347-0105,Larry,20988
CZ,Bergstrom-Jast,1299,2390-83101-85565,49.1141224,16.1902227,Czech Republic,675 75,Emmet,61
CN,Cronin-Crist,2446,2197-4500-973,36.650038,101.766228,China,0,Cordelia,3
FR,Ondricka-Konopelski,1930,1698-89140-000-29341,48.8348801,2.5070548,France,94174 CEDEX,Maryland,3
CN,Schoen and Sons,1099,1967-69413 CEDEX 06-589,28.841329,91.016402,China,0,Anhalt,34340
SE,"Bayer, Padberg and Botsford",1225,1787-6004-506,60.1960972,17.8961823,Sweden,748 31,Anzinger,9338
PH,"Emmerich, Emmerich and Bartoletti",2381,2267--2,17.6992092,121.5038757,Philippines,4507,Schurz,4111
MX,Kirlin-Dare,1758,1877-N9A-29762,20.6523028,-87.0696273,Mexico,88736,Northfield,15049
AR,Schowalter-Johnson,1353,1483-06306 CEDEX 4-41729,-34.6089515,-58.4464356,Argentina,5246,Rieder,9976
CA,Prosacco and Sons,2129,1015-62247 CEDEX-51956,46.08336,-73.18245,Canada,S3N,Bowman,63
IE,"Collins, Stroman and Hintz",1395,2088-747 51-9,52.9480781,-7.0472382,Ireland,P56,Milwaukee,71
CN,O'Kon-Prosacco,2147,2201-1213-8878,38.058088,117.230602,China,0,Morrow,553
BR,Carter Inc,1652,1963-P31-0,-14.6486494,-39.5898526,Brazil,45638-000,Marquette,0
CN,Howe LLC,2216,2392-911018-783,31.803171,118.002516,China,0,Columbus,6858
CN,"King, Cartwright and Mertz",1714,2239-2889-700,24.565521,117.936238,China,0,Little Fleur,6209
BR,"Stracke, Jakubowski and Halvorson",1909,2044-3119-672,-22.8262707,-43.0152252,Brazil,24000-000,Clarendon,52458
PH,Cummerata Inc,2443,1709-6004-90,15.26667,120.86667,Philippines,3109,Oneill,59
CN,Klein-Mosciski,1934,2536-5020-53769,27.815743,114.416785,China,0,Lakewood,98351
FI,"Jones, Fay and Kub",2390,2157--72,60.3955998,22.3565914,Finland,83101,Shelley,85565
PH,"Lakin, Mayert and Boehm",2197,2448--19,13.6361135,123.1924955,Philippines,4500,Burrows,973
CN,Connelly LLC,1509,1613--2,31.231121,121.466039,China,0,Fieldstone,1
BR,"Homenick, Ratke and Langosh",1698,1600--241,-27.01139,-49.5483671,Brazil,89140-000,Dottie,29341
FR,"Cartwright, DuBuque and Vandervort",1967,2237--94165,43.0429124,1.9038837,France,69413 CEDEX 06,Shelley,589
HU,Hoeger-McKenzie,1787,2288--21,46.9067373,19.691788,Hungary,6004,Bellgrove,506
CA,Prosacco and Sons,2129,2546-66-470-7315,46.08336,-73.18245,Canada,S3N,Bowman,63
CN,"Heaney, Schuppe and Ward",2267,2334-861-3923-14,40.2023282,116.2398367,China,0,3rd,2
CA,Nader-Pacocha,1877,1644-33614 CEDEX-1,44.55015,-64.24874,Canada,N9A,Summit,29762
BR,Huel LLC,1337,1840-8042-3565,-21.1877747,-41.8799408,Brazil,28300-000,Northview,8895
FR,"Okuneva, Hand and Pacocha",1483,1153-709-0844-0,43.6953508,7.2559678,France,06306 CEDEX 4,Claremont,41729
FR,Gerlach Group,1015,1359--26,50.4217341,2.8830762,France,62247 CEDEX,Esch,51956
CZ,Gutmann Group,2088,1878-32-503-0,49.9321242,17.8000468,Czech Republic,747 51,Birchwood,9
AU,Feil Inc,2201,1427-98175-21,-33.8651294,151.2078882,Australia,1213,Miller,8878
IE,"Huels, Leffler and Johnson",1963,1879-191507-8854,35.7797381,-80.7087609,Ireland,P31,Tony,0
CO,Hettinger-Torp,2392,2515-797-1506-23665,-3.7702,-70.38306,Colombia,911018,Stang,783
BG,Fisher-Sanford,2239,1433-29913-201,41.3910706,23.200121,Bulgaria,2889,Bonner,700
PH,Trantow-Abbott,2044,1544-751 14-4879,15.48277,120.58604,Philippines,3119,Memorial,672
HU,"Wisozk, Oberbrunner and Hermiston",1709,1000-96500-000-4303,46.9067373,19.691788,Hungary,6004,Graedel,90
PH,Conn Group,2536,1412-261 45-817,10.6993883,122.5024428,Philippines,5020,Kinsman,53769
CN,Schneider-Kertzmann,2157,1663--5475,31.453134,93.888763,China,0,Heath,72
IE,"Collins, Stroman and Hintz",1395,1657-588 62-75,52.9480781,-7.0472382,Ireland,P56,Milwaukee,71
CN,"Monahan, Weimann and Morissette",2090,2217-44322-0,24.874132,118.675675,China,0,Lillian,73231
CN,Pollich-Lehner,2448,1996--974,23.3854292,113.4895468,China,0,Pleasure,19
GR,"Bruen, Kuhic and Marks",1613,2535-2501-0,36.7225782,25.2825598,Greece,0,La Follette,2
CN,"Considine, Boehm and Marks",1600,2040-30096-81430,28.489465,121.896202,China,0,Mitchell,241
CN,O'Hara-Nicolas,2237,1044-67-415-0,33.6634952,112.6061178,China,0,Algoma,94165
CN,"Rempel, Huels and Stracke",2288,1647--8563,30.266872,118.400608,China,0,Oakridge,21
PL,"Ledner, Trantow and Rogahn",2546,1373-62-563-7475,52.6235765,14.6349097,Poland,66-470,Springs,7315
JP,Raynor-Hammes,2334,1074-40130-78947,32.7423216,131.178836,Japan,861-3923,Sachtjen,14
FR,Abernathy Inc,1644,2070-3720-085-74,44.7721717,-0.6995221,France,33614 CEDEX,Truax,1
CN,Kerluke-Medhurst,2480,1916--53,29.461194,110.152436,China,0,Reinke,8
CH,"Pouros, Reinger and Wiza",1840,1512--2241,47.3920847,8.5382066,Switzerland,8042,Mosinee,3565
CN,Kuvalis Inc,1791,1664-4785-210-79,36.334307,99.670448,China,0,Mitchell,9
JP,"Bednar, Macejkovic and Hermiston",1153,1667--785,34.7487164,134.0793911,Japan,709-0844,Pepper Wood,0
KR,Buckridge Group,1359,2548-G5N-0,37.3942527,126.9568209,South Korea,0,Petterle,26
PL,"Stroman, Harvey and Smitham",1878,2488-135067-2,50.051293,19.372452,Poland,32-503,Hagan,0
US,"Kuhn, Littel and Schaden",1427,1358--325,47.61,-122.33,United States,98175,Tony,21
BR,"Stracke, Jakubowski and Halvorson",1909,2593-3814-44316,-22.8262707,-43.0152252,Brazil,24000-000,Clarendon,52458
CO,Williamson and Sons,1879,2030-54927-6540,3.22059,-76.415465,Colombia,191507,Hintze,8854
JP,Miller Inc,2515,1818-457 81-8,33.4596808,132.7393724,Japan,797-1506,Manley,23665
PH,Grady-Heathcote,2572,2550-9987-7,12.0379785,124.6581969,Philippines,2614,Clemons,1
MX,Nicolas-Waters,1433,1140-801 33-91,19.4127929,-99.1186381,Mexico,29913,Cherokee,201
CZ,"Carter, Greenfelder and Stamm",1544,1575-T4H-9,49.4259425,17.5920528,Czech Republic,751 14,Warner,4879
BR,Quigley and Sons,1000,1492--48,-30.0336816,-52.893221,Brazil,96500-000,Leroy,4303
SE,"Grant, Lang and Gutkowski",1412,2455--63,55.8893778,12.8237518,Sweden,261 45,Fisk,817
CN,"Hartmann, Witting and Emmerich",1663,1962-85200-000-9204,18.4622215,73.8899328,China,0,Granby,5475
PL,"Terry, Kilback and Dooley",2345,2278-2133-37,51.2820434,17.9082196,Poland,63-640,Hagan,4438
CA,"Gerlach, Cassin and Parker",1599,2192-V9B-9949,45.9891389,-67.2412221,Canada,E6G,Oneill,78670
CZ,Swaniawski-Zulauf,1657,1380--2776,49.2060334,15.5181999,Czech Republic,588 62,North,75
HR,Walsh Group,2217,2402-14640-000-149,45.3982443,16.8946158,Croatia,44322,Warner,0
CN,Green and Sons,1996,1289-4805-458-0,36.389401,120.44716,China,0,Di Loreto,974
PH,"Jerde, Bosco and Schinner",2535,2057-85550-000-7,14.7299584,121.050452,Philippines,2501,Badeau,0
CN,"Fahey, Hintz and Volkman",2182,1371--905,38.5142512,116.5977552,China,0,Forest Dale,5356
US,Marvin Inc,2040,1406-950-3341-63,34.0028786,-84.1446376,United States,30096,Eliot,81430
PL,Dooley-Feest,1044,2438--45098,51.9611016,15.959277,Poland,67-415,Transport,0
CZ,"Carter, Greenfelder and Stamm",1544,1457--563,49.4259425,17.5920528,Czech Republic,751 14,Warner,4879
CN,Yundt-Hilll,1647,2409-6101-155,30.0689467,103.0991829,China,0,Packers,8563
PL,Kshlerin-Padberg,1373,1347-3500-15,52.322296,18.3838669,Poland,62-563,Clove,7475
TH,Stiedemann Inc,1074,2523--9082,16.5235265,102.0832543,Thailand,40130,Jackson,78947
PT,Kertzmann-Erdman,2070,1199-77193 CEDEX-0,40.8253148,-8.4661017,Portugal,3720-085,Golf,74
CN,Brekke Group,1916,2092-14180-000-3,31.323217,119.445437,China,0,Judy,53
CN,"Macejkovic, Spinka and Dooley",1512,1386--6,22.935289,113.670324,China,0,Northwestern,2241
PT,"Bailey, Zieme and Mante",1664,1845-94129 CEDEX-243,41.3270528,-8.5541453,Portugal,4785-210,Russell,79
CN,Mayert Inc,1667,1055--3408,30.677233,121.015142,China,0,Messerschmidt,785
CA,O'Kon-Daniel,2548,1106-425 33-26,48.4353479,-68.5537635,Canada,G5N,Judy,0
CO,"Ryan, Hartmann and Gerhold",2488,1696-80902-7398,7.38153,-73.919121,Colombia,135067,Loeprich,2
CN,"Grady, Weber and Fritsch",1358,1462-6326-725,23.9563274,113.1916737,China,0,Forster,325
PL,Murray-Reilly,1389,1401-387 34-37,49.494604,19.7094323,Poland,34-480,Eagan,18
PH,Buckridge-Kunde,2593,2285--7044,7.1774408,124.5350175,Philippines,3814,Eagan,44316
MX,"VonRueden, Morissette and Bartoletti",2030,2447-4540-579-742,25.9375976,-100.3638252,Mexico,54927,Jay,6540
PT,"West, Steuber and Walker",1608,2401--243,41.5212778,-8.1366948,Portugal,4820-560,Eastlawn,6
SE,"Greenholt, Herzog and Orn",1818,1109-45140-5651,58.695946,11.2533509,Sweden,457 81,Graedel,8
ZA,"Kling, Stiedemann and Bradtke",2550,1516--7984,-29.4169973,24.7380385,South Africa,9987,Armistice,7
SE,"Spinka, Satterfield and Funk",1140,2251-E5L-4626,60.684976,17.153166,Sweden,801 33,Anniversary,91
CA,"Kuphal, Koelpin and Rowe",1575,2223--7383,51.7920135,-114.105279,Canada,T4H,Carpenter,9
CN,Runte and Sons,1492,2498--3,31.920658,120.284938,China,0,Tomscot,48
CN,Denesik Group,2205,1957--581,32.009016,112.122426,China,0,Farmco,6396
EG,Green Inc,2455,2198-6320-475-1230,30.0444196,31.2357116,Egypt,0,Union,63
BR,Marvin Group,1962,2046-6455-1373,-24.7592533,-51.7601166,Brazil,85200-000,Bartillon,9204
PH,Gislason-Pacocha,2278,1006-65712-000-5490,14.4547788,120.5851587,Philippines,2133,Northport,37
CA,Mann Group,2192,2193--1413,53.36678,-104.00092,Canada,V9B,School,9949
CN,Roberts Inc,1380,1844-96500-000-621,22.781631,108.273158,China,0,Manufacturers,2776
BR,Schuster-Berge,2402,2597-49246-60,-20.6974477,-48.1597946,Brazil,14640-000,Monument,149
PT,Connelly-Stanton,1289,1300-6406-48661,41.5256088,-8.346058,Portugal,4805-458,Pierstorff,0
BR,Greenholt Inc,2057,2470-9202-353,-25.979821,-52.5678016,Brazil,85550-000,Brentwood,7
CN,O'Reilly-Koss,1371,1278-13509-765,27.948308,109.599191,China,0,Debra,905
JP,Bins and Sons,1406,1439-12-201-78,37.9092189,139.2162168,Japan,950-3341,5th,63
KR,Aufderhar Group,2438,1385-6516-71699,36.586148,128.1867972,South Korea,0,Barnett,45098
CN,O'Connell Group,1457,2213--197,23.067896,115.027634,China,0,Comanche,563
PH,Schoen-Kub,2409,1867-50802-620,10.5712156,122.944471,Philippines,6101,Lotheville,155
BG,Kris Group,1347,2119-30028 CEDEX 9-46490,43.2370452,23.1251092,Bulgaria,3500,Ridgeview,15
CN,"McLaughlin, Streich and Fahey",2523,2148-4825-171-5987,41.5220136,111.7047656,China,0,Jenna,9082
FR,Schuster-Rutherford,1199,1338--810,48.5228354,2.6377136,France,77193 CEDEX,Vidon,0
BR,Pfeffer and Sons,2092,1860-92077 CEDEX-8271,-20.9827531,-48.0563942,Brazil,14180-000,Delladonna,3
CN,Wiza-Thiel,1386,1738-30034 CEDEX 1-89,31.2303904,121.4737021,China,0,Melvin,6
FR,"Medhurst, Bogan and Goodwin",1845,1076-61015 CEDEX-8,48.8493975,2.4751086,France,94129 CEDEX,Katie,243
CN,Smitham Group,1055,1825--9980,24.6613135,102.3589828,China,0,Stang,3408
SE,Gusikowski LLC,1106,1243-861-2236-305,57.8001246,11.9841764,Sweden,425 33,Reindahl,26
MY,"Larson, Gulgowski and Schumm",1696,2510--4,1.5484759,103.7983752,Malaysia,80902,Schmedeman,7398
AR,Schowalter-Johnson,1353,2541--7934,-34.6089515,-58.4464356,Argentina,5246,Rieder,9976
AR,"Metz, Murphy and Terry",1462,1579-32253-43247,-36.5337379,-64.0106073,Argentina,6326,Dahle,725
SE,Conroy-Kovacek,1401,1466-8111-9601,56.8744773,16.6629189,Sweden,387 34,Lunder,37
CN,"McLaughlin, Streich and Fahey",2523,2321-2419-92552,41.5220136,111.7047656,China,0,Jenna,9082
FR,Stark LLC,1124,1836-43-356-65157,48.892701,2.233089,France,92901 CEDEX,American,37046
CN,Nolan-Toy,2224,1266--309,36.7010563,118.9112031,China,0,Buena Vista,74395
CN,Stokes-Tillman,2285,1022--4437,25.763034,107.701307,China,0,Westend,7044
PT,"Runolfsdottir, Torp and Simonis",2447,1009--69,41.0043316,-8.4313535,Portugal,4540-579,Melody,742
CN,Conn LLC,2401,1447-80000-000-1746,23.701262,117.430061,China,0,Pawling,243
TH,Schimmel-Mayert,1109,1378-963-4603-13122,15.5885562,103.98402,Thailand,45140,School,5651
KE,Little Inc,1516,1702-53726-29,0.202957,35.0978385,Kenya,0,Daystar,7984
CA,Quitzon and Sons,2251,2126--35868,49.18306,-119.5524,Canada,E5L,Elka,4626
SE,"Schmidt, Wiegand and Crist",2255,2350-64280-000-4297,56.0660092,12.7332992,Sweden,254 62,Carberry,5
CN,Lowe-Tillman,2223,1855-44-295-2917,27.974248,120.632896,China,0,Warbler,7383
CN,Buckridge LLC,2498,1102-05-203-658,31.918232,119.976948,China,0,Westerfield,3
VN,Leuschke-Dicki,1957,2398-76420-000-1154,20.4416309,106.1081103,Vietnam,0,Messerschmidt,581
PT,Skiles Inc,2198,1274--6170,40.347979,-7.0160004,Portugal,6320-475,Mockingbird,1230
AR,Ernser-Effertz,2046,1280--6640,-34.5204472,-58.5328734,Argentina,6455,Norway Maple,1373
PH,Gislason-Pacocha,2278,2188-65765-000-176,14.4547788,120.5851587,Philippines,2133,Northport,37
BR,Smitham-Collier,1006,1298-38051 CEDEX 9-39,-4.6138241,-44.9833395,Brazil,65712-000,Delladonna,5490
CN,Blanda-Marvin,2193,2247-412 86-52,26.893368,112.572018,China,0,Jana,1413
BR,Hickle Group,1280,2503-21209 CEDEX-1,-24.068741,-46.6512239,Brazil,11730-000,Jenifer,42
BR,Kirlin and Sons,1844,2352-2920-347,-30.0336816,-52.893221,Brazil,96500-000,Mallard,621
HR,Fadel-Morar,2597,1576--1731,46.004267,16.1190743,Croatia,49246,Debs,60
PH,Hand Inc,1300,2472--631,14.5346437,121.0133007,Philippines,6406,Loomis,48661
PH,Kuhn Inc,2470,2522--59150,8.189424,124.086692,Philippines,9202,Marquette,353
DE,Ziemann-Hodkiewicz,1278,2496-348 15-8,52.5890862,13.3032995,Germany,13509,Randy,765
PL,Boyer and Sons,1439,1340-15150-000-2,53.8044834,21.7303948,Poland,12-201,Kropf,78
PH,"Torp, Schuster and Bayer",1385,1445-P0T-8,11.25111,125.00639,Philippines,6516,Burrows,71699
CN,Walsh-Beer,2213,2559-93214 CEDEX-6,1.3573565,103.8832261,China,0,Tony,197
MY,"Beier, Ziemann and Keebler",1867,2327-442009-1312,3.1523104,101.7178316,Malaysia,50802,Meadow Ridge,620
FR,Bayer LLC,2119,1768--650,43.8324929,4.3662321,France,30028 CEDEX 9,Lyons,46490
PT,"Zieme, Leuschke and Osinski",2148,1870--4172,41.3006835,-8.4787949,Portugal,4825-171,Mallory,5987
CN,Hand-Harris,1219,1821-28205-5546,41.1846097,80.3038321,China,0,Maple Wood,665
PH,"Stokes, Rohan and Satterfield",1846,2609--6778,14.7292218,121.051001,Philippines,3303,Corry,33
GM,Stehr-Willms,1983,1677--19757,13.5712781,-15.3262905,Gambia,0,Algoma,1
CN,"Hagenes, Legros and Buckridge",1338,2526-1697-940,27.029507,113.732949,China,0,Spohn,810
FR,Bogisich Group,1860,1651-5100-005-23,48.890054,2.2372792,France,92077 CEDEX,Ludington,8271
FR,"Christiansen, Schimmel and Hahn",1738,2041-62-620-5195,43.8324929,4.3662321,France,30034 CEDEX 1,Blackbird,89
FR,Powlowski-Will,1076,2423--1,48.4339701,0.098598,France,61015 CEDEX,Hooker,8
CN,"Davis, Thiel and Gleichner",1825,1127-6304-49,30.8783105,120.0907688,China,0,Dennis,9980
CZ,Gutmann Group,2088,1876--3,49.9321242,17.8000468,Czech Republic,747 51,Birchwood,9
JP,"Lubowitz, Block and Schinner",1243,1242-8601-467,35.0346917,137.0871404,Japan,861-2236,Pierstorff,305
CN,"Monahan, Stroman and Abernathy",2510,1001--9563,30.108216,104.677091,China,0,Old Gate,4
PH,Kuhn Inc,2470,1053--65313,8.189424,124.086692,Philippines,9202,Marquette,353
CN,"Ward, Medhurst and Kuphal",2541,1520--195,23.36225,103.374576,China,0,Anderson,7934
HR,"Waelchi, Wunsch and Stanton",1579,1197-82007-8528,45.1452956,18.9362522,Croatia,32253,Twin Pines,43247
PH,"Stanton, Bode and Becker",1466,1021-52420-728,7.8394835,126.0502748,Philippines,8111,Maple,9601
PH,Ernser-Lebsack,2321,1496-94000-000-7003,15.9880572,120.3487416,Philippines,2419,Morning,92552
PL,Ortiz-Wintheiser,1836,2367--927,52.6386769,22.563616,Poland,43-356,Hallows,65157
CN,Collins and Sons,1266,1138-78600-000-41455,40.081331,111.395534,China,0,Artisan,309
CN,Nienow Inc,1022,1041-871-0921-9,51.2262018,6.7866433,China,0,Ridgeview,4437
CN,Wunsch and Sons,1009,1685-52038-4,30.9833081,121.1229953,China,0,Troy,69
BR,Wisozk-Boehm,1447,1133--9,-25.5096271,-49.2254535,Brazil,80000-000,Starling,1746
JP,Rogahn and Sons,1378,1676--6,37.4391941,140.5728754,Japan,963-4603,Manley,13122
US,Klocko LLC,1702,2097--69,43.0690343,-89.4245627,United States,53726,Boyd,29
CN,Kovacek LLC,2126,2568-5370-6157,33.001096,106.91786,China,0,Mccormick,35868
BR,Schaefer-Bernier,2350,1937-61700-000-92,-4.8220831,-42.1644994,Brazil,64280-000,Victoria,4297
FR,"Medhurst, Bogan and Goodwin",1845,1807--59,48.8493975,2.4751086,France,94129 CEDEX,Katie,243
PL,Haag Inc,1855,1723-V6Z-7,50.12514,18.3810394,Poland,44-295,Hoepker,2917
PT,Vandervort-Lebsack,1853,1744-4575-069-40857,38.5866475,-8.923424,Portugal,2950-137,Orin,70
PL,Pouros and Sons,1102,1241--828,52.3468215,21.2540462,Poland,05-203,Weeping Birch,658
BR,"Torp, Emmerich and Roob",2398,2355--1,-14.4681236,-48.4560109,Brazil,76420-000,Forest Dale,1154
CN,Reilly LLC,1274,1471-5306-171,22.837926,108.319371,China,0,4th,6170
PT,"Bahringer, Ruecker and Smitham",2234,1207-52181-36,39.3688081,-9.3284939,Portugal,2520-053,Tennyson,92
CN,Hickle Group,1280,2382-822-0034-104,36.112722,116.454574,China,0,Harbort,6640
QA,"Satterfield, Wuckert and Jerde",1209,1558--6785,25.9210961,51.3385684,Qatar,0,Arrowood,4
PH,Rohan Group,1643,1760-771 31-618,15.613097,120.438477,Philippines,2303,Moose,22
BR,"Nienow, Mitchell and Hamill",2188,1387--972,-4.9843552,-44.4370606,Brazil,65765-000,Bunker Hill,176
FR,"Kessler, Fadel and Nitzsche",1298,2245-654-712,45.1934857,5.7218985,France,38051 CEDEX 9,Kedzie,39
HU,Hoeger-McKenzie,1787,1645--3,46.9067373,19.691788,Hungary,6004,Bellgrove,506
SE,"Collins, Kub and Lynch",2247,1490-63180-5,63.8223321,20.2753893,Sweden,412 86,Fair Oaks,52
FR,"Homenick, Marquardt and Zemlak",2503,2033-594 93-41146,47.3410322,1.1586866,France,21209 CEDEX,Emmet,1
CN,Raynor LLC,1446,1611--7,23.5958633,120.2858846,China,0,Schmedeman,79215
CN,Walsh-Beer,2213,1605-96799-4791,1.3573565,103.8832261,China,0,Tony,197
PH,Herzog Inc,2352,2038--9631,16.9905258,121.637093,Philippines,2920,Dayton,347
CN,Mann LLC,1576,2010-789-1301-621,41.095685,121.1268459,China,0,Glacier Hill,1731
US,Klocko LLC,1702,1351-J0A-76,43.0690343,-89.4245627,United States,53726,Boyd,29
CN,"Mayert, Feil and Prosacco",2472,1192-687527-19,23.297493,116.165777,China,0,Coleman,631
CN,Koelpin Group,2522,1216-92835-347,31.264698,110.839164,China,0,Del Mar,59150
CZ,Schmitt-Torphy,2496,1864--3,49.8932232,12.7301543,Czech Republic,348 15,Scofield,8
US,"Volkman, Funk and West",2069,2232--675,21.3488387,-157.9435603,United States,96835,Holmberg,43574
CN,Buckridge LLC,2498,2031-95180-000-310,31.918232,119.976948,China,0,Westerfield,3
BR,Brown and Sons,1340,2214-8510-59409,-20.7736517,-49.7107263,Brazil,15150-000,4th,2
PL,Ortiz-Wintheiser,1836,2207--38,52.6386769,22.563616,Poland,43-356,Hallows,65157
CA,Paucek-Langworth,1445,1834-6404-1,46.25006,-83.5666,Canada,P0T,Schmedeman,8
AR,Larson-Fritsch,1793,2417--3016,-33.9162938,-64.3897946,Argentina,6140,Manley,77
DE,Ziemann-Hodkiewicz,1278,1621-204047-2082,52.5890862,13.3032995,Germany,13509,Randy,765
CN,"Macejkovic, Spinka and Dooley",1512,1541--575,22.935289,113.670324,China,0,Northwestern,2241
FR,Marks-Christiansen,2559,2144--0,48.9105576,2.3645084,France,93214 CEDEX,Artisan,6
CO,Nolan Group,2327,1155-5904-7529,11.3451287,-72.3628361,Colombia,442009,Hollow Ridge,1312
CN,"Windler, Zieme and Robel",1768,2122--11663,37.910325,93.341907,China,0,West,650
GR,"Cremin, Spinka and Ernser",1635,2032-22156-9556,39.8949802,22.1890872,Greece,0,Hintze,753
SA,"Sauer, Wolf and Goodwin",1870,1866-810009-18,25.3141558,49.6299077,Saudi Arabia,0,Ronald Regan,4172
US,Emmerich-Konopelski,1821,2117-8700-156-9,35.2037032,-80.7842188,United States,28205,Fremont,5546
CN,Jerde-Huel,2609,2469-3224-64226,27.098536,114.972769,China,0,Johnson,6778
CN,Rodriguez-Volkman,1677,1829--309,43.24417,127.181168,China,0,6th,19757
PH,Stracke-Heathcote,2526,1688--10277,17.6282027,121.7170078,Philippines,1697,Lighthouse Bay,940
PT,Cremin-Schuster,1651,1936--80,41.0953745,-7.8123805,Portugal,5100-005,Manitowish,23
PL,Dicki Inc,2041,2128--1,52.3537244,18.6995274,Poland,62-620,Susan,5195
TH,Kassulke Inc,1085,2063-30170-623,17.7032238,103.2317225,Thailand,41190,Center,9
CN,Hand-Harris,1219,1324-1605-41,41.1846097,80.3038321,China,0,Maple Wood,665
CN,"Trantow, Kuhn and Donnelly",2423,2071--601,22.9353419,113.6587617,China,0,Lakeland,1
CA,Quitzon and Sons,2251,1799-83420-000-6331,49.18306,-119.5524,Canada,E5L,Elka,4626
AR,"Metz, Murphy and Terry",1462,1706--50,-36.5337379,-64.0106073,Argentina,6326,Dahle,725
ZA,"Kling, Stiedemann and Bradtke",2550,1726-2821-20,-29.4169973,24.7380385,South Africa,9987,Armistice,7
PH,Bergnaum-Casper,1127,1450--1,9.600306,124.105576,Philippines,6304,Quincy,49
CI,Wisozk-Jenkins,2277,1978--8787,7.6730918,-5.5722297,Ivory Coast,0,Grasskamp,2685
CN,Wunsch-Bartoletti,1876,1005-98-285-90169,24.3482735,116.6988851,China,0,Dexter,3
PH,Sawayn and Sons,1242,2331--76,8.972681,125.408732,Philippines,8601,Buell,467
VN,Wisozk LLC,1394,2618--14098,20.1276773,105.6691136,Vietnam,0,Londonderry,9
SA,"Sauer, Wolf and Goodwin",1870,1705-39470-000-7,25.3141558,49.6299077,Saudi Arabia,0,Ronald Regan,4172
CN,Mante-Thiel,1001,1856--35,31.223878,121.524135,China,0,Huxley,9563
CN,Lockman LLC,1053,1059-6454-4,28.570101,115.797775,China,0,Rowland,65313
CN,"Ortiz, Johnson and Paucek",1520,1670--6858,30.5859716,114.2689545,China,0,Hansons,195
KR,"Schroeder, Mann and King",1959,2164--29,34.9904542,126.4816856,South Korea,0,Grover,3
US,Fay Inc,1197,1469-73179-4,41.1399814,-104.8202462,United States,82007,Dahle,8528
CN,Kozey-Roberts,2383,1339--81497,32.060255,118.796877,China,0,Blaine,4012
FR,Simonis-Gutmann,1198,1215--83,47.3591366,2.8002946,France,45922 CEDEX 9,Kinsman,3932
US,Grady and Sons,1112,1340-L2T-53,38.889471,-77.0578855,United States,20566,Springs,336
HR,Purdy-Stark,1021,1229-8404-32,45.4075606,13.9651276,Croatia,52420,Grayhawk,728
BR,"Dach, Nicolas and Paucek",1496,2036--8,-29.8990311,-51.0536949,Brazil,94000-000,Mosinee,7003
CN,"Ziemann, Nicolas and Turcotte",2367,1161--383,31.038781,114.5465571,China,0,Heath,927
BR,Nitzsche-Purdy,1138,2563--45,-15.8916202,-52.2618826,Brazil,78600-000,Meadow Valley,41455
TH,Stiedemann Inc,1074,1789-95860-000-4,16.5235265,102.0832543,Thailand,40130,Jackson,78947
JP,Rempel Inc,1041,1417--92,39.2783775,140.4636669,Japan,871-0921,Algoma,9
CR,Cole Inc,1537,2540--33175,9.477773,-84.2662901,Costa Rica,60901,Oak,7
CO,"Moen, Shields and Johnson",1685,2387--91,6.961969,-75.4190689,Colombia,52038,Buell,4
CN,Kuvalis Inc,1791,1850-2661-9,36.334307,99.670448,China,0,Mitchell,9
CN,O'Hara-Nicolas,2237,1047-9414-777,33.6634952,112.6061178,China,0,Algoma,94165
CN,"Muller, Jacobi and Goodwin",1133,1848-91560-40,39.525207,117.711487,China,0,Kipling,9
KH,Keebler-Hilpert,1676,1292--9,11.142722,105.8290298,Cambodia,0,Montana,6
CN,Krajcik-Rogahn,2097,2344--7,38.430793,100.812859,China,0,Northport,69
ZA,"Ritchie, Wintheiser and McDermott",2568,2260-91265 CEDEX-8266,-32.0078739,26.2718021,South Africa,5370,Blaine,6157
PH,Bergnaum-Casper,1127,1731--821,9.600306,124.105576,Philippines,6304,Quincy,49
PK,Shields Inc,1065,1582-13600-000-13,34.0112004,71.9795856,Pakistan,43261,Cardinal,88
CN,Runte and Sons,1492,1535-92640-60777,31.920658,120.284938,China,0,Tomscot,48
BR,"Grant, Murphy and O'Kon",1937,1066-T6L-93,-3.9997372,-38.4429274,Brazil,61700-000,Columbus,92
CF,Kerluke LLC,1807,1224-154648-87585,5.3956496,26.4916731,Central African Republic,0,Hermina,59
CA,"Schulist, O'Hara and Casper",1723,1717-94704 CEDEX-3,49.2725714,-123.1207968,Canada,V6Z,Graceland,7
PT,Altenwerth-Morar,1744,2017-512 42-468,41.0534668,-8.3490278,Portugal,4575-069,Roxbury,40857
CN,"Spinka, Rogahn and Waelchi",1241,1616--8847,29.724692,113.900628,China,0,North,828
CN,Little LLC,2355,1555-90190-648,25.639488,115.432374,China,0,Sachs,1
PH,Ratke-Connelly,1471,2587-330 02-2006,8.5015747,117.3557854,Philippines,5306,Artisan,171
PK,Heathcote-Heller,1207,1839-67137 CEDEX-2079,31.9069842,73.2723283,Pakistan,52181,Trailsway,36
JP,"Cremin, Prohaska and Labadie",2382,1514-9913-25,33.7356633,130.7183918,Japan,822-0034,Pierstorff,104
CN,Blanda-Marvin,2193,2189-4404-544,26.893368,112.572018,China,0,Jana,1413
CN,Ernser-Beahan,1558,2130--2,37.8298386,112.5511892,China,0,Parkside,6785
SE,Hartmann-Bartell,1760,1267-07900-000-1,60.1512028,15.1735854,Sweden,771 31,Texas,618
CN,Tillman LLC,1387,1941-8711-1,37.105382,116.694361,China,0,Kim,972
NO,Blick and Sons,2245,1203--21520,59.9135958,10.7792426,Norway,654,Redwing,712
NP,Spencer LLC,1645,2354-68-343-6,27.7172453,85.3239605,Nepal,0,Clemons,3
US,Kemmer-Kub,1490,2018-64-130-75097,38.6289203,-90.2051538,United States,63180,Judy,5
FR,Marks-Christiansen,2559,1027--88,48.9105576,2.3645084,France,93214 CEDEX,Artisan,6
SE,Thiel Group,2033,1508--1412,57.9268439,16.5004384,Sweden,594 93,Knutson,41146
CA,O'Kon-Daniel,2548,1912-2080-381-4,48.4353479,-68.5537635,Canada,G5N,Judy,0
CN,"Lehner, Feest and Prohaska",1611,1513--1316,44.2,118.46667,China,0,Elka,7
AS,"Weissnat, Braun and Gibson",1605,1485-08940-000-4644,-14.3377247,-170.7810162,American Samoa,96799,Marcy,4791
CN,"Barrows, Kuhic and Watsica",2195,1592-48321-538,40.634244,108.893327,China,0,Nobel,27
CN,Muller and Sons,2038,2501-45980-000-3,41.9914135,121.6412579,China,0,Valley Edge,9631
JP,Rippin Group,2010,2289-47685-220,33.3297722,133.2308851,Japan,789-1301,Evergreen,621
AU,Senger and Sons,1042,1356-4312-6,-34.0349557,151.0998291,Australia,1028,Dottie,46
PT,Kertzmann-Erdman,2070,1227--4325,40.8253148,-8.4661017,Portugal,3720-085,Golf,74
CA,Ortiz LLC,1351,1721-1257-130,45.7849952,-72.0145063,Canada,J0A,Kenwood,76
CO,Hilll Group,1192,2025-3807-4,7.3111492,-73.2057595,Colombia,687527,Bunker Hill,19
PH,"Emmerich, Emmerich and Bartoletti",2381,1718--3,17.6992092,121.5038757,Philippines,4507,Schurz,4111
US,Ortiz and Sons,1216,2257-56-500-8525,33.9041552,-117.9307584,United States,92835,Manitowish,347
CN,"Jaskolski, Rodriguez and Kilback",1864,2191-169 30-65,24.89604,118.592147,China,0,Prairieview,3
PH,"Emmerich, Emmerich and Bartoletti",2381,2125-13-210-32,17.6992092,121.5038757,Philippines,4507,Schurz,4111
CN,Hills-Funk,2232,1906--3846,29.709214,107.606105,China,0,Schlimgen,675
BR,Lowe-DuBuque,2031,1858-13495-000-2,-29.2231867,-51.3423619,Brazil,95180-000,Onsgard,310
PH,Hessel-Mertz,2214,2143--56612,8.3910287,125.7869157,Philippines,8510,Knutson,59409
CN,Gutkowski-Lemke,2207,1572--92,48.239135,126.481867,China,0,Marcy,38
PH,Stracke-Heathcote,2526,1741-82007-7,17.6282027,121.7170078,Philippines,1697,Lighthouse Bay,940
PH,Ernser-Reilly,1834,1332-480-0132-600,12.7145722,124.0576816,Philippines,6404,Evergreen,1
CN,Jerde and Sons,2417,1986-5098-94,23.0872891,113.295336,China,0,Waxwing,3016
SE,"Collins, Kub and Lynch",2247,1069-38110-800,63.8223321,20.2753893,Sweden,412 86,Fair Oaks,52
JP,Rempel Inc,1041,1382--9271,39.2783775,140.4636669,Japan,871-0921,Algoma,9
CO,Mohr-Block,1621,1832-89-340-79,8.688031,-73.666377,Colombia,204047,Huxley,2082
PH,Trantow-Abbott,2044,2457-5513-5,15.48277,120.58604,Philippines,3119,Memorial,672
CN,Ernser-Beahan,1558,2615-261 01-3046,37.8298386,112.5511892,China,0,Parkside,6785
CN,Cremin-Welch,1213,2087--284,23.353501,116.078631,China,0,Welch,612
PT,Dickinson Group,1659,1671-1717-25,38.751115,-9.4574506,Portugal,2755-163,Basil,221
CN,Stehr-Macejkovic,1541,2275-783 32-2,30.7998721,103.8280655,China,0,Redwing,575
CN,"Hyatt, O'Keefe and Monahan",2144,1206-05-824-541,23.634675,112.44069,China,0,Messerschmidt,0
CF,Kerluke LLC,1807,1039-N6C-53132,5.3956496,26.4916731,Central African Republic,0,Hermina,59
NL,Schaefer and Sons,1155,1068-2070-510-20663,51.3731898,6.1747875,Netherlands,5904,Talisman,7529
CN,Ferry-Oberbrunner,2122,1197--235,33.157445,106.834805,China,0,Corben,11663
US,Armstrong Group,2032,1286-59425 CEDEX-61,38.79,-77.19,United States,22156,Swallow,9556
JP,Raynor-Hammes,2334,2320-78151-28,32.7423216,131.178836,Japan,861-3923,Sachtjen,14
CN,Kautzer-Bernhard,1208,1122-85072-93,30.033679,119.971302,China,0,Center,3
CO,"Kilback, Effertz and Kemmer",1866,1729--653,6.9433577,-70.7168469,Colombia,810009,Chive,18
PT,Kshlerin Inc,2117,2311-10740-61,37.0313282,-7.8430189,Portugal,8700-156,Nova,9
CN,Nolan-Toy,2224,1761-2970-267-64,36.7010563,118.9112031,China,0,Buena Vista,74395
NL,Rodriguez Inc,2469,1179-372 34-90057,51.8281611,4.1481143,Netherlands,3224,Anthes,64226
CN,Walker and Sons,1829,1002--7217,28.888555,120.047651,China,0,Maple,309
CN,Rodriguez-Volkman,1677,1720--4632,43.24417,127.181168,China,0,6th,19757
GR,"Quitzon, Yost and Bauch",1688,1612-778-29,40.5555236,22.4712129,Greece,0,Mosinee,10277
CN,"Zemlak, Bashirian and Schowalter",1936,2266-14150-638,27.685255,105.390592,China,0,Westerfield,80
PH,Flatley LLC,1376,1913-6594-939,13.0730815,123.5982956,Philippines,4515,Fairview,462
CN,Welch and Sons,2128,2053-105 22-6,28.579409,110.090436,China,0,Cody,1
TH,Krajcik Inc,2063,2564-L4R-7,14.8704596,101.8322677,Thailand,30170,Atwood,623
PH,Smitham Group,1055,2008-585 92-16,6.737092,124.600287,Philippines,1103,Kedzie,2060
NO,DuBuque-Bosco,1324,1505-984-0075-8660,59.221847,10.9469346,Norway,1605,Fieldstone,41
CO,Nolan Group,2327,1269--9,11.3451287,-72.3628361,Colombia,442009,Hollow Ridge,1312
CN,"Mayert, Feil and Prosacco",2472,1042-95021 CEDEX-76943,23.297493,116.165777,China,0,Coleman,631
CN,"Tillman, Stokes and Beier",2256,1474-88820-000-24703,19.233277,109.412626,China,0,Hansons,6
MA,"Hamill, Thiel and Buckridge",2071,1413--622,34.0181246,-5.0078451,Morocco,0,Continental,601
PL,Grimes LLC,1823,1588-4625-619-6,50.0672776,21.2406149,Poland,39-215,Dwight,230
BR,"Anderson, Howe and Bradtke",1799,1426--347,-25.3631459,-49.0801588,Brazil,83420-000,Summerview,6331
CA,Prosacco and Sons,2129,1310--321,46.08336,-73.18245,Canada,S3N,Bowman,63
CN,Tillman-Stehr,1706,1288-2307-200,26.4168857,105.7581834,China,0,Holmberg,50
NO,Schimmel-Lueilwitz,1726,1095-8113-1892,60.79832,10.705945,Norway,2821,Huxley,20
CN,Jerde and Sons,2417,2268--71,23.0872891,113.295336,China,0,Waxwing,3016
CN,Macejkovic LLC,1450,2140--62,34.728584,112.132488,China,0,Mifflin,1
CN,Romaguera and Sons,1978,1620-934-0099-2955,23.982311,116.831826,China,0,Dahle,8787
PL,"Aufderhar, Goyette and Gislason",1005,2203--5507,51.612047,18.615044,Poland,98-285,David,90169
CN,Little Group,2331,2262-2442-349,24.412155,115.744112,China,0,Mallard,76
CN,"Zemlak, Bashirian and Schowalter",1936,2560--675,27.685255,105.390592,China,0,Westerfield,80
BG,Kris Group,1347,1642--47277,43.2370452,23.1251092,Bulgaria,3500,Ridgeview,15
CN,D'Amore-Wisoky,2618,2274-71730-7,22.705124,113.316811,China,0,Milwaukee,14098
CN,"Beahan, Mohr and Hyatt",1679,1984--49949,46.748522,82.978928,China,0,6th,68976
BR,Gleichner Group,1705,1975--335,-15.0738149,-44.1340439,Brazil,39470-000,Acker,7
CN,Keeling Inc,1856,1100-374 53-226,23.020673,113.751799,China,0,Lakewood Gardens,35
ZA,"Brekke, Gerhold and Littel",1059,1325-6521-5,-33.29717,23.50527,South Africa,6454,Prairieview,4
CN,Von-Klein,1670,1719-88-306-1035,30.199688,110.674706,China,0,Bluejay,6858
CN,"Schiller, Cummerata and Mayert",2164,1903--6,38.067932,111.797083,China,0,Fordem,29
US,"Schmeler, Abernathy and Nienow",1469,2415-89-400-90,35.4209352,-97.6656625,United States,73179,Crowley,4
CN,Wiza-Jast,1339,1008-761517-28,26.3940283,111.2940501,China,0,East,81497
CN,"Runolfsdottir, Bosco and Swaniawski",1215,2123-20150-4,39.8067,116.030192,China,0,Service,83
CA,Brown and Sons,1340,1892--618,54.71681,-115.40226,Canada,L2T,Oak Valley,53
PL,Halvorson-Ziemann,1405,1583-3840-272-915,50.0751569,20.4549189,Poland,32-708,Anderson,7313
PH,Gulgowski Group,1229,2287-90110-9972,14.609579,120.993122,Philippines,8404,Gale,32
CN,Ledner Group,2036,1736-13500-000-394,31.642718,105.170845,China,0,Burning Wood,8
CN,"O'Keefe, Mertz and Donnelly",1161,1390-4830-264-92388,29.499831,120.903866,China,0,Meadow Valley,383
CN,Schroeder and Sons,2563,1475-6718-54,22.562964,113.156269,China,0,Sunfield,45
AS,"Weissnat, Braun and Gibson",1605,2178--654,-14.3377247,-170.7810162,American Samoa,96799,Marcy,4791
FR,Ondricka-Konopelski,1930,1681-97-413-7,48.8348801,2.5070548,France,94174 CEDEX,Maryland,3
FR,Powlowski-Will,1076,1311-39800-000-6324,48.4339701,0.098598,France,61015 CEDEX,Hooker,8
BR,Spencer-Emard,1789,1096-37-565-4,-29.7569364,-51.8311441,Brazil,95860-000,Annamark,4
CN,Schneider Inc,1417,1272--634,29.237137,91.773134,China,0,Parkside,92
JP,Rogahn and Sons,1378,2565-3100-806-2,37.4391941,140.5728754,Japan,963-4603,Manley,13122
CN,Bartell Inc,2540,2330-3070-523-818,39.109563,117.223371,China,0,Surrey,33175
CN,Keeling Inc,1856,1192--3505,23.020673,113.751799,China,0,Lakewood Gardens,35
SE,Kautzer LLC,1168,1418--7617,59.1575081,18.1350248,Sweden,137 24,Shoshone,56
BR,"Nienow, Mitchell and Hamill",2188,2170-572 32-71151,-4.9843552,-44.4370606,Brazil,65765-000,Bunker Hill,176
JP,Raynor-Hammes,2334,1128--83,32.7423216,131.178836,Japan,861-3923,Sachtjen,14
CN,"Senger, McClure and Cormier",2387,2183--7778,27.6673175,114.4109921,China,0,Nobel,91
CN,"Lehner, Feest and Prohaska",1611,1203-70187-84530,44.2,118.46667,China,0,Elka,7
ZA,Doyle-Will,1850,1451--268,-34.007765,24.7371099,South Africa,2661,Oxford,9
CN,O'Kon-Prosacco,2147,1951-L74-89,38.058088,117.230602,China,0,Morrow,553
NO,"Bailey, Davis and Heidenreich",1047,1106-6812-5,68.7986342,16.5414503,Norway,9414,Grayhawk,777
MX,Reichel Group,1848,1694--44914,18.8478608,-99.1843676,Mexico,91560,Susan,40
BR,Hickle Group,1280,1925-13150-000-8283,-24.068741,-46.6512239,Brazil,11730-000,Jenifer,42
TH,Towne and Sons,1498,2584-42242-8044,15.1955811,104.8304807,Thailand,76110,Canary,450
CN,Hegmann Inc,1767,1783-56700-000-25834,29.117096,110.479191,China,0,John Wall,94
CN,Jenkins-Doyle,1292,1567-65140-55,34.894093,106.836465,China,0,Mitchell,9
CN,Boyer-Bergnaum,2344,1420--1438,23.590649,101.317787,China,0,Village Green,7
CN,Klein-Mosciski,1934,1786--3946,27.815743,114.416785,China,0,Lakewood,98351
FR,Boyer-Reinger,2260,1927--76,48.6910817,2.3741324,France,91265 CEDEX,Novick,8266
BR,"Homenick, Ratke and Langosh",1698,1357--61,-27.01139,-49.5483671,Brazil,89140-000,Dottie,29341
CA,Ortiz LLC,1351,1264-58100-000-9112,45.7849952,-72.0145063,Canada,J0A,Kenwood,76
CN,"Kling, Hegmann and Vandervort",1731,1244-74-320-0,37.9611361,-122.5021248,China,0,Stang,821
CN,D'Amore-Wisoky,2618,1562-531 17-91,22.705124,113.316811,China,0,Milwaukee,14098
CN,"Macejkovic, Spinka and Dooley",1512,2445-2416-1,22.935289,113.670324,China,0,Northwestern,2241
CN,Gutkowski-Lemke,2207,1949-4760-411-17594,48.239135,126.481867,China,0,Marcy,38
BR,Conroy-Swift,1582,2379--7,-22.3595631,-47.3853435,Brazil,13600-000,Lakeland,13
CN,Kozey-Roberts,2383,1646-38126-952,32.060255,118.796877,China,0,Blaine,4012
US,"McCullough, Mitchell and Schmitt",1535,1772--60,42.3784509,-83.3032607,United States,92640,Arizona,60777
CA,Dicki LLC,1066,1252--87,51.63343,-111.90181,Canada,T6L,Vera,93
PL,Dicki Inc,2041,1344-17104 CEDEX-4803,52.3537244,18.6995274,Poland,62-620,Susan,5195
PT,Connelly-Stanton,1289,1833-58117-000-355,41.5256088,-8.346058,Portugal,4805-458,Pierstorff,0
CN,"Lehner, Feest and Prohaska",1611,2346-768 21-4672,44.2,118.46667,China,0,Elka,7
CO,"Brown, Bruen and Wiegand",1224,1346-990-0812-6763,5.614775,-73.819571,Colombia,154648,Sauthoff,87585
FR,O'Hara Inc,1717,1146-8118-4369,48.8039832,2.4347009,France,94704 CEDEX,Oakridge,3
CZ,"Halvorson, Gleason and Parisian",2017,1352-5360-035-9722,50.6558337,15.4518432,Czech Republic,512 42,Scott,468
CN,"Schumm, Rosenbaum and McGlynn",1616,1958-427 40-68943,49.806882,125.792864,China,0,Carey,8847
TH,MacGyver LLC,1555,1684--457,16.6714164,99.2823264,Thailand,90190,Pepper Wood,648
CZ,Hayes Group,2587,1842--99,49.7694382,13.5090071,Czech Republic,330 02,Fairfield,2006
FR,Considine-Purdy,1839,2444-33604 CEDEX-844,48.4990903,7.3118635,France,67137 CEDEX,Bunting,2079
ZA,Upton-Klein,1514,1050--58077,-30.0263293,25.7797078,South Africa,9913,Grasskamp,25
HU,Denesik Inc,2189,2405-33-334-3774,47.9527415,21.6927245,Hungary,4404,Everett,544
PL,"Kunze, Will and Wiegand",1172,2466-4425-910,51.82709,17.4539199,Poland,63-720,Union,72794
CN,Stokes LLC,2130,2105--256,25.526437,111.600795,China,0,Westend,2
AR,"Metz, Murphy and Terry",1462,1090-1017-896,-36.5337379,-64.0106073,Argentina,6326,Dahle,725
BR,Gottlieb-Hoeger,1267,1345--78,-23.2797384,-46.7452277,Brazil,07900-000,Scott,1
PH,Bergnaum-Flatley,1941,2035--16810,7.9187344,125.3297787,Philippines,8711,Sommers,1
CN,Predovic LLC,1203,1571-17400-000-6,23.1497287,113.3227193,China,0,Jenna,21520
PL,"Gorczany, Mante and Nienow",2354,2324--17,51.756353,14.7142269,Poland,68-343,Pine View,6
PL,"Marks, Schmidt and Mayert",2018,1554-211-26239,51.7864657,16.667577,Poland,64-130,Ilene,75097
MX,O'Hara and Sons,1561,1972-L9Y-25947,23.7322067,-99.1829833,Mexico,87078,Milwaukee,37437
CN,"Kohler, Cummerata and Schultz",1027,2338--6617,36.994225,99.598035,China,0,Merchant,88
CN,Ernser-Beahan,1558,2028--67,37.8298386,112.5511892,China,0,Parkside,6785
CN,Little Group,2331,2286-96799-4986,24.412155,115.744112,China,0,Mallard,76
FR,Abernathy Inc,1644,2235-36-200-4495,44.7721717,-0.6995221,France,33614 CEDEX,Truax,1
CN,"Hilll, Bauch and Hamill",1508,2419-36-007-76,29.5846375,106.5042786,China,0,South,1412
CN,Labadie Group,1383,1740-64044 CEDEX-4119,28.260141,112.571923,China,0,Troy,1782
PT,Koelpin-Kertzmann,1912,1503-17622-270,39.1392555,-8.6756761,Portugal,2080-381,Hooker,4
GR,"Spencer, Ondricka and Mueller",1513,2102--72591,37.401244,22.1364871,Greece,0,Mosinee,1316
BR,D'Amore Inc,1485,1627-94704 CEDEX-6,-23.5893189,-46.0107997,Brazil,08940-000,Hooker,4644
HR,Rolfson-Kohler,1592,2049-19400-000-2,46.1743441,16.9184542,Croatia,48321,Dunning,538
BR,Rutherford-Muller,2501,1323--3,-17.3218249,-39.2360718,Brazil,45980-000,Kingsford,3
PH,"Stanton, Bode and Becker",1466,2037--612,7.8394835,126.0502748,Philippines,8111,Maple,9601
MX,"Rau, Skiles and Terry",2289,1131-64190-715,20.7917375,-102.7817591,Mexico,47685,Bluestem,220
CN,Macejkovic LLC,1450,1303-79480-000-28169,34.728584,112.132488,China,0,Mifflin,1
PH,Wilkinson-Mertz,1356,1872--20842,13.5066291,122.4867454,Philippines,4312,Homewood,6
CN,Murazik LLC,2475,1166--3,28.706919,117.821005,China,0,Jackson,62
CN,Ziemann LLC,1227,2404-77075-65,30.128901,104.627636,China,0,Fremont,4325
ZA,"Gulgowski, Bartoletti and Ziemann",1326,1396-3720-029-1939,-34.0736398,18.470633,South Africa,7947,Forest Run,8
BR,Marvin Group,1962,1945--51299,-24.7592533,-51.7601166,Brazil,85200-000,Bartillon,9204
PT,"Bailey, Zieme and Mante",1664,2169-592 14-26,41.3270528,-8.5541453,Portugal,4785-210,Russell,79
PL,Haag Inc,1855,1641--790,50.12514,18.3810394,Poland,44-295,Hoepker,2917
NO,"Monahan, Weber and Weimann",1721,2361--63846,59.8436248,10.790337,Norway,1257,Petterle,130
CN,Labadie Group,1383,1317--3744,28.260141,112.571923,China,0,Troy,1782
US,Pouros-Doyle,1820,1043--33,38.9374808,-77.0852258,United States,20016,Montana,7
BR,Hickle Group,1280,2139-12955-000-460,-24.068741,-46.6512239,Brazil,11730-000,Jenifer,42
PH,Conn-Brown,2025,2284--4,17.8145613,121.2831831,Philippines,3807,Claremont,4
CN,Turcotte Inc,1718,1185-3943-15641,19.701143,110.242109,China,0,Buell,3
PL,Nikolaus-Rutherford,2257,2377--177,51.30787,17.72016,Poland,56-500,Milwaukee,8525
SE,Goldner Inc,2191,1220-468 49-2043,59.3593609,17.9863038,Sweden,169 30,Becker,65
PL,"Dach, Simonis and Ankunding",2125,1614-5104-53993,53.2385231,20.1681128,Poland,13-210,Oneill,32
CN,Schuppe-Bernhard,1906,1552-262 34-9430,38.665105,112.032036,China,0,Forster,3846
CN,Cronin-Crist,2446,1002-4213-1,36.650038,101.766228,China,0,Cordelia,3
CA,Quitzon and Sons,2251,1661-13681 CEDEX-6268,49.18306,-119.5524,Canada,E5L,Elka,4626
CZ,"Halvorson, Gleason and Parisian",2017,2166-3100-43,50.6558337,15.4518432,Czech Republic,512 42,Scott,468
BR,Hansen Group,1858,2052-48258-4113,-22.5899119,-47.5177229,Brazil,13495-000,Hayes,2
CN,"Powlowski, Padberg and Mills",2143,2091--51648,22.720595,113.829667,China,0,Evergreen,56612
FR,Powlowski-Will,1076,1665--7,48.4339701,0.098598,France,61015 CEDEX,Hooker,8
MA,"Hamill, Thiel and Buckridge",2071,2495-9033-88,34.0181246,-5.0078451,Morocco,0,Continental,601
CN,Mosciski Group,1572,2179-538 62-502,25.049518,116.420098,China,0,Center,92
CO,Murazik and Sons,1741,1880-77553-000-493,10.898923,-74.883823,Colombia,82007,Londonderry,7
SE,"Homenick, Johnson and Kris",1638,2227-3515-419,62.3946271,17.2842162,Sweden,851 78,Northview,835
NO,"Monahan, Weber and Weimann",1721,2135-62021-55,59.8436248,10.790337,Norway,1257,Petterle,130
JP,"Goyette, Kozey and Little",1332,2588-2760-040-8,35.3179014,136.9037455,Japan,480-0132,Ronald Regan,600
CN,Buckridge LLC,2498,1528-70820-5,31.918232,119.976948,China,0,Westerfield,3
NO,Jacobson Group,1986,1985-416 70-40958,60.3475308,5.3728746,Norway,5098,Butternut,94
ES,"Reinger, Mills and McKenzie",1069,2162-789 85-67,28.4391484,-16.2845785,Spain,38110,Haas,800
ET,Cummerata-McDermott,1382,2108-4323-31449,9.7986027,38.4271461,Ethiopia,0,Emmet,9271
PL,Abbott and Sons,1832,1051-65215-000-361,53.1406245,17.1259608,Poland,89-340,Rockefeller,79
PH,"Torphy, Wuckert and Lueilwitz",2457,2512-66276-7013,15.0929667,120.6560529,Philippines,5513,John Wall,5
CZ,Ferry-Johnson,2615,2391-24118-190,49.6933676,14.0095887,Czech Republic,261 01,Hoard,3046
VN,Leffler-Runte,2087,1854-V3B-790,10.9667039,107.0303221,Vietnam,0,Declaration,284
PH,Langworth-Huels,1671,2077-4023-642,16.8907872,121.5670029,Philippines,1717,Bartillon,25
CZ,Thompson-Kub,2275,2114-407 53-8210,49.6546211,17.1296944,Czech Republic,783 32,Moose,2
CN,"Mayert, Feil and Prosacco",2472,1942-132037-3795,23.297493,116.165777,China,0,Coleman,631
FR,"Medhurst, Bogan and Goodwin",1845,1181-4846-4794,48.8493975,2.4751086,France,94129 CEDEX,Katie,243
CN,Wiza-Thiel,1386,1735-905-3,31.2303904,121.4737021,China,0,Melvin,6
CN,Macejkovic LLC,1450,2600-94593 CEDEX 2-78981,34.728584,112.132488,China,0,Mifflin,1
PL,Halvorson-Boehm,1206,1517--7578,54.4122067,18.4916795,Poland,05-824,Beilfuss,541
PT,Altenwerth-Morar,1744,1755-149 43-97,41.0534668,-8.3490278,Portugal,4575-069,Roxbury,40857
CA,"Sporer, Champlin and Mante",1039,1049--81,42.9598744,-81.2353612,Canada,N6C,Northland,53132
PT,Balistreri and Sons,1068,1711-771 55-4700,39.0800897,-8.7620955,Portugal,2070-510,Warrior,20663
AR,"Heidenreich, Von and Kirlin",1881,2425--66,-25.7792984,-64.9562897,Argentina,4424,Warrior,6
CN,Fay Inc,1197,1795-58338-000-874,39.221631,97.971276,China,0,Hanson,235
FR,Wisoky-Schamberger,1286,1302--5160,47.5619629,-0.9147447,France,59425 CEDEX,Messerschmidt,61
PK,"Champlin, Corwin and Macejkovic",2320,1700-19-411-0,27.953479,68.6224065,Pakistan,78151,Lakewood,28
BR,Smitham-Collier,1006,1764--632,-4.6138241,-44.9833395,Brazil,65712-000,Delladonna,5490
CN,Kuvalis Inc,1791,1429--692,36.334307,99.670448,China,0,Mitchell,9
US,Schmeler LLC,1122,2187-T8R-6,33.45,-111.97,United States,85072,Delladonna,93
US,Harvey-Nolan,2489,1046--760,40.7038704,-74.0138541,United States,10004,Butternut,284
CN,"Koepp, Brekke and Renner",1729,1314--1002,35.083111,117.15436,China,0,Sunbrook,653
CN,Pollich-Lehner,2448,1712-6544-0,23.3854292,113.4895468,China,0,Pleasure,19
FR,"Lemke, Balistreri and Buckridge",1782,1095-2500-772-86,44.9280296,4.8932938,France,26003 CEDEX,Moulton,33134
MY,Reichel and Sons,2311,1108--824,5.3523231,100.3573891,Malaysia,10740,Merry,61
PT,"Beatty, Anderson and Gutkowski",1761,1116--8,38.5100219,-9.1705519,Portugal,2970-267,Dovetail,64
PH,Cummerata Inc,2443,1285-56000-3774,15.26667,120.86667,Philippines,3109,Oneill,59
US,"Kuhic, Bode and Orn",1882,1624--67,40.1929685,-74.6502902,United States,8650,Dapin,8
PH,Hessel-Mertz,2214,2357-8200-005-7,8.3910287,125.7869157,Philippines,8510,Knutson,59409
CN,Stehr-Macejkovic,1541,1434-9003-77547,30.7998721,103.8280655,China,0,Redwing,575
SE,Kohler LLC,1179,1262-49500-000-143,56.1929385,15.2667633,Sweden,372 34,Fallview,90057
PK,Heathcote-Heller,1207,1319-22042 CEDEX 2-905,31.9069842,73.2723283,Pakistan,52181,Trailsway,36
CN,"Macejkovic, Spinka and Dooley",1512,2133--989,22.935289,113.670324,China,0,Northwestern,2241
CN,Kutch Group,1002,2095-671 41-68,34.000317,115.319842,China,0,Blackbird,7217
CN,"Jaskolski, Rodriguez and Kilback",1864,2000-2520-053-59,24.89604,118.592147,China,0,Prairieview,3
AR,"Metz, Murphy and Terry",1462,1966-763 26-46,-36.5337379,-64.0106073,Argentina,6326,Dahle,725
EG,Casper-Aufderhar,1720,1804--448,28.297814,30.7116561,Egypt,0,Mendota,4632
NO,Hane-Skiles,1612,1847-391 55-357,59.9546982,10.7105679,Norway,778,Sunnyside,29
EG,Green Inc,2455,2159--9799,30.0444196,31.2357116,Egypt,0,Union,63
US,Grady and Sons,1112,1004-319-1304-2,38.889471,-77.0578855,United States,20566,Springs,336
CN,Green and Sons,1996,1904-95445 CEDEX-1,36.389401,120.44716,China,0,Di Loreto,974
CN,Jerde-Huel,2609,2341-34-143-5,27.098536,114.972769,China,0,Johnson,6778
TH,Marks-Emmerich,2266,2045-99599-35041,14.7324844,100.2824483,Thailand,14150,Pankratz,638
BE,"Bradtke, Lindgren and Lakin",1913,1518--5589,50.0109884,4.1638985,Belgium,6594,Blaine,939
PH,Trantow-Abbott,2044,2385--6,15.48277,120.58604,Philippines,3119,Memorial,672
JP,"Cremin, Prohaska and Labadie",2382,2351-13830-000-37,33.7356633,130.7183918,Japan,822-0034,Pierstorff,104
SE,Schultz-Mayert,2053,2013-115 37-1743,47.0165054,-68.1430064,Sweden,105 22,Amoth,6
PL,"Kunze, Will and Wiegand",1172,1885-6706-838,51.82709,17.4539199,Poland,63-720,Union,72794
PL,Haag Inc,1855,1417-45204 CEDEX-58802,50.12514,18.3810394,Poland,44-295,Hoepker,2917
BR,Brown and Sons,1340,1977--7,-20.7736517,-49.7107263,Brazil,15150-000,4th,2
BR,Quigley and Sons,1000,1580--57019,-30.0336816,-52.893221,Brazil,96500-000,Leroy,4303
MX,"VonRueden, Morissette and Bartoletti",2030,1416--82284,25.9375976,-100.3638252,Mexico,54927,Jay,6540
BR,Marvin Group,1962,1923--38,-24.7592533,-51.7601166,Brazil,85200-000,Bartillon,9204
CA,Welch LLC,2564,1938--73756,44.7515479,-79.8779499,Canada,L4R,Nova,7
SE,Emmerich and Sons,2008,1822-92139 CEDEX-417,58.4055961,15.7403531,Sweden,585 92,Carpenter,16
JP,Corwin and Sons,1505,1570-54501-35,38.2513578,140.8817471,Japan,984-0075,Westport,8660
CN,Predovic Inc,1269,1658-802 66-9800,24.723961,116.732091,China,0,Corscot,9
FR,Senger and Sons,1042,1841--27325,49.03353,2.0768291,France,95021 CEDEX,Loftsgordon,76943
BR,Gorczany-Greenfelder,1474,1239--7975,-28.7137096,-49.3091437,Brazil,88820-000,Dwight,24703
CN,Wisoky and Sons,1413,2020-739 34-6,26.0765362,119.2807519,China,0,Granby,622
PH,Sawayn and Sons,1242,2161--24305,8.972681,125.408732,Philippines,8601,Buell,467
PT,Fritsch LLC,1588,1669--17268,41.1217553,-8.228543,Portugal,4625-619,Oak Valley,6
CN,Aufderhar-Doyle,1426,1475--73296,25.575165,111.824739,China,0,Ronald Regan,347
NL,Hagenes Inc,1974,1450-8422-19838,52.2239735,5.1704277,Netherlands,1209,Stone Corner,95
CN,O'Connell Group,1457,2467--5,23.067896,115.027634,China,0,Comanche,563
BR,Kirlin and Sons,1844,1410-1888-56248,-30.0336816,-52.893221,Brazil,96500-000,Mallard,621
CN,Doyle-Gibson,1310,1079--52652,30.640814,93.232528,China,0,Morrow,321
BR,Marvin Group,1962,2230-3466-4986,-24.7592533,-51.7601166,Brazil,85200-000,Bartillon,9204
CN,Runte and Sons,1492,2132-302 40-6040,31.920658,120.284938,China,0,Tomscot,48
PH,Huels-Daugherty,1288,2440-73-201-6,14.53348,121.023574,Philippines,2307,Pankratz,200
PH,Cassin-Schmidt,1095,1437-4147-20,14.6020624,121.0161088,Philippines,8113,Forest,1892
PT,"Oberbrunner, D'Amore and Halvorson",1281,2373-3505-18223,41.6698545,-8.4450745,Portugal,4730-220,Chive,9701
MA,Moore-Rolfson,2268,2280-6185-255-18938,31.4374773,-7.4060306,Morocco,0,Mayfield,71
PL,"Dach, Simonis and Ankunding",2125,2424-981-1505-145,53.2385231,20.1681128,Poland,13-210,Oneill,32
PH,Bergnaum-Flatley,1941,1563-76000-6,7.9187344,125.3297787,Philippines,8711,Sommers,1
CN,"Zemlak, Bashirian and Schowalter",1936,2002-33158-4,27.685255,105.390592,China,0,Westerfield,80
CN,Schulist-Beier,2140,2023--52,33.423357,109.152893,China,0,Sutherland,62
CN,"McLaughlin, Streich and Fahey",2523,1890--685,41.5220136,111.7047656,China,0,Jenna,9082
JP,Ullrich and Sons,1620,1148-378-0401-4895,36.7806554,137.0779342,Japan,934-0099,Gerald,2955
CO,"Ryan, Hartmann and Gerhold",2488,2552--49691,7.38153,-73.919121,Colombia,135067,Loeprich,2
PH,"Torp, Schuster and Bayer",1385,2154-410018-898,11.25111,125.00639,Philippines,6516,Burrows,71699
CN,"Grady, Weber and Fritsch",1358,1745--1,23.9563274,113.1916737,China,0,Forster,325
CN,"Franecki, MacGyver and Schiller",2203,1202--352,35.237207,102.827734,China,0,Kensington,5507
PH,Gerhold Group,2262,1759--6,7.1760285,125.4423957,Philippines,2442,Jay,349
GR,Kuhn-Bradtke,2560,1542-42360-9,39.420994,20.0143022,Greece,0,Pepper Wood,675
NO,Jacobson Group,1986,1459-3180-14,60.3475308,5.3728746,Norway,5098,Butternut,94
CN,"Schulist, Okuneva and Daniel",1642,2261--9,41.821778,124.048453,China,0,Loftsgordon,47277
HU,Denesik Inc,2189,2339-5033-84,47.9527415,21.6927245,Hungary,4404,Everett,544
CN,Schuppe-Bernhard,1906,1828-38440-000-926,38.665105,112.032036,China,0,Forster,3846
MX,"Zulauf, Gottlieb and Marks",2274,1136-474-0074-731,19.4458447,-99.1497664,Mexico,71730,Kinsman,7
CN,"Quigley, Beatty and Runolfsdottir",1984,2538-4900-3911,28.228209,112.938814,China,0,David,49949
CN,Huels Inc,1975,1610-14160-000-643,30.0747701,-95.5216667,China,0,3rd,335
CN,"Rutherford, Ebert and Treutel",1960,1200-5044-137,35.319084,114.540858,China,0,Huxley,7113
CN,"Ward, Medhurst and Kuphal",2541,1463--41,23.36225,103.374576,China,0,Anderson,7934
SE,"Quigley, Senger and Monahan",1100,2516-360 01-97,56.2094069,14.8470274,Sweden,374 53,Judy,226
PH,Padberg LLC,1325,1830-21310-61052,10.729632,124.795761,Philippines,6521,Thackeray,5
SE,"Homenick, Johnson and Kris",1638,2413-10039-164,62.3946271,17.2842162,Sweden,851 78,Northview,835
CN,Cremin-Borer,2231,2124-35570-000-2348,22.9550072,113.0126011,China,0,Golf Course,9
PL,"Berge, Welch and Carter",1719,2294-L-7794-12,52.7704654,17.9583306,Poland,88-306,Hayes,1035
CN,Monahan and Sons,1903,2485--12822,47.171717,124.863603,China,0,Arapahoe,6
PL,"Erdman, Hermiston and Ryan",2415,2003-589 01-86,53.4513,17.5316201,Poland,89-400,Truax,90
CO,McGlynn-Smitham,1008,2078-614 94-87,4.727773,-76.121514,Colombia,761517,Heffernan,28
TH,Zieme Inc,2123,1948-44101 CEDEX 4-48,13.0427506,100.9345401,Thailand,20150,Hoepker,4
CN,Harber Group,1892,2539-290 01-774,40.425649,-3.6721577,China,0,Nelson,618
PT,Monahan-Bernier,2422,1456--9945,38.402951,-28.080155,Portugal,9930-025,Commercial,64433
PH,"Torphy, Wuckert and Lueilwitz",2457,2335-9607-80903,15.0929667,120.6560529,Philippines,5513,John Wall,5
BR,Conroy-Swift,1582,2359--24,-22.3595631,-47.3853435,Brazil,13600-000,Lakeland,13
PT,Wuckert-Kuphal,1583,2005-4815-014-127,40.562696,-8.768226,Portugal,3840-272,Mesta,915
CO,Hilll Group,1192,1484--81,7.3111492,-73.2057595,Colombia,687527,Bunker Hill,19
TH,"Sporer, Gulgowski and Waelchi",2287,1421-4580-604-2120,7.0086472,100.4746879,Thailand,90110,Redwing,9972
BR,Glover Group,1736,1746--60833,-22.4101426,-47.5717516,Brazil,13500-000,Schurz,394
PT,Baumbach and Sons,1390,1602-1673-11,41.5331853,-8.2524001,Portugal,4830-264,Monument,92388
HU,Bruen and Sons,1475,1898--4,47.4936583,21.66245,Hungary,6718,Michigan,54
CN,"Bauch, Ebert and Fritsch",2178,2218--6746,37.9331181,102.6293927,China,0,Northfield,654
PL,Streich LLC,1681,1815-783 56-1190,51.3309754,19.3744004,Poland,97-413,Portage,7
BR,Leannon Inc,1311,1751--1,-17.8599943,-41.5091004,Brazil,39800-000,Mccormick,6324
CN,Walsh-Lubowitz,1707,1639-87505-9,40.731316,124.783659,China,0,Lukken,85182
PL,"Pollich, Price and Crooks",1096,2347-52428-53,50.002337,22.6516099,Poland,37-565,Service,4
PH,"Beatty, Friesen and Lind",1334,1653-2409-69,37.0594675,-120.8204617,Philippines,5102,Maryland,22
CN,"Altenwerth, Langosh and Krajcik",1272,2537--63789,44.596097,129.591591,China,0,Fisk,634
PT,Schimmel LLC,2565,1414--6264,39.8754035,-8.5885462,Portugal,3100-806,Ridgeway,2
PT,Smith and Sons,2330,1533--5,40.4603188,-8.72233,Portugal,3070-523,Ridgeway,818
CN,Hilll Group,1192,2432--4,40.417902,122.660538,China,0,Tomscot,3505
GR,"Swift, Brekke and Kessler",1418,1990--47,37.4132997,23.125332,Greece,0,Bultman,7617
SE,Wisoky LLC,2170,1480-3830-752-24,57.2702863,16.4538847,Sweden,572 32,Mayer,71151
GR,Johnson-Windler,1128,2458--75876,38.0412749,23.5418125,Greece,0,Moose,83
CN,"Wolff, Barton and Lynch",2183,2269-798 43-8287,24.979855,109.983076,China,0,Swallow,7778
US,Predovic LLC,1203,2206-71801-2274,30.02,-89.98,United States,70187,Johnson,84530
SE,"Bayer, Padberg and Botsford",1225,2141-75701-10368,60.1960972,17.8961823,Sweden,748 31,Anzinger,9338
US,Marvin Inc,2040,2598-72209-48,34.0028786,-84.1446376,United States,30096,Eliot,81430
CN,Medhurst-Lockman,1451,1899-93294-8,35.585575,119.761775,China,0,Moose,268
GB,Wisoky-Walter,1951,2397-38200-000-2,54.7598905,-1.3347302,United Kingdom,L74,Kipling,89
PH,Gusikowski LLC,1106,1603--1,9.7666664,124.4833298,Philippines,6812,Rusk,5
CN,Walker and Sons,1829,1619-23800-000-37219,28.888555,120.047651,China,0,Maple,309
CN,"Schiller, Heathcote and Hodkiewicz",1694,2121-41210-66,32.107051,121.483514,China,0,Judy,44914
BR,Conroy-Swift,1582,1025--4049,-22.3595631,-47.3853435,Brazil,13600-000,Lakeland,13
BR,"Mayer, Schaden and Yost",1925,1003-59007 CEDEX-861,-22.6475546,-47.1947232,Brazil,13150-000,Hudson,8283
HR,Dach-Schroeder,2584,2384-19125-9863,46.254048,16.2368405,Croatia,42242,Meadow Vale,8044
ZA,"Kling, Stiedemann and Bradtke",2550,1144-289 34-92,-29.4169973,24.7380385,South Africa,9987,Armistice,7
BR,"Stracke, Jakubowski and Halvorson",1909,1566-8204-15185,-22.8262707,-43.0152252,Brazil,24000-000,Clarendon,52458
CN,"Quigley, Beatty and Runolfsdottir",1984,1800-8716-186,28.228209,112.938814,China,0,David,49949
HR,Walsh Group,2217,2613-3060-816-46958,45.3982443,16.8946158,Croatia,44322,Warner,0
US,Pouros-Doyle,1820,1017-56900-000-56973,38.9374808,-77.0852258,United States,20016,Montana,7
BR,Cruickshank Group,1783,1187-751 35-258,-7.4686612,-37.2746574,Brazil,56700-000,Jay,25834
TH,Beatty-Marquardt,1567,1125--91342,16.7445704,100.1367166,Thailand,65140,Schmedeman,55
PL,"Marks, Schmidt and Mayert",2018,1328-3105-591,51.7864657,16.667577,Poland,64-130,Ilene,75097
ET,"Champlin, Schoen and Cassin",1420,2573-794 01-3,11.9227104,37.6998424,Ethiopia,0,Drewry,1438
CN,Lockman Inc,1786,1041-9802-688,49.16291,127.98658,China,0,Waubesa,3946
CN,Lockman LLC,1053,2136-2725-16,28.570101,115.797775,China,0,Rowland,65313
CN,"Hagenes, Legros and Buckridge",1338,1011--361,27.029507,113.732949,China,0,Spohn,810
BR,Rutherford-Muller,2501,1734-4500-30333,-17.3218249,-39.2360718,Brazil,45980-000,Kingsford,3
CA,O'Kon-Daniel,2548,1290--73651,48.4353479,-68.5537635,Canada,G5N,Judy,0
CN,Greenfelder LLC,1927,1301--8,47.013342,89.832786,China,0,Carey,76
CN,Von-Klein,1670,1084-3516-43,30.199688,110.674706,China,0,Bluejay,6858
CN,"Kautzer, Cronin and Lind",1357,1360--3656,35.709077,107.643631,China,0,Anniversary,61
BR,Christiansen-Schuppe,1264,1902-1209-46,-7.2290752,-35.8808337,Brazil,58100-000,Columbus,9112
CN,Jerde and Sons,2417,1908-6704-25639,23.0872891,113.295336,China,0,Waxwing,3016
PL,"Balistreri, Adams and Pagac",1244,1145-4064-6,52.99444,15.21918,Poland,74-320,Heffernan,0
DE,Ziemann-Hodkiewicz,1278,2451-5619-88,52.5890862,13.3032995,Germany,13509,Randy,765
CN,Kozey-Roberts,2383,2620-7210-2361,32.060255,118.796877,China,0,Blaine,4012
SE,Hamill-Nikolaus,1562,1886--9,58.5023638,13.1702373,Sweden,531 17,Lakewood,91
PH,Cassin LLC,2445,1255-4770-565-985,11.0181098,124.5298181,Philippines,2416,Pond,1
CN,Mosciski Group,1572,2430--7048,25.049518,116.420098,China,0,Center,92
CN,"Kris, Rath and Sipes",1160,2168-6525-181,30.274084,120.15507,China,0,South,4
PH,"Stanton, Bode and Becker",1466,1115-4323-45830,7.8394835,126.0502748,Philippines,8111,Maple,9601
PT,Davis-Morar,1949,2201-29800-000-56,41.3495192,-8.5704778,Portugal,4760-411,Reindahl,17594
TH,Krajcik Inc,2063,1560-461 70-951,14.8704596,101.8322677,Thailand,30170,Atwood,623
GR,Hudson-Konopelski,2379,1506-41-106-718,40.9282833,24.3057691,Greece,0,Mifflin,7
US,Torp Group,1646,1120-4214-2,35.1241195,-90.0443217,United States,38126,Mayfield,952
CN,Harris-Vandervort,1772,2047-525537-6,29.604453,112.385429,China,0,Village Green,60
CN,Kozey-Durgan,1252,2222-3860-042-1,29.696195,106.79542,China,0,Rockefeller,87
CO,"Kilback, Effertz and Kemmer",1866,1851-2620-005-4,6.9433577,-70.7168469,Colombia,810009,Chive,18
FR,Schulist Group,1344,1028-15400-000-5,43.3423246,1.2606792,France,17104 CEDEX,Melby,4803
BR,"Hoppe, Conroy and Volkman",1833,1052-29051-8,-7.1580805,-35.8549426,Brazil,58117-000,Lyons,355
CZ,Sporer-Bogan,2346,2481-6705-130,49.2422244,17.4697527,Czech Republic,768 21,Summerview,4672
BR,Gottlieb-Hoeger,1267,2396-113 03-1,-23.2797384,-46.7452277,Brazil,07900-000,Scott,1
JP,Boehm-Nolan,1346,1704-6328-974,38.282236,140.3411789,Japan,990-0812,3rd,6763
SE,Schultz-Mayert,2053,2580-44140-5,47.0165054,-68.1430064,Sweden,105 22,Amoth,6
PH,Bogan-Flatley,1146,2175-80905-3,14.4083543,121.0396806,Philippines,8118,Melody,4369
CN,Runte and Sons,1492,2450--4,31.920658,120.284938,China,0,Tomscot,48
CN,Connelly LLC,1509,1623--3,31.231121,121.466039,China,0,Fieldstone,1
MY,"Larson, Gulgowski and Schumm",1696,2365-6331-36097,1.5484759,103.7983752,Malaysia,80902,Schmedeman,7398
MX,Jast-Quigley,1725,2590-2035-151,18.5591814,-99.5982999,Mexico,40230,Leroy,69
SE,"Collins, Kub and Lynch",2247,2172--79,63.8223321,20.2753893,Sweden,412 86,Fair Oaks,52
JP,Rempel Inc,1041,1186-7445-65543,39.2783775,140.4636669,Japan,871-0921,Algoma,9
PT,Connelly-Stanton,1289,2014--97755,41.5256088,-8.346058,Portugal,4805-458,Pierstorff,0
CN,"Bauch, Ebert and Fritsch",2178,1384--7,37.9331181,102.6293927,China,0,Northfield,654
ZA,"Kling, Stiedemann and Bradtke",2550,1103--83,-29.4169973,24.7380385,South Africa,9987,Armistice,7
PT,"Mann, Johnston and Fadel",1352,2312--3,41.2789558,-7.2217804,Portugal,5360-035,Hollow Ridge,9722
PL,Homenick Inc,1294,1246--91,50.0994713,21.0432139,Poland,33-140,Dayton,3
SE,"Trantow, Kilback and Lebsack",1958,1126-24-170-43270,57.5798009,11.9641514,Sweden,427 40,Thierer,68943
CN,Zemlak Group,1684,2454-39390-000-37,47.185098,127.287077,China,0,Sullivan,457
BR,"Dooley, Boyle and Weissnat",2165,2623-78514 CEDEX-860,-29.3344108,-49.723909,Brazil,95560-000,Oak Valley,9
CA,Beahan-Hickle,2012,1295-94659 CEDEX 1-39,54.2331,-125.7533,Canada,M4H,Starling,80
CN,Hills-Funk,2232,1900-4745-235-2881,29.709214,107.606105,China,0,Schlimgen,675
TH,"Lubowitz, Von and Lind",1454,1304--23479,16.961392,102.2728739,Thailand,39180,Johnson,638
CN,Treutel and Sons,1842,1807-3850-40,35.640089,103.766427,China,0,Blackbird,99
CA,"Schulist, O'Hara and Casper",1723,1710--9,49.2725714,-123.1207968,Canada,V6Z,Graceland,7
CN,Monahan and Sons,1903,1953--6,47.171717,124.863603,China,0,Arapahoe,6
FR,Robel LLC,2444,1291-95860-000-39,44.8055893,-0.630617,France,33604 CEDEX,Muir,844
CN,Flatley Group,1050,1778-L-4982-39366,22.825834,115.003687,China,0,Bonner,58077
PL,Jacobson Inc,2405,1549-2500-070-34743,49.5873403,20.809162,Poland,33-334,Birchwood,3774
BR,D'Amore Inc,1485,2150-78215-260,-23.5893189,-46.0107997,Brazil,08940-000,Hooker,4644
CN,Green and Sons,1996,1391-478008-75,36.389401,120.44716,China,0,Di Loreto,974
PH,Rempel-Funk,2466,2340--39,13.657259,123.5098357,Philippines,4425,Maple Wood,910
FR,Bogisich Group,1860,1228--1016,48.890054,2.2372792,France,92077 CEDEX,Ludington,8271
BG,Kris Group,1347,1921-52848-3,43.2370452,23.1251092,Bulgaria,3500,Ridgeview,15
CF,Kerluke LLC,1807,1449-6540-9,5.3956496,26.4916731,Central African Republic,0,Hermina,59
CN,"Abshire, Turcotte and Hettinger",2105,1607-251607-3,36.309203,113.110378,China,0,Golf Course,256
SE,Abbott Inc,1098,1017-10141-53955,59.3125021,18.0760798,Sweden,116 23,Maryland,4072
PH,Macejkovic-Medhurst,1090,1577-13320-000-88,16.9126068,121.622089,Philippines,1017,Mandrake,896
CN,Schneider Inc,1417,1444--688,29.237137,91.773134,China,0,Parkside,92
CN,"Altenwerth, Langosh and Krajcik",1272,1251-5030-304-720,44.596097,129.591591,China,0,Fisk,634
BG,Labadie Group,1383,1485--606,43.5592985,25.9323591,Bulgaria,7159,Hoard,2
CN,Bogisich and Sons,1345,2109-38030 CEDEX 2-21,31.032243,121.227747,China,0,Derek,78
TH,"Lubowitz, Von and Lind",1454,1470-50101-77,16.961392,102.2728739,Thailand,39180,Johnson,638
CN,"Glover, Zemlak and Mertz",2035,1873-8650-104-884,34.386714,107.445334,China,0,Leroy,16810
CN,"Schiller, Cummerata and Mayert",2164,2039-52311-2,38.067932,111.797083,China,0,Fordem,29
PT,Monahan-Bernier,2422,2502-16200-000-0,38.402951,-28.080155,Portugal,9930-025,Commercial,64433
BR,"Kunde, Jerde and Pouros",1571,1824-N5R-4,-22.2131635,-49.6555394,Brazil,17400-000,Arizona,6
CN,Grady-Stark,2324,2403--855,30.864884,112.67271,China,0,Union,17
FR,Senger and Sons,1042,1314-75455 CEDEX 09-329,49.03353,2.0768291,France,95021 CEDEX,Loftsgordon,76943
CN,Kerluke-Medhurst,2480,2059-46-053-75525,29.461194,110.152436,China,0,Reinke,8
CN,Zemlak Group,1684,2309--532,47.185098,127.287077,China,0,Sullivan,457
CN,Smitham Group,1055,2370-412 20-3697,24.6613135,102.3589828,China,0,Stang,3408
PK,Shields Inc,1065,2026--60,34.0112004,71.9795856,Pakistan,43261,Cardinal,88
NO,Satterfield LLC,1554,1048-NN4-35323,59.9050895,10.7673005,Norway,211,Steensland,26239
CA,"Cassin, Beer and Romaguera",1972,1276-12004-1,44.5007687,-80.2169047,Canada,L9Y,Packers,25947
PH,Langworth-Huels,1671,2016-2710-145-6943,16.8907872,121.5670029,Philippines,1717,Bartillon,25
CN,Kris-Reinger,2338,1773--0,40.2023282,116.2398367,China,0,Spenser,6617
CN,"Mills, Bechtelar and Johnson",2028,1037-70187-470,31.263629,121.58448,China,0,Heath,67
CN,Kuhic LLC,1077,1808-7210-9929,22.6229329,113.2773942,China,0,Butterfield,47
CN,Mitchell Group,1486,1089-2205-806-44390,19.238934,108.957345,China,0,Fallview,5
AS,Rodriguez-Prohaska,2286,1396--78,-14.2697392,-170.6618234,American Samoa,96799,Duke,4986
PL,"Pfeffer, Fahey and Gerlach",2235,1364-739 46-2,49.69427,22.0193601,Poland,36-200,Basil,4495
CN,Runte and Sons,1492,1370-20184 CEDEX 1-22,31.920658,120.284938,China,0,Tomscot,48
PL,Wisoky Group,2419,1961--956,50.0384685,22.0969371,Poland,36-007,Novick,76
FR,Gerlach Group,1015,1774--1,50.4217341,2.8830762,France,62247 CEDEX,Esch,51956
FR,"Witting, Hickle and Kihn",1740,1072-78995-000-90,43.2916776,-0.3696612,France,64044 CEDEX,Bartelt,4119
HR,Purdy-Stark,1021,2011-C15-4722,45.4075606,13.9651276,Croatia,52420,Grayhawk,728
US,Thiel-Streich,1503,1510-2710-102-9,40.04,-76.31,United States,17622,Eagan,270
PT,Kshlerin Inc,2117,1680-4307-6133,37.0313282,-7.8430189,Portugal,8700-156,Nova,9
GR,Beahan-Dietrich,2102,2358--9376,35.3606523,24.5719605,Greece,0,Red Cloud,72591
FR,"Greenholt, Greenfelder and Blanda",1627,1792-753 09-79,48.8039832,2.4347009,France,94704 CEDEX,Red Cloud,6
BR,Sporer Inc,2049,1530-7303-293,-21.8737026,-51.8452266,Brazil,19400-000,Toban,2
PL,Abbott and Sons,1832,1248--827,53.1406245,17.1259608,Poland,89-340,Rockefeller,79
JP,Predovic Inc,1269,1555--8,35.4420431,136.6271698,Japan,501-0531,Spohn,2
CN,Wiegand LLC,1323,1261--443,39.325788,111.962127,China,0,Rutledge,3
CN,Lynch-Daugherty,2037,1915--96,24.102499,115.317446,China,0,Glendale,612
US,Kiehn-Roberts,1131,1596--632,39.3035567,-94.7195096,United States,64190,Burrows,715
CN,Krajcik-Rogahn,2097,2136-53716-21,38.430793,100.812859,China,0,Northport,69
BR,"Dach, Nicolas and Paucek",1496,1430-51457-75127,-29.8990311,-51.0536949,Brazil,94000-000,Mosinee,7003
PH,Conn Group,2536,1345-251 63-35,10.6993883,122.5024428,Philippines,5020,Kinsman,53769
JP,Rogahn and Sons,1378,2528-8800-114-3117,37.4391941,140.5728754,Japan,963-4603,Manley,13122
BR,Rempel-Conroy,1303,1919-865-0122-210,-18.9253941,-54.8438521,Brazil,79480-000,Ridgeway,28169
GB,Wisoky-Walter,1951,2304--9,54.7598905,-1.3347302,United Kingdom,L74,Kipling,89
CN,"Stark, Erdman and Pfannerstill",1872,1170--859,41.068909,122.949298,China,0,Garrison,20842
CN,Kerluke-Medhurst,2480,1064-228-0027-98,29.461194,110.152436,China,0,Reinke,8
GR,"Hagenes, Bode and Veum",1166,2332--1,41.0606685,24.0475546,Greece,0,Elmside,3
US,Denesik-Von,2404,2491-273 02-26,29.6211025,-95.2632201,United States,77075,Straubel,65
TH,Marks-Emmerich,2266,1173-2806-29,14.7324844,100.2824483,Thailand,14150,Pankratz,638
BR,Leannon Inc,1311,2202-34-350-70,-17.8599943,-41.5091004,Brazil,39800-000,Mccormick,6324
PT,Rosenbaum and Sons,1396,1545--5,40.8148532,-8.4821897,Portugal,3720-029,Waxwing,1939
CN,Weber-Grady,1945,2483-634027-99503,30.830898,120.92585,China,0,Cordelia,51299
CN,"Rohan, Bartoletti and Moen",1907,2293-6607-749,31.248842,88.417003,China,0,Packers,9
CZ,"Gislason, Bogisich and Prosacco",2169,2437--2904,49.4434442,15.8815566,Czech Republic,592 14,Mallory,26
FR,Stark LLC,1124,2570-93995-3982,48.892701,2.233089,France,92901 CEDEX,American,37046
MX,O'Hara and Sons,1561,1257--720,23.7322067,-99.1829833,Mexico,87078,Milwaukee,37437
GH,Ruecker and Sons,1641,1531--74558,6.4532257,-1.5838477,Ghana,0,Anzinger,790
CN,"Mills, Bechtelar and Johnson",2028,2155--51632,31.263629,121.58448,China,0,Heath,67
GR,Tromp Group,2361,1525--8936,39.3552067,21.538589,Greece,0,Ridgeview,63846
CN,Schumm-Schmitt,1317,1086-27204 CEDEX-18881,22.806457,114.073302,China,0,Lillian,3744
CN,Heller and Sons,1043,2611-675 26-19563,24.288578,116.122523,China,0,Bellgrove,33
JP,Labadie Group,1383,1014--25,38.3559764,140.3748668,Japan,999-3776,Boyd,3063
CN,Boyer-Bergnaum,2344,1604--6,23.590649,101.317787,China,0,Village Green,7
BR,"Halvorson, Fahey and Kilback",2139,1036-1746-976,-23.1770273,-46.4970116,Brazil,12955-000,Pine View,460
CA,"Kuphal, Koelpin and Rowe",1575,1455-13834 CEDEX-750,51.7920135,-114.105279,Canada,T4H,Carpenter,9
ZA,"Kling, Stiedemann and Bradtke",2550,2058-10300-74,-29.4169973,24.7380385,South Africa,9987,Armistice,7
CN,Herzog and Sons,2284,1308-79260-000-7964,27.9805586,94.6884956,China,0,Troy,4
CN,Kris-Reinger,2338,1284--46,40.2023282,116.2398367,China,0,Spenser,6617
NO,"Stanton, Schulist and Schaefer",1185,2428--7,59.0897572,9.6973548,Norway,3943,Pond,15641
CN,"Jenkins, McCullough and Kozey",2377,2418-4323-9415,43.817071,125.323544,China,0,Eggendart,177
CZ,"Kilback, Marquardt and Gusikowski",1220,1551--47172,50.7648787,15.3726031,Czech Republic,468 49,Delladonna,2043
CN,Lynch-Daugherty,2037,1271-78294 CEDEX-9866,24.102499,115.317446,China,0,Glendale,612
PT,Balistreri and Sons,1068,2585-3714-20446,39.0800897,-8.7620955,Portugal,2070-510,Warrior,20663
CN,Mitchell Group,1486,2116--37963,19.238934,108.957345,China,0,Fallview,5
BR,Brown and Sons,1340,2513--3552,-20.7736517,-49.7107263,Brazil,15150-000,4th,2
PH,Sawayn and Sons,1242,1400--28,8.972681,125.408732,Philippines,8601,Buell,467
FR,Brown-Emmerich,2024,2209-3300-574,48.759003,2.323941,France,94269 CEDEX,Buhler,4224
JP,Predovic Inc,1269,1316--88150,35.4420431,136.6271698,Japan,501-0531,Spohn,2
CN,Hilll Group,1192,1794--6082,40.417902,122.660538,China,0,Tomscot,3505
NL,McKenzie-Lakin,1614,1129-8104-4023,51.6271163,4.9413027,Netherlands,5104,Nobel,53993
CN,Stracke and Sons,1915,1586--77,23.099153,113.810423,China,0,Karstens,45183
PK,Rogahn-Douglas,1293,1585--1799,28.0159533,69.5483393,Pakistan,63211,Ridgeway,9
CN,O'Hara-Nicolas,2237,,33.6634952,112.6061178,China,0,Algoma,94165
SE,"Kohler, Boehm and Cronin",1552,,56.246131,12.8726986,Sweden,262 34,Graceland,9430
PH,Kutch Group,1002,,13.9686682,120.7285858,Philippines,4213,Arrowood,1
PT,Monahan-Bernier,2422,,38.402951,-28.080155,Portugal,9930-025,Commercial,64433
FR,Predovic Group,1661,,44.255137,5.262028,France,13681 CEDEX,Onsgard,6268
AR,Wyman-Rowe,2166,,-34.5054318,-58.5144579,Argentina,3100,Elka,43
AU,Senger and Sons,1042,,-34.0349557,151.0998291,Australia,1028,Dottie,46
US,Emard-Langworth,2052,,41.879109,-86.550039,United States,48258,Sunfield,4113
CN,Watsica-Hartmann,2091,,32.2009532,119.4314373,China,0,Brown,51648
SE,Schultz-Mayert,2053,,47.0165054,-68.1430064,Sweden,105 22,Amoth,6
PH,Hammes-VonRueden,2521,,11.042265,123.9418261,Philippines,5016,Cody,552
CN,Treutel and Sons,1842,,35.640089,103.766427,China,0,Blackbird,99
CN,Ferry Group,1665,,44.326388,85.619416,China,0,Karstens,7
AR,Fahey-Hudson,2495,,-42.7592642,-65.0612637,Argentina,9033,Melvin,88
CZ,Parisian-Jakubowski,2179,,49.9594627,15.9105476,Czech Republic,538 62,Scoville,502
BR,"Schimmel, Rowe and Mayer",1880,,-11.2407526,-48.4473452,Brazil,77553-000,Lien,493
MX,Jaskolski and Sons,1084,,21.8756188,-102.2848729,Mexico,70324,Ridge Oak,283
AR,Moore-Schmitt,2227,,-20.4170226,-49.9812625,Argentina,3515,7th,419
US,"Schmeler, Abernathy and Nienow",1469,,35.4209352,-97.6656625,United States,73179,Crowley,4
BR,Huel LLC,1337,,-21.1877747,-41.8799408,Brazil,28300-000,Northview,8895
PT,"Gleason, Weissnat and Stroman",1443,,40.3753066,-8.7157832,Portugal,3070-063,Fisk,70979
FR,Ondricka-Konopelski,1930,,48.8348801,2.5070548,France,94174 CEDEX,Maryland,3
KR,Buckridge Group,1359,,37.3942527,126.9568209,South Korea,0,Petterle,26
PK,"Lemke, Hettinger and Blanda",2135,,29.2083348,72.8578648,Pakistan,62021,Superior,55
PT,"Smitham, Bashirian and McClure",2588,,38.7122242,-9.2688282,Portugal,2760-040,Roth,8
CZ,Hayes Group,2587,,49.7694382,13.5090071,Czech Republic,330 02,Fairfield,2006
US,Padberg Inc,1528,,30.372807,-91.1833043,United States,70820,Tennyson,5
FR,Medhurst-Schiller,1143,,47.581201,1.375111,France,41355 CEDEX,Susan,482
CN,Cremin-Borer,2231,,22.9550072,113.0126011,China,0,Golf Course,9
PT,Bernhard-Russel,1699,,41.2918839,-8.1963545,Portugal,4620-787,Village,719
SE,Dach-Brakus,1985,,57.7184395,12.0103839,Sweden,416 70,Prentice,40958
CR,Cole Inc,1537,,9.477773,-84.2662901,Costa Rica,60901,Oak,7
FR,"Kessler, Fadel and Nitzsche",1298,,45.1934857,5.7218985,France,38051 CEDEX 9,Kedzie,39
CZ,Stark Group,2162,,49.7647258,16.9050077,Czech Republic,789 85,Larry,67
BR,D'Amore Inc,1485,,-23.5893189,-46.0107997,Brazil,08940-000,Hooker,4644
CN,Heathcote LLC,2531,,28.879936,106.935101,China,0,Sunnyside,5
PH,Ernser-Lebsack,2321,,15.9880572,120.3487416,Philippines,2419,Morning,92552
PT,"Oberbrunner, D'Amore and Halvorson",1281,,41.6698545,-8.4450745,Portugal,4730-220,Chive,9701
CN,Blanda-Marvin,2193,,26.893368,112.572018,China,0,Jana,1413
CA,"Kuphal, Koelpin and Rowe",1575,,51.7920135,-114.105279,Canada,T4H,Carpenter,9
CN,Monahan and Sons,1903,,47.171717,124.863603,China,0,Arapahoe,6
PH,Ledner-Jacobi,1104,,13.2317498,123.7702587,Philippines,4508,Carberry,942
PH,"Schmeler, Hansen and Schowalter",2108,,13.9311113,121.4233322,Philippines,4323,Charing Cross,31449
CN,Kovacek LLC,2126,,33.001096,106.91786,China,0,Mccormick,35868
SE,Kautzer LLC,1168,,59.1575081,18.1350248,Sweden,137 24,Shoshone,56
BR,"Kassulke, Mitchell and Kuvalis",1051,,-3.2023658,-45.0373171,Brazil,65215-000,Mockingbird,361
PT,"Ankunding, Ward and Nitzsche",2558,,40.4423844,-8.6946024,Portugal,3070-605,Mandrake,8
US,Cassin-Hyatt,2512,,39.0269443,-94.6673484,United States,66276,Briar Crest,7013
DE,Nitzsche-Stracke,2391,,54.3418823,10.1150681,Germany,24118,Pierstorff,190
CN,Fay Inc,1197,,39.221631,97.971276,China,0,Hanson,235
CA,Muller Group,1854,,47.59989,-53.26478,Canada,V3B,Heffernan,790
SE,Gorczany-Spinka,2477,,47.02018,-68.1434996,Sweden,118 92,Fisk,36186
CN,"Rohan, Bartoletti and Moen",1907,,31.248842,88.417003,China,0,Packers,9
GR,Beahan-Dietrich,2102,,35.3606523,24.5719605,Greece,0,Red Cloud,72591
PH,Hartmann-Hermann,2077,,14.3679657,121.0504535,Philippines,4023,Cascade,642
ES,Stoltenberg Group,1148,,39.5013158,-0.3889622,Spain,46025,Longview,74881
CN,Gutkowski-Lemke,2207,,48.239135,126.481867,China,0,Marcy,38
CZ,"Schmidt, Bauch and Roob",2114,,50.98709,14.5696066,Czech Republic,407 53,Scofield,8210
CO,Crona LLC,1942,,9.834832,-75.120521,Colombia,132037,Holy Cross,3795
NO,Dicki-Simonis,1181,,58.4816956,8.7569654,Norway,4846,Derek,4794
PH,"Dach, Greenfelder and Anderson",1735,,13.2979317,123.7802005,Philippines,905,Menomonie,3
FR,Jacobs-Nikolaus,2600,,48.7471816,2.3572729,France,94593 CEDEX 2,Porter,78981
CN,Orn LLC,1517,,34.326903,108.117456,China,0,Maryland,7578
CN,Jerde and Sons,2417,,23.0872891,113.295336,China,0,Waxwing,3016
SE,Roberts LLC,1755,,58.9108802,17.9314968,Sweden,149 43,Graceland,97
CN,Kuhn Group,1049,,38.238247,114.491954,China,0,Golf,81
SE,Russel LLC,1711,,60.1555962,15.2372246,Sweden,771 55,Delaware,4700
GR,Collier Inc,2425,,38.3741418,23.1060007,Greece,0,Village Green,66
BR,"Rowe, Larkin and Williamson",1795,,-7.2787651,-35.2697802,Brazil,58338-000,Algoma,874
HU,"Wisozk, Oberbrunner and Hermiston",1709,,46.9067373,19.691788,Hungary,6004,Graedel,90
PH,Flatley LLC,1376,,13.0730815,123.5982956,Philippines,4515,Fairview,462
CN,Zemlak Group,1684,,47.185098,127.287077,China,0,Sullivan,457
CN,Roberts Inc,1380,,22.781631,108.273158,China,0,Manufacturers,2776
CN,Lowe Group,1302,,33.347316,120.16366,China,0,Katie,5160
CN,Predovic LLC,1203,,23.1497287,113.3227193,China,0,Jenna,21520
TH,Krajcik Inc,2063,,14.8704596,101.8322677,Thailand,30170,Atwood,623
PL,Berge-Stamm,1700,,54.0481202,22.2939742,Poland,19-411,Scoville,0
CN,Doyle-Gibson,1310,,30.640814,93.232528,China,0,Morrow,321
CN,Dach-Krajcik,1764,,28.579409,110.090436,China,0,Northridge,632
CZ,Swaniawski-Zulauf,1657,,49.2060334,15.5181999,Czech Republic,588 62,North,75
CZ,Sporer-Bogan,2346,,49.2422244,17.4697527,Czech Republic,768 21,Summerview,4672
CN,Bartell Inc,2540,,39.109563,117.223371,China,0,Surrey,33175
PL,Grimes LLC,1823,,50.0672776,21.2406149,Poland,39-215,Dwight,230
MY,"Beier, Ziemann and Keebler",1867,,3.1523104,101.7178316,Malaysia,50802,Meadow Ridge,620
FR,Schuster-Rutherford,1199,,48.5228354,2.6377136,France,77193 CEDEX,Vidon,0
US,Armstrong Group,2032,,38.79,-77.19,United States,22156,Swallow,9556
BR,Greenholt Inc,2057,,-25.979821,-52.5678016,Brazil,85550-000,Brentwood,7
BR,Pfeffer and Sons,2092,,-20.9827531,-48.0563942,Brazil,14180-000,Delladonna,3
CN,Keeling Group,1429,,22.636828,113.814606,China,0,Mccormick,692
PL,Halvorson-Ziemann,1405,,50.0751569,20.4549189,Poland,32-708,Anderson,7313
CN,"Hyatt, O'Keefe and Monahan",2144,,23.634675,112.44069,China,0,Messerschmidt,0
CA,Purdy and Sons,2187,,53.7925065,-113.6463436,Canada,T8R,Caliangt,6
PL,"Aufderhar, Goyette and Gislason",1005,,51.612047,18.615044,Poland,98-285,David,90169
AS,"Weissnat, Braun and Gibson",1605,,-14.3377247,-170.7810162,American Samoa,96799,Marcy,4791
CZ,"Halvorson, Gleason and Parisian",2017,,50.6558337,15.4518432,Czech Republic,512 42,Scott,468
CN,Ziemann LLC,1227,,37.943121,115.217658,China,0,Kipling,40
CN,Cummerata Group,1046,,35.4937018,110.3838909,China,0,Killdeer,760
PL,West-Hyatt,1237,,52.3369183,15.3336362,Poland,66-220,Packers,2500
PT,Wuckert-Kuphal,1583,,40.562696,-8.768226,Portugal,3840-272,Mesta,915
FR,"Cartwright, DuBuque and Vandervort",1967,,43.0429124,1.9038837,France,69413 CEDEX 06,Shelley,589
PL,Wisoky Group,2419,,50.0384685,22.0969371,Poland,36-007,Novick,76
CN,Dickinson LLC,1314,,27.5566857,107.0336505,China,0,Schmedeman,1002
PH,Jerde LLC,1712,,14.3876884,121.0011959,Philippines,6544,Moland,0
HU,Hoeger-McKenzie,1787,,46.9067373,19.691788,Hungary,6004,Bellgrove,506
BR,Schaefer-Bernier,2350,,-4.8220831,-42.1644994,Brazil,64280-000,Victoria,4297
US,Denesik-Von,2404,,29.6211025,-95.2632201,United States,77075,Straubel,65
PT,Cassin-Schmidt,1095,,39.4477824,-9.014074,Portugal,2500-772,Artisan,86
CN,Kuvalis Inc,1791,,36.334307,99.670448,China,0,Mitchell,9
PL,"Stroman, Harvey and Smitham",1878,,50.051293,19.372452,Poland,32-503,Hagan,0
TH,Zieme Inc,2123,,13.0427506,100.9345401,Thailand,20150,Hoepker,4
CN,Lind-Smith,1108,,25.45872,119.116289,China,0,Northport,824
CN,"King, Cartwright and Mertz",1714,,24.565521,117.936238,China,0,Little Fleur,6209
MX,Nicolas-Waters,1433,,19.4127929,-99.1186381,Mexico,29913,Cherokee,201
SG,Cartwright and Sons,1116,,1.352083,103.819836,Singapore,0,West,8
JP,Ullrich and Sons,1620,,36.7806554,137.0779342,Japan,934-0099,Gerald,2955
TH,Gerhold-Mertz,1285,,7.2077348,100.595029,Thailand,56000,School,3774
CN,"Huel, Reinger and Gutkowski",1624,,26.422277,112.859759,China,0,Gerald,67
EG,Casper-Aufderhar,1720,,28.297814,30.7116561,Egypt,0,Mendota,4632
PT,Fritsch LLC,1588,,41.1217553,-8.228543,Portugal,4625-619,Oak Valley,6
CN,"Jenkins, McCullough and Kozey",2377,,43.817071,125.323544,China,0,Eggendart,177
CN,"Rempel, Huels and Stracke",2288,,30.266872,118.400608,China,0,Oakridge,21
PT,Bergnaum-Zemlak,2357,,37.0939437,-8.2461254,Portugal,8200-005,Del Sol,7
PH,D'Amore and Sons,1434,,8.6427567,124.770152,Philippines,9003,Killdeer,77547
BR,Davis Inc,1262,,-10.6872332,-37.4329352,Brazil,49500-000,Moulton,143
CN,Wiza-Thiel,1386,,31.2303904,121.4737021,China,0,Melvin,6
FR,Jacobs-Fadel,1319,,48.5111249,-2.7674407,France,22042 CEDEX 2,Thierer,905
FR,Gerlach Group,1015,,50.4217341,2.8830762,France,62247 CEDEX,Esch,51956
SE,Goldner Inc,2191,,59.3593609,17.9863038,Sweden,169 30,Becker,65
CN,"Christiansen, Steuber and Huels",2133,,26.662155,102.242653,China,0,Oriole,989
CO,McGlynn-Smitham,1008,,4.727773,-76.121514,Colombia,761517,Heffernan,28
SE,Frami-Blanda,2095,,59.6715102,12.6108644,Sweden,671 41,Heath,68
PT,"Considine, Gerhold and Hilll",2000,,39.3688081,-9.3284939,Portugal,2520-053,Browning,59
CZ,"Leuschke, Schmeler and Parker",1966,,49.0998215,17.757483,Czech Republic,763 26,Mallory,46
CN,Hickle Group,1280,,36.112722,116.454574,China,0,Harbort,6640
CN,"Schultz, Gutmann and Feest",1231,,33.001096,106.91786,China,0,Portage,3
FR,Bogisich Group,1860,,48.890054,2.2372792,France,92077 CEDEX,Ludington,8271
KE,"Weimann, Baumbach and Hagenes",1804,,-0.1634664,35.5931397,Kenya,0,Kingsford,448
CZ,Bernier-Schiller,1847,,49.4067724,14.8112191,Czech Republic,391 55,Golden Leaf,357
FR,Boyer-Reinger,2260,,48.6910817,2.3741324,France,91265 CEDEX,Novick,8266
PH,Kemmer-Pacocha,2194,,13.751166,121.0645073,Philippines,4111,Vermont,6
CN,Kozey-Durgan,1252,,29.696195,106.79542,China,0,Rockefeller,87
CN,Ritchie-Hills,2159,,27.951331,92.009188,China,0,Hazelcrest,9799
JP,Sipes-Murphy,1004,,36.675439,140.6715934,Japan,319-1304,Russell,2
FR,"Wisoky, Cormier and Collier",1904,,49.034461,2.3496109,France,95445 CEDEX,Dahle,1
PL,"Williamson, Boehm and Gislason",2341,,49.896113,19.665565,Poland,34-143,Sachtjen,5
PT,Koelpin-Kertzmann,1912,,39.1392555,-8.6756761,Portugal,2080-381,Hooker,4
CN,"Kris, Rath and Sipes",1160,,30.274084,120.15507,China,0,South,4
PL,"Erdman, Hermiston and Ryan",2415,,53.4513,17.5316201,Poland,89-400,Truax,90
SE,Hartmann-Bartell,1760,,60.1512028,15.1735854,Sweden,771 31,Texas,618
US,Emard-Dickinson,2045,,61.1870241,-149.8822186,United States,99599,Valley Edge,35041
CN,"Bauch, Ebert and Fritsch",2178,,37.9331181,102.6293927,China,0,Northfield,654
CN,Buckridge LLC,2498,,31.918232,119.976948,China,0,Westerfield,3
NO,Hane-Skiles,1612,,59.9546982,10.7105679,Norway,778,Sunnyside,29
CN,Hegmann Inc,1767,,29.117096,110.479191,China,0,John Wall,94
PH,Smitham Group,1055,,6.737092,124.600287,Philippines,1103,Kedzie,2060
CN,Langworth-Halvorson,1518,,24.176656,107.349803,China,0,Merchant,5589
CN,"Hilll, Bauch and Hamill",1508,,29.5846375,106.5042786,China,0,South,1412
CN,Hettinger and Sons,2385,,32.584328,111.948474,China,0,Walton,6
BR,Von-Hackett,2351,,-22.6053393,-46.914966,Brazil,13830-000,Pierstorff,37
SE,Hackett and Sons,2013,,59.3473789,18.0975334,Sweden,115 37,Dexter,1743
TH,"Lubowitz, Von and Lind",1454,,16.961392,102.2728739,Thailand,39180,Johnson,638
PH,Yost-Ondricka,1885,,12.013045,124.815974,Philippines,6706,Dexter,838
CN,Rodriguez-Volkman,1677,,43.24417,127.181168,China,0,6th,19757
CN,Rolfson LLC,2544,,42.438551,127.295067,China,0,Annamark,255
FR,Schneider Inc,1417,,48.006844,2.7428365,France,45204 CEDEX,Butternut,58802
TH,Beatty-Marquardt,1567,,16.7445704,100.1367166,Thailand,65140,Schmedeman,55
MA,"Spencer, Ritchie and Jast",1977,,32.2066153,-6.4649964,Morocco,0,Division,7
CO,Hilll Group,1192,,7.3111492,-73.2057595,Colombia,687527,Bunker Hill,19
NL,Rodriguez Inc,2469,,51.8281611,4.1481143,Netherlands,3224,Anthes,64226
PL,Homenick Inc,1294,,50.0994713,21.0432139,Poland,33-140,Dayton,3
CN,"Orn, Cummings and Greenfelder",1580,,32.781659,119.459161,China,0,Wayridge,57019
CN,Schneider and Sons,1507,,32.0378049,118.7870855,China,0,Shoshone,5582
CN,Schmeler and Sons,1416,,40.256729,115.474295,China,0,Acker,82284
CN,Lueilwitz Inc,1923,,30.274084,120.15507,China,0,Victoria,38
PL,Pouros and Sons,1102,,52.3468215,21.2540462,Poland,05-203,Weeping Birch,658
PT,Kertzmann-Erdman,2070,,40.8253148,-8.4661017,Portugal,3720-085,Golf,74
CN,Doyle Inc,1938,,39.19537,117.218044,China,0,Huxley,73756
JP,Miller Inc,2515,,33.4596808,132.7393724,Japan,797-1506,Manley,23665
CN,"Mills, Bechtelar and Johnson",2028,,31.263629,121.58448,China,0,Heath,67
PL,Jacobson Inc,2405,,49.5873403,20.809162,Poland,33-334,Birchwood,3774
PL,Dooley-Feest,1044,,51.9611016,15.959277,Poland,67-415,Transport,0
BR,Christiansen-Schuppe,1264,,-7.2290752,-35.8808337,Brazil,58100-000,Columbus,9112
CA,"Gerlach, Cassin and Parker",1599,,45.9891389,-67.2412221,Canada,E6G,Oneill,78670
FR,White-Spinka,1822,,48.821908,2.2615744,France,92139 CEDEX,Brickson Park,417
FR,"Greenholt, Greenfelder and Blanda",1627,,48.8039832,2.4347009,France,94704 CEDEX,Red Cloud,6
FR,"Homenick, Marquardt and Zemlak",2503,,47.3410322,1.1586866,France,21209 CEDEX,Emmet,1
FI,Blick-McLaughlin,1570,,60.1996809,24.8958285,Finland,54501,Sullivan,35
CN,Kautzer-Bernhard,1208,,30.033679,119.971302,China,0,Center,3
SE,"Krajcik, Lynch and Hintz",1658,,60.6704237,17.1389487,Sweden,802 66,Alpine,9800
CN,Goyette-Murray,1841,,44.181054,129.171996,China,0,Blackbird,27325
VN,Wisozk LLC,1394,,20.1276773,105.6691136,Vietnam,0,Londonderry,9
CN,"Runolfsdottir, Bosco and Swaniawski",1215,,39.8067,116.030192,China,0,Service,83
PT,"Zieme, Leuschke and Osinski",2148,,41.3006835,-8.4787949,Portugal,4825-171,Mallory,5987
PH,Bergnaum-Casper,1127,,9.600306,124.105576,Philippines,6304,Quincy,49
CN,Ferry-Senger,1239,,28.312711,115.372281,China,0,Hooker,7975
CN,"Grady, Weber and Fritsch",1358,,23.9563274,113.1916737,China,0,Forster,325
VN,Leffler-Runte,2087,,10.9667039,107.0303221,Vietnam,0,Declaration,284
PH,"Torp, Schuster and Bayer",1385,,11.25111,125.00639,Philippines,6516,Burrows,71699
CN,Watsica LLC,1218,,32.905305,101.755566,China,0,Canary,4355
BR,"Kunde, Jerde and Pouros",1571,,-22.2131635,-49.6555394,Brazil,17400-000,Arizona,6
BR,Marvin Group,1962,,-24.7592533,-51.7601166,Brazil,85200-000,Bartillon,9204
CA,"Sporer, Champlin and Mante",1039,,42.9598744,-81.2353612,Canada,N6C,Northland,53132
CZ,Schmitt-Torphy,2496,,49.8932232,12.7301543,Czech Republic,348 15,Scofield,8
CZ,Sporer-Stokes,2020,,49.7931487,18.3760739,Czech Republic,739 34,Holmberg,6
CN,Predovic Inc,1269,,24.723961,116.732091,China,0,Corscot,9
CN,"Streich, Ferry and Auer",2161,,30.3645144,113.4276436,China,0,Ronald Regan,24305
GR,"Hagenes, Bode and Veum",1166,,41.0606685,24.0475546,Greece,0,Elmside,3
CN,Klein LLC,1669,,36.759507,110.632006,China,0,Park Meadow,17268
AR,Bruen-Fisher,2084,,-31.730594,-65.006098,Argentina,5889,Lakewood,4
CN,Reinger Group,2586,,30.677233,121.015142,China,0,Erie,86
CN,Bruen and Sons,1475,,40.576319,110.044106,China,0,Canary,73296
PH,Cassin LLC,2445,,11.0181098,124.5298181,Philippines,2416,Pond,1
MX,Mann-Erdman,1460,,17.7409147,-91.7660525,Mexico,38703,La Follette,15511
PH,Hessel-Mertz,2214,,8.3910287,125.7869157,Philippines,8510,Knutson,59409
PH,Macejkovic LLC,1450,,8.1592413,125.2824211,Philippines,8422,Mccormick,19838
CN,Kozey-Roberts,2383,,32.060255,118.796877,China,0,Blaine,4012
CN,Flatley-Thiel,2467,,36.628305,101.765843,China,0,2nd,5
FI,"Jones, Fay and Kub",2390,,60.3955998,22.3565914,Finland,83101,Shelley,85565
AR,Ondricka Group,1410,,-34.6698749,-58.5616502,Argentina,1888,Coleman,56248
CN,"Auer, Beier and Carroll",1079,,39.10972,117.246625,China,0,Beilfuss,52652
NO,Satterfield LLC,1554,,59.9050895,10.7673005,Norway,211,Steensland,26239
JP,Bins and Sons,1406,,37.9092189,139.2162168,Japan,950-3341,5th,63
PH,Hand Inc,1300,,14.5346437,121.0133007,Philippines,6406,Loomis,48661
GR,Hudson-Konopelski,2379,,40.9282833,24.3057691,Greece,0,Mifflin,7
CN,Lueilwitz-Wilkinson,2307,,23.119172,113.202334,China,0,Bay,3995
GR,Johnson-Windler,1128,,38.0412749,23.5418125,Greece,0,Moose,83
AR,"Friesen, Wuckert and McLaughlin",2230,,-34.6182974,-58.5303202,Argentina,3466,Browning,4986
SE,Crooks and Sons,2132,,56.6495031,12.7902265,Sweden,302 40,Spenser,6040
PL,Corwin-Marvin,2440,,53.1675674,15.4377229,Poland,73-201,Kinsman,6
CZ,Langosh and Sons,2175,,49.9469881,18.1870189,Czech Republic,747 20,Sommers,61435
CN,"Ortiz, Johnson and Paucek",1520,,30.5859716,114.2689545,China,0,Hansons,195
PH,Herzog Inc,2352,,16.9905258,121.637093,Philippines,2920,Dayton,347
PL,Abbott and Sons,1832,,53.1406245,17.1259608,Poland,89-340,Rockefeller,79
ZA,Upton-Klein,1514,,-30.0263293,25.7797078,South Africa,9913,Grasskamp,25
NZ,Von Inc,1437,,-39.4886902,176.9054195,New Zealand,4147,Talmadge,20
PH,Kreiger-Haag,2373,,17.8261143,121.714099,Philippines,3505,Sunbrook,18223
US,Klocko LLC,1702,,43.0690343,-89.4245627,United States,53726,Boyd,29
PT,Renner-Windler,2280,,40.0017058,-7.7141554,Portugal,6185-255,Morrow,18938
CN,Jast-Leannon,2042,,35.664323,117.251195,China,0,Wayridge,5
CA,Dicki LLC,1066,,51.63343,-111.90181,Canada,T6L,Vera,93
PT,"Mann, Johnston and Fadel",1352,,41.2789558,-7.2217804,Portugal,5360-035,Hollow Ridge,9722
CN,Tillman-Stehr,1706,,26.4168857,105.7581834,China,0,Holmberg,50
CN,Harber Group,1892,,40.425649,-3.6721577,China,0,Nelson,618
JP,Spencer Group,2424,,37.9697625,140.7803658,Japan,981-1505,Grover,145
NO,"Beer, Raynor and Ernser",1222,,59.8435756,10.8173713,Norway,1266,Michigan,45327
PT,Baumbach and Sons,1390,,41.5331853,-8.2524001,Portugal,4830-264,Monument,92388
PK,Hamill-O'Kon,1563,,25.3681203,68.3122196,Pakistan,76000,Clyde Gallagher,6
CN,Thiel-Lang,1254,,24.265926,116.081656,China,0,Talisman,3
US,Mayert LLC,2002,,25.6387878,-80.3073826,United States,33158,Gerald,4
CY,Glover-Zboncak,2023,,34.9407863,32.9705266,Cyprus,0,Fordem,52
CN,Kunze-Murray,1890,,35.709077,107.643631,China,0,Morrow,685
JP,Stoltenberg Group,1148,,36.7534267,139.2308293,Japan,378-0401,Lawn,4895
CN,"Prohaska, Collier and Hermann",2552,,30.823054,110.973252,China,0,Sycamore,49691
FR,"Christiansen, Schimmel and Hahn",1738,,43.8324929,4.3662321,France,30034 CEDEX 1,Blackbird,89
SE,Thiel Group,2033,,57.9268439,16.5004384,Sweden,594 93,Knutson,41146
CO,Kuphal-Conn,2154,,2.9344837,-75.2809001,Colombia,410018,Acker,898
HR,Purdy-Stark,1021,,45.4075606,13.9651276,Croatia,52420,Grayhawk,728
PL,"Pollich, Price and Crooks",1096,,50.002337,22.6516099,Poland,37-565,Service,4
TH,Stiedemann Inc,1074,,16.5235265,102.0832543,Thailand,40130,Jackson,78947
PH,Bogan-Flatley,1146,,14.4083543,121.0396806,Philippines,8118,Melody,4369
GM,Veum and Sons,1745,,13.6095445,-15.0608558,Gambia,0,Norway Maple,1
CN,"Romaguera, Bernhard and Kihn",1202,,22.239478,111.549105,China,0,Portage,352
CN,Raynor LLC,1446,,23.5958633,120.2858846,China,0,Schmedeman,79215
US,Crist LLC,1678,,39.0345609,-94.5521274,United States,64130,Alpine,7
CN,Russel-Greenfelder,1759,,35.119385,109.167435,China,0,Fairfield,6
CN,"Schiller, Heathcote and Hodkiewicz",1694,,32.107051,121.483514,China,0,Judy,44914
MX,"Zulauf, Gottlieb and Marks",2274,,19.4458447,-99.1497664,Mexico,71730,Kinsman,7
GR,"Sauer, Pfeffer and Hamill",1422,,40.417311,21.0565269,Greece,0,Texas,865
PK,O'Connell LLC,1542,,32.9005808,71.4599651,Pakistan,42360,Tennessee,9
CN,"Barrows, Kuhic and Watsica",2195,,40.634244,108.893327,China,0,Nobel,27
AR,Hirthe-Legros,1459,,-34.6727765,-58.550564,Argentina,3180,Park Meadow,14
CN,Hirthe and Sons,2261,,33.5719791,-84.3396421,China,0,Springs,9
PH,"Nolan, Bernier and Russel",2339,,13.3666668,122.6500015,Philippines,5033,Sheridan,84
US,Lockman and Sons,2532,,44.9799999,-93.26,United States,55470,Miller,7490
FR,"Medhurst, Bogan and Goodwin",1845,,48.8493975,2.4751086,France,94129 CEDEX,Katie,243
BR,"Stiedemann, Bailey and Kuvalis",1828,,-18.6517964,-48.1904503,Brazil,38440-000,Bashford,926
JP,Reichert-Wuckert,1136,,34.9731207,137.0345088,Japan,474-0074,Eastlawn,731
VN,Leuschke-Dicki,1957,,20.4416309,106.1081103,Vietnam,0,Messerschmidt,581
PL,"Balistreri, Adams and Pagac",1244,,52.99444,15.21918,Poland,74-320,Heffernan,0
CO,Hettinger-Torp,2392,,-3.7702,-70.38306,Colombia,911018,Stang,783
PH,Gusikowski and Sons,2538,,13.4485234,121.8385996,Philippines,4900,Swallow,3911
FR,Wisoky-Schamberger,1286,,47.5619629,-0.9147447,France,59425 CEDEX,Messerschmidt,61
CN,"Trantow, Kuhn and Donnelly",2423,,22.9353419,113.6587617,China,0,Lakeland,1
BR,Runolfsdottir LLC,1610,,-21.1379949,-47.990137,Brazil,14160-000,Spaight,643
TH,Herman and Sons,1914,,6.6802044,101.4112049,Thailand,94140,Lighthouse Bay,8
CN,Tillman LLC,1387,,27.578926,110.040315,China,0,Nevada,9
BR,"Torp, Emmerich and Roob",2398,,-14.4681236,-48.4560109,Brazil,76420-000,Forest Dale,1154
NL,Hills and Sons,1200,,51.5731362,5.0314656,Netherlands,5044,Lakewood,137
FR,Powlowski-Will,1076,,48.4339701,0.098598,France,61015 CEDEX,Hooker,8
PT,Smith and Sons,2330,,40.4603188,-8.72233,Portugal,3070-523,Ridgeway,818
CN,"O'Keefe, Satterfield and Koss",1463,,23.1216171,113.2694916,China,0,Union,41
NO,DuBuque-Bosco,1324,,59.221847,10.9469346,Norway,1605,Fieldstone,41
CZ,"Marks, Blick and Stanton",2516,,50.2671255,12.8970938,Czech Republic,360 01,Fremont,97
FI,Prosacco-Kuhic,1830,,60.3763373,25.2708919,Finland,21310,Mcguire,61052
CN,Murazik LLC,2475,,28.706919,117.821005,China,0,Jackson,62
CN,Schneider-Kertzmann,2157,,31.453134,93.888763,China,0,Heath,72
US,Anderson-Haley,2413,,40.8288377,-73.9374517,United States,10039,Kings,164
SE,"Bayer, Padberg and Botsford",1225,,60.1960972,17.8961823,Sweden,748 31,Anzinger,9338
US,Schmeler LLC,1122,,33.45,-111.97,United States,85072,Delladonna,93
PL,Ryan Inc,2337,,50.242123,22.4674999,Poland,37-306,Armistice,16442
BR,Rempel-Conroy,1303,,-18.9253941,-54.8438521,Brazil,79480-000,Ridgeway,28169
BR,"Volkman, Lebsack and Gutmann",2124,,-20.5923566,-45.4874873,Brazil,35570-000,Northview,2348
LU,Stamm-Schumm,2294,,49.7881321,6.0767949,Luxembourg,L-7794,Lunder,12
TH,Raynor-Sawayn,1543,,12.7361733,101.0782727,Thailand,21130,Brentwood,7639
SE,Wisoky LLC,2170,,57.2702863,16.4538847,Sweden,572 32,Mayer,71151
BR,Ebert-Altenwerth,1273,,-1.0762009,-46.5547852,Brazil,68610-000,Glendale,92
VN,"Murphy, Shanahan and Davis",2485,,21.2537742,105.4899167,Vietnam,0,Hoepker,12822
BR,Stehr Inc,1368,,-22.9941291,-51.1931385,Brazil,86130-000,La Follette,0
CZ,DuBuque-Effertz,2003,,49.2908708,15.4833007,Czech Republic,589 01,David,86
SE,Murazik-Ebert,2078,,58.465971,16.1860744,Sweden,614 94,Mitchell,87
NP,Spencer LLC,1645,,27.7172453,85.3239605,Nepal,0,Clemons,3
FR,Mohr-Grady,1948,,47.17532,-1.6901492,France,44101 CEDEX 4,5th,48
CN,"Spinka, Rogahn and Waelchi",1241,,29.724692,113.900628,China,0,North,828
CZ,Larkin-Renner,2539,,50.1424249,15.1188883,Czech Republic,290 01,Walton,774
CN,Wolff and Sons,1456,,26.982106,117.980053,China,0,Ruskin,9945
CN,Wiegand LLC,1323,,39.325788,111.962127,China,0,Rutledge,3
GR,Tromp Group,2361,,39.3552067,21.538589,Greece,0,Ridgeview,63846
HR,Walsh Group,2217,,45.3982443,16.8946158,Croatia,44322,Warner,0
PH,Schaefer-Cartwright,2335,,7.1335511,124.5306854,Philippines,9607,Claremont,80903
AR,Ernser-Effertz,2046,,-34.5204472,-58.5328734,Argentina,6455,Norway Maple,1373
CN,Crona and Sons,2359,,34.675197,103.498609,China,0,Center,24
CO,Williamson and Sons,1879,,3.22059,-76.415465,Colombia,191507,Hintze,8854
PH,Langworth-Huels,1671,,16.8907872,121.5670029,Philippines,1717,Bartillon,25
CN,Pollich-Lehner,2448,,23.3854292,113.4895468,China,0,Pleasure,19
CN,"Beahan, Mohr and Hyatt",1679,,46.748522,82.978928,China,0,6th,68976
FR,Schulist Group,1344,,43.3423246,1.2606792,France,17104 CEDEX,Melby,4803
PT,"Runolfsdottir, Torp and Simonis",2447,,41.0043316,-8.4313535,Portugal,4540-579,Melody,742
PT,"Hoppe, Carroll and Hodkiewicz",2005,,41.3734134,-8.3802825,Portugal,4815-014,Myrtle,127
CN,"Considine, Boehm and Marks",1600,,28.489465,121.896202,China,0,Mitchell,241
CN,"Rath, Schuppe and Ratke",1484,,40.02219,98.99644,China,0,Anniversary,81
PT,"Gutkowski, Paucek and Baumbach",1421,,41.2479207,-8.3626963,Portugal,4580-604,Esker,2120
CN,"Ward, Medhurst and Kuphal",2541,,23.36225,103.374576,China,0,Anderson,7934
CN,Schumm-Schmitt,1317,,22.806457,114.073302,China,0,Lillian,3744
CN,"O'Hara, Steuber and Purdy",1746,,27.246947,114.702652,China,0,Main,60833
CA,Mann Group,2192,,53.36678,-104.00092,Canada,V9B,School,9949
MY,Kuhlman Inc,1602,,6.4387946,100.1947477,Malaysia,1673,1st,11
PH,"Stokes, Rohan and Satterfield",1846,,14.7292218,121.051001,Philippines,3303,Corry,33
CN,Macejkovic LLC,1450,,34.728584,112.132488,China,0,Mifflin,1
FR,"Witting, Hickle and Kihn",1740,,43.2916776,-0.3696612,France,64044 CEDEX,Bartelt,4119
CN,"Keeling, Kessler and Altenwerth",1898,,30.900941,115.610077,China,0,Comanche,4
SE,"Greenholt, Herzog and Orn",1818,,58.695946,11.2533509,Sweden,457 81,Graedel,8
CN,Stokes LLC,2130,,25.526437,111.600795,China,0,Westend,2
GR,Breitenberg and Sons,2218,,40.472433,23.0927079,Greece,0,Melby,6746
CZ,Lubowitz-Wilderman,1815,,49.5671764,17.4114814,Czech Republic,783 56,Towne,1190
JP,Rempel Inc,1041,,39.2783775,140.4636669,Japan,871-0921,Algoma,9
JP,Raynor-Hammes,2334,,32.7423216,131.178836,Japan,861-3923,Sachtjen,14
PH,Ratke-Connelly,1471,,8.5015747,117.3557854,Philippines,5306,Artisan,171
CN,Kemmer Group,1751,,34.756916,114.441285,China,0,Ruskin,1
US,Effertz-Erdman,1639,,35.6869752,-105.937799,United States,87505,Algoma,9
EG,Green Inc,2455,,30.0444196,31.2357116,Egypt,0,Union,63
HR,"Cormier, Schneider and Kessler",2347,,45.40351,13.872724,Croatia,52428,Tomscot,53
JP,"Bednar, Macejkovic and Hermiston",1153,,34.7487164,134.0793911,Japan,709-0844,Pepper Wood,0
CN,D'Amore-Wisoky,2618,,22.705124,113.316811,China,0,Milwaukee,14098
NL,"Tillman, Barrows and Osinski",1653,,52.1024489,4.6477615,Netherlands,2409,Warrior,69
CN,O'Keefe Group,2537,,24.9372186,118.6422409,China,0,Coleman,63789
CN,Heaney Inc,1414,,26.647661,106.630153,China,0,Browning,6264
CN,Schuppe-Bernhard,1906,,38.665105,112.032036,China,0,Forster,3846
CN,"Donnelly, Nitzsche and Grant",1533,,25.315243,119.090741,China,0,Thierer,5
US,"Volkman, Funk and West",2069,,21.3488387,-157.9435603,United States,96835,Holmberg,43574
ZA,"Gulgowski, Bartoletti and Ziemann",1326,,-34.0736398,18.470633,South Africa,7947,Forest Run,8
CN,Connelly LLC,1509,,31.231121,121.466039,China,0,Fieldstone,1
BR,"Nienow, Mitchell and Hamill",2188,,-4.9843552,-44.4370606,Brazil,65765-000,Bunker Hill,176
NO,"Bailey, Davis and Heidenreich",1047,,68.7986342,16.5414503,Norway,9414,Grayhawk,777
CN,Herzog and Sons,2284,,27.9805586,94.6884956,China,0,Troy,4
CN,Medhurst-Lockman,1451,,35.585575,119.761775,China,0,Moose,268
CN,Windler and Sons,2153,,24.722747,118.152148,China,0,Coleman,27765
CN,Schumm and Sons,2432,,26.41417,109.10222,China,0,Shelley,4
CI,Hayes-Lynch,1802,,5.7866228,-6.5890166,Ivory Coast,0,Cordelia,9
GR,Olson Group,1990,,38.0113874,23.6027231,Greece,0,Twin Pines,47
NO,Jacobson Group,1986,,60.3475308,5.3728746,Norway,5098,Butternut,94
PT,Predovic-Satterfield,1480,,40.638059,-8.7470806,Portugal,3830-752,Bunting,24
CN,Wunsch-Bartoletti,1876,,24.3482735,116.6988851,China,0,Dexter,3
CN,"McDermott, Kuhlman and Kub",2458,,28.866776,121.1706959,China,0,Loeprich,75876
CZ,Yost Group,2269,,49.5172959,16.9405351,Czech Republic,798 43,Scofield,8287
PH,Gerhold Group,2262,,7.1760285,125.4423957,Philippines,2442,Jay,349
US,Grady and Sons,1112,,38.889471,-77.0578855,United States,20566,Springs,336
PH,Bergnaum-Flatley,1941,,7.9187344,125.3297787,Philippines,8711,Sommers,1
GR,"Cremin, Spinka and Ernser",1635,,39.8949802,22.1890872,Greece,0,Hintze,753
FI,Koss-Mann,2206,,63.071925,27.6617536,Finland,71801,Lindbergh,2274
JP,Farrell Group,1981,,36.1008689,139.5772452,Japan,347-0105,Larry,20988
AR,"Metz, Murphy and Terry",1462,,-36.5337379,-64.0106073,Argentina,6326,Dahle,725
US,Wilkinson Group,2299,,33.9255183,-83.9214896,United States,30045,7th,38
FI,"Bernier, Stark and Mosciski",2141,,60.335657,25.0597867,Finland,75701,Buhler,10368
US,Smitham LLC,2598,,34.6741181,-92.3517526,United States,72209,Fremont,48
SE,Hamill-Nikolaus,1562,,58.5023638,13.1702373,Sweden,531 17,Lakewood,91
PH,Trantow-Abbott,2044,,15.48277,120.58604,Philippines,3119,Memorial,672
MX,Towne-Kreiger,1899,,17.9727813,-92.9706816,Mexico,93294,Stephen,8
BR,"Skiles, Breitenberg and Lockman",2397,,-20.019494,-48.9383824,Brazil,38200-000,Maple,2
CN,Lockman-Dach,1603,,31.255103,111.588486,China,0,Wayridge,1
BR,"Walter, Kilback and Hahn",1619,,-22.8631923,-43.7779091,Brazil,23800-000,Porter,37219
CN,Nienow Inc,1022,,51.2262018,6.7866433,China,0,Ridgeview,4437
TH,"Buckridge, Block and Hudson",2121,,17.7177253,102.1175404,Thailand,41210,Hovde,66
CN,"Kirlin, Rosenbaum and Lindgren",1025,,27.36017,111.581975,China,0,Brentwood,4049
QA,"Satterfield, Wuckert and Jerde",1209,,25.9210961,51.3385684,Qatar,0,Arrowood,4
NL,Hagenes Inc,1974,,52.2239735,5.1704277,Netherlands,1209,Stone Corner,95
FR,"Zemlak, Effertz and Tillman",1003,,44.1675867,2.0308233,France,59007 CEDEX,Harper,861
IT,"Braun, Johns and Koepp",2384,,44.1313751,9.8292338,Italy,19125,7th,9863
CZ,Dietrich-Towne,1144,,50.3047644,15.1696238,Czech Republic,289 34,Continental,92
NL,"Bogisich, Harris and Champlin",1566,,52.5077777,5.4757709,Netherlands,8204,Kenwood,15185
PH,Cummerata Inc,2443,,15.26667,120.86667,Philippines,3109,Oneill,59
PH,Stark-Harber,1800,,7.81194,124.85444,Philippines,8716,Elmside,186
PT,"Swift, Goodwin and Ward",2613,,40.3206366,-8.708013,Portugal,3060-816,Warbler,46958
SE,Gusikowski LLC,1106,,57.8001246,11.9841764,Sweden,425 33,Reindahl,26
BR,Schiller Inc,1017,,-7.9821907,-38.2893787,Brazil,56900-000,Boyd,56973
NL,McKenzie-Lakin,1614,,51.6271163,4.9413027,Netherlands,5104,Nobel,53993
BR,"Stracke, Jakubowski and Halvorson",1909,,-22.8262707,-43.0152252,Brazil,24000-000,Clarendon,52458
CN,Grady-Stark,2324,,30.864884,112.67271,China,0,Union,17
PL,Nikolaus-Rutherford,2257,,51.30787,17.72016,Poland,56-500,Milwaukee,8525
SE,Cronin Group,1187,,59.853262,17.6356163,Sweden,751 35,7th,258
CN,Kulas Group,1125,,20.007968,110.293561,China,0,Calypso,91342
PH,Brown-Leffler,1328,,12.4102568,122.0493078,Philippines,3105,Haas,591
CN,"Pfeffer, Lang and Ullrich",2075,,44.840524,82.353656,China,0,Surrey,3207
CN,Lynch-Daugherty,2037,,24.102499,115.317446,China,0,Glendale,612
CN,Muller and Sons,2038,,41.9914135,121.6412579,China,0,Valley Edge,9631
CZ,"Gerhold, Lang and Swaniawski",2573,,50.1341084,17.5359489,Czech Republic,794 01,Arrowood,3
PH,Rempel Inc,1041,,6.6683194,124.7082395,Philippines,9802,Corry,688
PH,Schneider Group,2136,,17.4448706,120.4716757,Philippines,2725,Sheridan,16
CN,Ratke Group,1011,,22.826877,107.840624,China,0,Hoepker,361
PH,Stracke-Heathcote,2526,,17.6282027,121.7170078,Philippines,1697,Lighthouse Bay,940
AR,Brown-Toy,1734,,-34.6492768,-58.4809081,Argentina,4500,Sauthoff,30333
CN,Kunde Group,1290,,50.6538116,-1.1547612,China,0,Hallows,73651
CY,Botsford-Brakus,1301,,35.1804745,32.6786008,Cyprus,0,Hermina,8
AR,Jaskolski and Sons,1084,,-31.9421308,-65.1916804,Argentina,3516,Everett,43
NO,"Stanton, Schulist and Schaefer",1185,,59.0897572,9.6973548,Norway,3943,Pond,15641
CN,Kiehn-Jacobson,1360,,28.697014,111.514354,China,0,Prentice,3656
PL,Halvorson-Boehm,1206,,54.4122067,18.4916795,Poland,05-824,Beilfuss,541
BR,Gottlieb-Hoeger,1267,,-23.2797384,-46.7452277,Brazil,07900-000,Scott,1
BR,Wisozk-Boehm,1447,,-25.5096271,-49.2254535,Brazil,80000-000,Starling,1746
PH,"Jerde, Bosco and Schinner",2535,,14.7299584,121.050452,Philippines,2501,Badeau,0
PL,Dicki Inc,2041,,52.3537244,18.6995274,Poland,62-620,Susan,5195
PK,Heathcote-Heller,1207,,31.9069842,73.2723283,Pakistan,52181,Trailsway,36
CH,"Wiegand, Mertz and Hoeger",1902,,46.2214936,6.1238396,Switzerland,1209,Marcy,46
PH,Leuschke and Sons,1908,,11.9138004,124.7811016,Philippines,6704,Lakeland,25639
US,Harvey-Nolan,2489,,40.7038704,-74.0138541,United States,10004,Butternut,284
NO,Morar-Armstrong,1145,,58.9015864,5.7123282,Norway,4064,Manitowish,6
NL,Rosenbaum LLC,2451,,51.5244042,5.7576526,Netherlands,5619,Cordelia,88
ZA,Reichert and Sons,2620,,-34.4418692,19.4538014,South Africa,7210,Cascade,2361
CN,"O'Keefe, Mertz and Donnelly",1161,,29.499831,120.903866,China,0,Meadow Valley,383
CN,Yundt-Hilll,1647,,30.0689467,103.0991829,China,0,Packers,8563
PT,Balistreri and Sons,1068,,39.0800897,-8.7620955,Portugal,2070-510,Warrior,20663
VN,Kautzer-Durgan,1886,,10.7991944,106.6802639,Vietnam,0,Londonderry,9
CN,Schoen and Sons,1099,,28.841329,91.016402,China,0,Anhalt,34340
JP,Predovic Inc,1269,,35.4420431,136.6271698,Japan,501-0531,Spohn,2
CO,"Brown, Bruen and Wiegand",1224,,5.614775,-73.819571,Colombia,154648,Sauthoff,87585
PT,"Kub, Leuschke and Kuphal",1255,,41.4514619,-8.4873087,Portugal,4770-565,Jay,985
MM,Wehner and Sons,2430,,16.8660694,96.195132,Myanmar,0,Sherman,7048
PH,Turcotte Group,2168,,14.5144041,121.0406718,Philippines,6525,Arapahoe,181
PH,"Balistreri, Bernier and Mosciski",1115,,13.9311113,121.4233322,Philippines,4323,Comanche,45830
HR,Dach-Schroeder,2584,,46.254048,16.2368405,Croatia,42242,Meadow Vale,8044
PL,"Gorczany, Mante and Nienow",2354,,51.756353,14.7142269,Poland,68-343,Pine View,6
BR,Feil Inc,2201,,-18.8228804,-40.9050432,Brazil,29800-000,Warner,56
ET,"Champlin, Schoen and Cassin",1420,,11.9227104,37.6998424,Ethiopia,0,Drewry,1438
CN,Lockman LLC,1053,,28.570101,115.797775,China,0,Rowland,65313
CN,"Franecki, MacGyver and Schiller",2203,,35.237207,102.827734,China,0,Kensington,5507
SE,Glover-Zieme,1560,,58.322001,12.3145938,Sweden,461 70,David,951
PL,"Tromp, Krajcik and Streich",1506,,50.3257904,19.0018119,Poland,41-106,Northwestern,718
PH,"Dooley, Wilderman and Thiel",1120,,9.0651,123.0524,Philippines,4214,Autumn Leaf,2
PH,Gulgowski Group,1229,,14.609579,120.993122,Philippines,8404,Gale,32
CO,Stokes and Sons,2047,,1.2255938,-77.6611917,Colombia,525537,Hollow Ridge,6
BR,Gleichner Group,1705,,-15.0738149,-44.1340439,Brazil,39470-000,Acker,7
PT,Osinski-Leannon,2222,,40.8024339,-8.5959634,Portugal,3860-042,Hermina,1
PT,Littel-Tremblay,1851,,38.7960995,-9.1540186,Portugal,2620-005,Lerdahl,4
MX,"VonRueden, Morissette and Bartoletti",2030,,25.9375976,-100.3638252,Mexico,54927,Jay,6540
BR,Nolan-Stehr,1028,,-20.7371116,-48.9110606,Brazil,15400-000,Aberg,5
CZ,Ferry-Johnson,2615,,49.6933676,14.0095887,Czech Republic,261 01,Hoard,3046
PK,Quigley LLC,1052,,30.8043158,72.2069276,Pakistan,29051,Talisman,8
US,Leuschke-Terry,2481,,41.5399755,-72.9934468,United States,6705,Hanson,130
SE,VonRueden Inc,2396,,47.0169394,-68.1430203,Sweden,113 03,Springview,1
FR,Abernathy Inc,1644,,44.7721717,-0.6995221,France,33614 CEDEX,Truax,1
PH,"Graham, Bednar and Hamill",1704,,9.8411782,123.9121342,Philippines,6328,Bunker Hill,974
TH,MacGyver LLC,1555,,16.6714164,99.2823264,Thailand,90190,Pepper Wood,648
BR,"Mohr, Collier and Powlowski",2110,,-21.2352558,-46.7865516,Brazil,37810-000,Sunnyside,2
BR,Hickle Group,1280,,-24.068741,-46.6512239,Brazil,11730-000,Jenifer,42
CN,"Schiller, Franecki and Feest",1955,,36.049805,-115.244096,China,0,Stoughton,420
TH,Wehner-Glover,2580,,16.269546,103.035694,Thailand,44140,Independence,5
KR,"Schroeder, Mann and King",1959,,34.9904542,126.4816856,South Korea,0,Grover,3
CZ,"Gislason, Bogisich and Prosacco",2169,,49.4434442,15.8815566,Czech Republic,592 14,Mallory,26
CN,Hills-Funk,2232,,29.709214,107.606105,China,0,Schlimgen,675
US,Pouros-Doyle,1820,,38.9374808,-77.0852258,United States,20016,Montana,7
JP,"Cremin, Prohaska and Labadie",2382,,33.7356633,130.7183918,Japan,822-0034,Pierstorff,104
CA,Paucek-Langworth,1445,,46.25006,-83.5666,Canada,P0T,Schmedeman,8
AR,"Muller, Block and Schoen",2328,,-34.6637851,-58.5017947,Argentina,2500,Trailsway,645
CN,"Zemlak, Bashirian and Schowalter",1936,,27.685255,105.390592,China,0,Westerfield,80
JP,Boehm-Nolan,1346,,38.282236,140.3411789,Japan,990-0812,3rd,6763
US,Langosh and Sons,2175,,38.8163486,-104.8512993,United States,80905,Holmberg,3
JP,Labadie Group,1383,,38.3559764,140.3748668,Japan,999-3776,Boyd,3063
CN,Rolfson-Homenick,2450,,36.275231,113.310158,China,0,Carberry,4
CN,Koelpin Group,2522,,31.264698,110.839164,China,0,Del Mar,59150
CH,"Pouros, Reinger and Wiza",1840,,47.3920847,8.5382066,Switzerland,8042,Mosinee,3565
CN,Boyer-Bergnaum,2344,,23.590649,101.317787,China,0,Village Green,7
SE,"Schmidt, Wiegand and Crist",2255,,56.0660092,12.7332992,Sweden,254 62,Carberry,5
CN,Runte LLC,1928,,30.594336,105.236903,China,0,Elka,76
ZA,"Prohaska, Douglas and Lang",1989,,-31.5469052,29.0213682,South Africa,5163,Graceland,594
KR,Aufderhar Group,2438,,36.586148,128.1867972,South Korea,0,Barnett,45098
CN,Lehner-Roberts,1623,,27.1840722,114.9749001,China,0,Carberry,3
PH,"Shields, Champlin and Veum",2365,,9.9137002,124.0939065,Philippines,6331,Harbort,36097
PT,"Bahringer, Ruecker and Smitham",2234,,39.3688081,-9.3284939,Portugal,2520-053,Tennyson,92
CN,Romaguera and Sons,1978,,23.982311,116.831826,China,0,Dahle,8787
BR,"Mayer, Schaden and Yost",1925,,-22.6475546,-47.1947232,Brazil,13150-000,Hudson,8283
GB,Wisoky-Walter,1951,,54.7598905,-1.3347302,United Kingdom,L74,Kipling,89
HU,DuBuque-Fay,2590,,47.4115468,18.880086,Hungary,2035,Harbort,151
PH,Buckridge-Kunde,2593,,7.1774408,124.5350175,Philippines,3814,Eagan,44316
CN,Gerlach LLC,2172,,41.117245,121.128279,China,0,Vahlen,79
CN,Greenfelder LLC,1927,,47.013342,89.832786,China,0,Carey,76
NO,Bosco and Sons,1186,,63.4400274,10.4024274,Norway,7445,Steensland,65543
CN,"Wunsch, Cremin and Ryan",2014,,26.686335,107.520386,China,0,Hollow Ridge,97755
GR,"Bruen, Kuhic and Marks",1613,,36.7225782,25.2825598,Greece,0,La Follette,2
CN,Hansen Inc,1384,,31.238854,121.331694,China,0,Commercial,7
FR,Bayer LLC,2119,,43.8324929,4.3662321,France,30028 CEDEX 9,Lyons,46490
CN,"Daniel, Miller and Volkman",1103,,29.56492,121.52229,China,0,2nd,83
CN,Dicki LLC,1066,,23.681774,113.056042,China,0,Acker,1
CN,DuBuque-Howe,2312,,25.830694,114.933546,China,0,Butterfield,3
CN,"Williamson, Wilderman and Schmidt",1246,,24.487326,109.733126,China,0,Anhalt,91
PL,Pouros-Schiller,1126,,51.3895069,22.1851171,Poland,24-170,Artisan,43270
BR,Kirlin and Sons,1844,,-30.0336816,-52.893221,Brazil,96500-000,Mallard,621
BR,Hilpert-Dickens,2454,,-17.1113356,-43.8203315,Brazil,39390-000,Schlimgen,37
FR,DuBuque Group,2623,,48.6463593,1.8015218,France,78514 CEDEX,Kipling,860
CN,Schroeder and Sons,2563,,22.562964,113.156269,China,0,Sunfield,45
FR,O'Keefe and Sons,1295,,48.7381259,2.3536083,France,94659 CEDEX 1,Cascade,39
PK,Witting LLC,2149,,32.1018288,72.7912031,Pakistan,67391,Northridge,6223
PT,Shanahan-Bosco,1900,,41.3272921,-8.6275135,Portugal,4745-235,Dakota,2881
FI,"Murray, Larkin and Green",1557,,63.8601923,23.4541136,Finland,68300,Hovde,64659
CN,Stroman Group,1304,,29.163159,121.007244,China,0,Buell,23479
PT,Skiles Inc,2198,,40.347979,-7.0160004,Portugal,6320-475,Mockingbird,1230
CN,Harris-Stehr,2142,,29.956858,107.209965,China,0,Walton,2518
CN,Reilly LLC,1274,,22.837926,108.319371,China,0,4th,6170
PT,Altenwerth-Morar,1744,,41.0534668,-8.3490278,Portugal,4575-069,Roxbury,40857
AR,"Heidenreich, Von and Kirlin",1881,,-25.7792984,-64.9562897,Argentina,4424,Warrior,6
BR,Brown and Sons,1340,,-20.7736517,-49.7107263,Brazil,15150-000,4th,2
ZA,Kerluke LLC,1807,,-28.959987,31.751934,South Africa,3850,Claremont,40
CN,"Jaskolski, Rodriguez and Kilback",1864,,24.89604,118.592147,China,0,Prairieview,3
CN,"Rohan, Hoeger and Armstrong",1710,,28.46763,119.922796,China,0,Green Ridge,9
PH,Gislason-Pacocha,2278,,14.4547788,120.5851587,Philippines,2133,Northport,37
CN,Schneider Inc,1417,,29.237137,91.773134,China,0,Parkside,92
AR,Larson-Fritsch,1793,,-33.9162938,-64.3897946,Argentina,6140,Manley,77
CN,Hudson and Sons,1953,,32.399108,119.443303,China,0,Declaration,6
BR,Ratke LLC,1291,,-29.7569364,-51.8311441,Brazil,95860-000,Vernon,39
PL,"Ledner, Trantow and Rogahn",2546,,52.6235765,14.6349097,Poland,66-470,Springs,7315
CN,Schulist-Beier,2140,,33.423357,109.152893,China,0,Sutherland,62
US,"Kuhn, Littel and Schaden",1427,,47.61,-122.33,United States,98175,Tony,21
PL,Murray-Reilly,1389,,49.494604,19.7094323,Poland,34-480,Eagan,18
SE,Abbott Inc,1098,,59.3125021,18.0760798,Sweden,116 23,Maryland,4072
PH,Kuhn Inc,2470,,8.189424,124.086692,Philippines,9202,Marquette,353
LU,"Wiegand, Murray and Haley",1778,,49.5636147,6.0123531,Luxembourg,L-4982,Weeping Birch,39366
PT,"Schmidt, Ritchie and Gulgowski",1549,,39.4048977,-9.135404,Portugal,2500-070,Warbler,34743
US,"Powlowski, Morissette and Rolfson",2150,,29.4418162,-98.4801308,United States,78215,Cody,260
CO,Fay LLC,1391,,10.8698035,-73.9830029,Colombia,478008,Portage,75
CN,Donnelly Inc,2340,,31.074834,109.879153,China,0,Maryland,39
GR,Beer Group,1228,,39.0799649,26.5785197,Greece,0,Vahlen,1016
BG,Labadie Group,1383,,43.5592985,25.9323591,Bulgaria,7159,Hoard,2
FR,O'Hara Inc,1717,,48.8039832,2.4347009,France,94704 CEDEX,Oakridge,3
CO,Kemmer Inc,1921,,6.8740602,-74.9910112,Colombia,52848,Rockefeller,3
CN,"Macejkovic, Spinka and Dooley",1512,,22.935289,113.670324,China,0,Northwestern,2241
GM,Stehr-Willms,1983,,13.5712781,-15.3262905,Gambia,0,Algoma,1
CN,Krajcik-Rogahn,2097,,38.430793,100.812859,China,0,Northport,69
PL,"Berge, Welch and Carter",1719,,52.7704654,17.9583306,Poland,88-306,Hayes,1035
CA,Brown and Sons,1340,,54.71681,-115.40226,Canada,L2T,Oak Valley,53
PH,"Konopelski, Harris and Pouros",1449,,10.890811,124.457075,Philippines,6540,Pond,9
CO,Koepp-Bahringer,1607,,4.4979714,-73.9118159,Colombia,251607,Golf View,3
KH,Keebler-Hilpert,1676,,11.142722,105.8290298,Cambodia,0,Montana,6
IT,Schiller Inc,1017,,45.0651725,7.6385118,Italy,10141,Waxwing,53955
CN,"McLaughlin, Streich and Fahey",2523,,41.5220136,111.7047656,China,0,Jenna,9082
BR,Nitzsche-Purdy,1138,,-15.8916202,-52.2618826,Brazil,78600-000,Meadow Valley,41455
BR,Quigley and Sons,1000,,-30.0336816,-52.893221,Brazil,96500-000,Leroy,4303
PH,Conn Group,2536,,10.6993883,122.5024428,Philippines,5020,Kinsman,53769
GR,"Quitzon, Yost and Bauch",1688,,40.5555236,22.4712129,Greece,0,Mosinee,10277
PT,"Kshlerin, Gleichner and Hickle",1686,,41.1509639,-7.9737002,Portugal,4640-580,Carpenter,41
CN,Roberts Inc,1380,,44.766541,129.688614,China,0,Manitowish,8705
BR,Stanton-Schmitt,1577,,-23.207633,-47.2997218,Brazil,13320-000,Dawn,88
CN,Rowe-Hackett,1444,,41.095685,121.1268459,China,0,Sunnyside,688
PT,"Fay, Cummings and Feest",1251,,41.2096879,-7.8210803,Portugal,5030-304,Forster,720
DE,Bernhard Inc,1265,,51.4964248,7.1215271,Germany,45886,Orin,4
US,Kemmer-Kub,1490,,38.6289203,-90.2051538,United States,63180,Judy,5
MX,Jast-Quigley,1725,,18.5591814,-99.5982999,Mexico,40230,Leroy,69
PK,Rogahn-Douglas,1293,,28.0159533,69.5483393,Pakistan,63211,Ridgeway,9
PH,Rempel-Funk,2466,,13.657259,123.5098357,Philippines,4425,Maple Wood,910
CI,D'Amore Inc,1485,,5.2858205,-3.3036439,Ivory Coast,0,Cordelia,606
FR,"Wehner, Pagac and Conroy",2109,,45.1721845,5.7078052,France,38030 CEDEX 2,Loftsgordon,21
SE,Olson-Hackett,1309,,59.3609203,17.841489,Sweden,165 60,Hoffman,23213
JP,Rogahn and Sons,1378,,37.4391941,140.5728754,Japan,963-4603,Manley,13122
CR,Dooley Inc,1470,,10.6267206,-85.4383376,Costa Rica,50101,Boyd,77
CR,"Ernser, Ziemann and Larson",2112,,10.5943971,-85.2017554,Costa Rica,50402,Kingsford,69
PT,"Ortiz, Stiedemann and Gusikowski",1873,,37.0734616,-8.7751983,Portugal,8650-104,Sutherland,884
PK,"Dare, Koss and Okuneva",2039,,32.1561962,74.1188104,Pakistan,52311,Roxbury,2
BR,Tromp Inc,2502,,-21.2915055,-50.3436312,Brazil,16200-000,Starling,0
CN,Wisoky and Sons,1413,,26.0765362,119.2807519,China,0,Granby,622
CA,Welch LLC,2564,,44.7515479,-79.8779499,Canada,L4R,Nova,7
BR,"Hoppe, Conroy and Volkman",1833,,-7.1580805,-35.8549426,Brazil,58117-000,Lyons,355
CA,Thiel-Maggio,1824,,42.7665598,-81.1747498,Canada,N5R,Merchant,4
US,Emmerich-Konopelski,1821,,35.2037032,-80.7842188,United States,28205,Fremont,5546
CN,Williamson-Rempel,2403,,32.051599,121.420114,China,0,Waxwing,855
MX,Kirlin-Dare,1758,,20.6523028,-87.0696273,Mexico,88736,Northfield,15049
FR,Dickinson LLC,1314,,43.4945737,5.8978018,France,75455 CEDEX 09,Doe Crossing,329
GR,"Spencer, Ondricka and Mueller",1513,,37.401244,22.1364871,Greece,0,Mosinee,1316
CN,Carter Inc,1652,,31.93957,121.012416,China,0,Carey,31
PL,Will LLC,2059,,50.6657079,18.0732903,Poland,46-053,1st,75525
CN,Medhurst LLC,1633,,27.048088,119.28827,China,0,Texas,58721
CN,Beatty-Daugherty,2309,,29.086221,119.571633,China,0,Riverside,532
CA,Quitzon and Sons,2251,,49.18306,-119.5524,Canada,E5L,Elka,4626
ES,"Reinger, Mills and McKenzie",1069,,28.4391484,-16.2845785,Spain,38110,Haas,800
HR,Rolfson-Kohler,1592,,46.1743441,16.9184542,Croatia,48321,Dunning,538
SE,Windler-Blanda,2370,,57.6983773,11.982711,Sweden,412 20,Spaight,3697
CN,Labadie LLC,2026,,27.335916,113.500997,China,0,Pond,60
GB,Barton and Sons,1048,,52.2063851,-0.9009942,United Kingdom,NN4,Bluejay,35323
CA,Prosacco and Sons,2129,,46.08336,-73.18245,Canada,S3N,Bowman,63
CR,"Jacobs, Kerluke and Mueller",1276,,9.3607067,-83.7145811,Costa Rica,12004,Forster,1
PT,Beer-Watsica,2016,,38.8145081,-9.4043725,Portugal,2710-145,Onsgard,6943
CN,Nikolaus Group,1773,,23.12911,113.264385,China,0,Chinook,0
US,"Padberg, Romaguera and Hickle",1037,,30.02,-89.98,United States,70187,Reinke,470
TH,Schimmel-Mayert,1109,,15.5885562,103.98402,Thailand,45140,School,5651
BR,Sporer Inc,2049,,-21.8737026,-51.8452266,Brazil,19400-000,Toban,2
PT,Vandervort-Lebsack,1853,,38.5866475,-8.923424,Portugal,2950-137,Orin,70
TH,Swift Group,1381,,18.2868231,99.4819782,Thailand,52120,Coolidge,1971
JP,"Goyette, Kozey and Little",1332,,35.3179014,136.9037455,Japan,480-0132,Ronald Regan,600
PH,"Cole, Mitchell and Hickle",1808,,14.1929998,121.1317352,Philippines,7210,Manitowish,9929
CA,"Jacobson, Koch and Emmerich",2456,,50.2536,-96.06116,Canada,H4S,Talmadge,6935
PT,Schulist-Fisher,1089,,39.3438828,-8.0659871,Portugal,2205-806,Linden,44390
CO,"Batz, Weber and Stamm",1175,,3.9878168,-75.946324,Colombia,763029,Kennedy,6614
CO,Mohr-Block,1621,,8.688031,-73.666377,Colombia,204047,Huxley,2082
CN,Walsh-Beer,2213,,1.3573565,103.8832261,China,0,Tony,197
FR,Considine-Purdy,1839,,48.4990903,7.3118635,France,67137 CEDEX,Bunting,2079
CN,Rosenbaum and Sons,1396,,30.978349,107.980213,China,0,Westport,78
PH,"Stanton, Bode and Becker",1466,,7.8394835,126.0502748,Philippines,8111,Maple,9601
JP,Kessler Inc,2181,,38.2956138,140.9969841,Japan,985-0862,Warrior,2
CN,"Windler, Zieme and Robel",1768,,37.910325,93.341907,China,0,West,650
CZ,Braun LLC,1364,,49.6321378,18.2218546,Czech Republic,739 46,Toban,2
FR,Jenkins Inc,1370,,46.6473105,0.813275,France,20184 CEDEX 1,Tony,22
CO,"Moen, Shields and Johnson",1685,,6.961969,-75.4190689,Colombia,52038,Buell,4
CN,Powlowski Inc,2029,,30.5383451,117.0666454,China,0,Ryan,86
CN,Collins and Sons,1266,,40.081331,111.395534,China,0,Artisan,309
CN,"Kunde, Cummerata and Mann",1961,,26.571674,117.669428,China,0,Bay,956
CA,"Cassin, Beer and Romaguera",1972,,44.5007687,-80.2169047,Canada,L9Y,Packers,25947
CN,Cremin-Welch,1213,,23.353501,116.078631,China,0,Welch,612
CN,Harris-Vandervort,1772,,29.604453,112.385429,China,0,Village Green,60
VN,Schmitt Group,1774,,9.7494365,105.5327831,Vietnam,0,Mitchell,1
SE,"Trantow, Kilback and Lebsack",1958,,57.5798009,11.9641514,Sweden,427 40,Thierer,68943
CN,"O'Reilly, Thiel and Parisian",2065,,19.710084,110.735357,China,0,Farwell,67
BG,Kris Group,1347,,43.2370452,23.1251092,Bulgaria,3500,Ridgeview,15
BR,Kub-Hickle,1072,,-12.7398884,-60.1422676,Brazil,78995-000,Bluestem,90
ZA,Doyle-Will,1850,,-34.007765,24.7371099,South Africa,2661,Oxford,9
CN,"Rutherford, Ebert and Treutel",1960,,35.319084,114.540858,China,0,Huxley,7113
CY,Marvin LLC,1797,,34.9922836,34.0140113,Cyprus,0,Florence,48
MY,"Larson, Gulgowski and Schumm",1696,,1.5484759,103.7983752,Malaysia,80902,Schmedeman,7398
IE,"Leffler, Lueilwitz and Quitzon",2011,,53.916791,-6.9711886,Ireland,C15,Lakeland,4722
CN,Runte and Sons,1492,,31.920658,120.284938,China,0,Tomscot,48
PT,"Lowe, Ondricka and Koss",1510,,38.8179787,-9.3854336,Portugal,2710-102,Atwood,9
PH,Lang-Zieme,1680,,13.8645517,122.0680526,Philippines,4307,Milwaukee,6133
MX,O'Hara and Sons,1561,,23.7322067,-99.1829833,Mexico,87078,Milwaukee,37437
BR,"Halvorson, Fahey and Kilback",2139,,-23.1770273,-46.4970116,Brazil,12955-000,Pine View,460
CN,Blanda-Batz,2358,,35.580629,104.610668,China,0,Dayton,9376
JP,Corwin and Sons,1505,,38.2513578,140.8817471,Japan,984-0075,Westport,8660
CN,Aufderhar-Doyle,1426,,25.575165,111.824739,China,0,Ronald Regan,347
AU,Feil Inc,2201,,-33.8651294,151.2078882,Australia,1213,Miller,8878
CN,"Kling, Hegmann and Vandervort",1731,,37.9611361,-122.5021248,China,0,Stang,821
CN,Kutch Group,1002,,34.000317,115.319842,China,0,Blackbird,7217
SE,"Muller, Borer and Mueller",1792,,59.8505671,17.6418492,Sweden,753 09,Little Fleur,79
CN,Turcotte Inc,1718,,19.701143,110.242109,China,0,Buell,3
CA,"Schulist, O'Hara and Casper",1723,,49.2725714,-123.1207968,Canada,V6Z,Graceland,7
PH,"Botsford, Koch and Hegmann",1530,,6.5439791,121.869164,Philippines,7303,Briar Crest,293
PH,"Emmerich, Emmerich and Bartoletti",2381,,17.6992092,121.5038757,Philippines,4507,Schurz,4111
MA,"Hamill, Thiel and Buckridge",2071,,34.0181246,-5.0078451,Morocco,0,Continental,601
CN,Wunsch and Sons,1009,,30.9833081,121.1229953,China,0,Troy,69
JP,Wilderman Inc,2240,,37.7977942,139.1253637,Japan,959-1855,Truax,14
FR,Graham-Hartmann,1522,,47.8225694,0.3908219,France,76029 CEDEX,Montana,42
CO,"Ryan, Hartmann and Gerhold",2488,,7.38153,-73.919121,Colombia,135067,Loeprich,2
BR,Glover Group,1736,,-22.4101426,-47.5717516,Brazil,13500-000,Schurz,394
BR,"Grant, Murphy and O'Kon",1937,,-3.9997372,-38.4429274,Brazil,61700-000,Columbus,92
FR,"Thompson, Kemmer and Mitchell",1245,,46.6750305,4.3642884,France,71309 CEDEX,Ridgeview,84900
AS,Rodriguez-Prohaska,2286,,-14.2697392,-170.6618234,American Samoa,96799,Duke,4986
GR,"Wiegand, Emmerich and Reilly",1248,,37.1562778,24.4886232,Greece,0,Kipling,827
CA,Nader-Pacocha,1877,,44.55015,-64.24874,Canada,N9A,Summit,29762
CN,MacGyver LLC,1555,,25.8516667,114.7766667,China,0,Northfield,8
CN,Wolf-Bashirian,1261,,25.242158,117.326355,China,0,Sundown,443
KH,Stracke and Sons,1915,,13.6579053,102.5809026,Cambodia,0,Elka,96
KR,Paucek-Altenwerth,1998,,36.6424341,127.4890319,South Korea,0,Bonner,6
CN,Wunsch Inc,1596,,34.645233,119.248149,China,0,Grover,632
US,Schneider Group,2136,,43.0709333,-89.3274391,United States,53716,Brickson Park,21
PT,"West, Steuber and Walker",1608,,41.5212778,-8.1366948,Portugal,4820-560,Eastlawn,6
CN,Jerde-Huel,2609,,27.098536,114.972769,China,0,Johnson,6778
BR,"Anderson, Howe and Bradtke",1799,,-25.3631459,-49.0801588,Brazil,83420-000,Summerview,6331
CO,Parker-Denesik,1430,,6.6169319,-75.7720328,Colombia,51457,Ohio,75127
CZ,Bogisich and Sons,1345,,49.9481168,14.6774529,Czech Republic,251 63,International,35
PT,"Hintz, Schowalter and Green",2528,,37.0914183,-7.7047624,Portugal,8800-114,6th,3117
JP,Bauch-Treutel,1919,,42.2531168,143.3092266,Japan,865-0122,Bashford,210
PH,"Lakin, Mayert and Boehm",2197,,13.6361135,123.1924955,Philippines,4500,Burrows,973
CN,Daugherty and Sons,2606,,38.240395,114.926498,China,0,Hallows,4
CN,"Reilly, Lesch and Hauck",2304,,34.363184,107.237743,China,0,Kennedy,9
SA,"Sauer, Wolf and Goodwin",1870,,25.3141558,49.6299077,Saudi Arabia,0,Ronald Regan,4172
IE,"Huels, Leffler and Johnson",1963,,35.7797381,-80.7087609,Ireland,P31,Tony,0
CN,Bogisich and Sons,1345,,31.032243,121.227747,China,0,Derek,78
CN,"Abernathy, Hills and Predovic",1170,,23.0668254,113.2996685,China,0,Sycamore,859
JP,Ruecker Inc,1064,,35.4889372,139.3909552,Japan,228-0027,Rigney,98
CN,Mante-Thiel,1001,,31.223878,121.524135,China,0,Huxley,9563
CN,"Medhurst, Aufderhar and Mosciski",1857,,26.170171,118.190467,China,0,Glendale,758
CN,Denesik Group,2205,,32.009016,112.122426,China,0,Farmco,6396
US,Predovic LLC,1203,,30.02,-89.98,United States,70187,Johnson,84530
CN,Mosciski Group,1572,,25.049518,116.420098,China,0,Center,92
PL,"Kiehn, Schmitt and Fay",1785,,49.9569799,22.3925325,Poland,37-230,Stephen,299
PL,"Marks, Schmidt and Mayert",2018,,51.7864657,16.667577,Poland,64-130,Ilene,75097
CN,Fritsch Group,2332,,22.637151,114.012813,China,0,Bowman,1
PT,Connelly-Stanton,1289,,41.5256088,-8.346058,Portugal,4805-458,Pierstorff,0
US,Thiel-Streich,1503,,40.04,-76.31,United States,17622,Eagan,270
FR,Simonis-Gutmann,1198,,47.3591366,2.8002946,France,45922 CEDEX 9,Kinsman,3932
CN,"Abshire, Turcotte and Hettinger",2105,,36.309203,113.110378,China,0,Golf Course,256
SE,"Hansen, Daugherty and Hamill",1333,,59.2963732,18.068622,Sweden,112 75,Holmberg,15
CN,"Wolff, Barton and Lynch",2183,,24.979855,109.983076,China,0,Swallow,7778
CN,Howe LLC,2216,,31.803171,118.002516,China,0,Columbus,6858
PL,Boyer and Sons,1439,,53.8044834,21.7303948,Poland,12-201,Kropf,78
US,"Kuhic, Bode and Orn",1882,,40.1929685,-74.6502902,United States,8650,Dapin,8
PT,Dickinson Group,1659,,38.751115,-9.4574506,Portugal,2755-163,Basil,221
CN,"Tillman, Stokes and Beier",2256,,19.233277,109.412626,China,0,Hansons,6
CZ,Aufderhar LLC,2491,,50.1380318,13.9911619,Czech Republic,273 02,Cottonwood,26
SE,Kohler LLC,1179,,56.1929385,15.2667633,Sweden,372 34,Fallview,90057
PL,Ortiz-Wintheiser,1836,,52.6386769,22.563616,Poland,43-356,Hallows,65157
CF,Kerluke LLC,1807,,5.3956496,26.4916731,Central African Republic,0,Hermina,59
CN,Keeling Inc,1856,,23.020673,113.751799,China,0,Lakewood Gardens,35
NO,"Monahan, Weber and Weimann",1721,,59.8436248,10.790337,Norway,1257,Petterle,130
CN,Kerluke-Medhurst,2480,,29.461194,110.152436,China,0,Reinke,8
SE,"Collins, Kub and Lynch",2247,,63.8223321,20.2753893,Sweden,412 86,Fair Oaks,52
CN,Brekke Group,1916,,31.323217,119.445437,China,0,Judy,53
BR,Gorczany-Greenfelder,1474,,-28.7137096,-49.3091437,Brazil,88820-000,Dwight,24703
PH,Gislason Group,1173,,11.4222249,122.055373,Philippines,2806,Killdeer,29
PL,Hermann Inc,2202,,49.5962241,19.1332531,Poland,34-350,Crowley,70
CN,Connelly-Collins,1545,,26.319938,113.810157,China,0,Londonderry,5
FR,Senger and Sons,1042,,49.03353,2.0768291,France,95021 CEDEX,Loftsgordon,76943
CO,Shanahan and Sons,2483,,4.625907,-75.761865,Colombia,634027,David,99503
MX,Reichel Group,1848,,18.8478608,-99.1843676,Mexico,91560,Susan,40
PL,"Kunze, Will and Wiegand",1172,,51.82709,17.4539199,Poland,63-720,Union,72794
CN,"Stark, Erdman and Pfannerstill",1872,,41.068909,122.949298,China,0,Garrison,20842
PH,"Borer, Fay and Streich",2293,,10.527572,125.16258,Philippines,6607,Sachtjen,749
CN,Kris-Reinger,2338,,40.2023282,116.2398367,China,0,Spenser,6617
CN,"Bode, Buckridge and Torp",2437,,39.9459413,116.3817634,China,0,Dryden,2904
CN,O'Kon-Prosacco,2147,,38.058088,117.230602,China,0,Morrow,553
GR,"Swift, Brekke and Kessler",1418,,37.4132997,23.125332,Greece,0,Bultman,7617
MX,"Kuvalis, Schamberger and Schoen",2570,,22.052089,-98.2007943,Mexico,93995,Sachtjen,3982
CN,"Huel, Simonis and Rippin",1257,,40.7809019,-74.138917,China,0,Comanche,720
VN,"Bogan, Fisher and Watsica",1531,,10.9574128,106.8426871,Vietnam,0,Pond,74558
CN,"Fahey, Hintz and Volkman",2182,,38.5142512,116.5977552,China,0,Forest Dale,5356
CN,Collins Group,2155,,37.177129,119.942275,China,0,Luster,51632
CN,"Deckow, Schaefer and Berge",1525,,23.9563274,113.1916737,China,0,Little Fleur,8936
BR,"Dach, Nicolas and Paucek",1496,,-29.8990311,-51.0536949,Brazil,94000-000,Mosinee,7003
CN,Ernser-Beahan,1558,,37.8298386,112.5511892,China,0,Parkside,6785
PL,"Pfeffer, Fahey and Gerlach",2235,,49.69427,22.0193601,Poland,36-200,Basil,4495
FR,Legros Group,1086,,49.0915297,1.4784611,France,27204 CEDEX,School,18881
CZ,Walsh and Sons,2611,,49.1418733,15.673001,Czech Republic,675 26,Paget,19563
JP,Rippin Group,2010,,33.3297722,133.2308851,Japan,789-1301,Evergreen,621
CN,Dicki-Medhurst,1014,,32.629398,110.798266,China,0,Old Gate,25
CN,Walker and Sons,1829,,28.888555,120.047651,China,0,Maple,309
CI,Wisozk-Jenkins,2277,,7.6730918,-5.5722297,Ivory Coast,0,Grasskamp,2685
VN,"Lockman, Ward and Marks",1604,,12.5049537,107.6925674,Vietnam,0,Vernon,6
CN,Weber-Grady,1945,,30.830898,120.92585,China,0,Cordelia,51299
US,Ryan-Hackett,2410,,42.2827426,-83.1488186,United States,48217,Del Mar,594
HU,Denesik Inc,2189,,47.9527415,21.6927245,Hungary,4404,Everett,544
NZ,Prohaska Group,1036,,-36.881315,174.6774579,New Zealand,1746,Maryland,976
FR,Ankunding LLC,1455,,49.2066705,2.0391896,France,13834 CEDEX,Graedel,750
TH,"Bergstrom, Wehner and Mayer",2058,,13.7754325,100.5127381,Thailand,10300,Alpine,74
CN,Smitham Group,1055,,24.6613135,102.3589828,China,0,Stang,3408
PK,Shields Inc,1065,,34.0112004,71.9795856,Pakistan,43261,Cardinal,88
BR,Reichel LLC,1308,,-21.9111483,-56.4719928,Brazil,79260-000,Hoffman,7964
BR,Lowe-DuBuque,2031,,-29.2231867,-51.3423619,Brazil,95180-000,Onsgard,310
PH,Sawayn and Sons,1242,,8.972681,125.408732,Philippines,8601,Buell,467
CN,Lockman Inc,1786,,49.16291,127.98658,China,0,Waubesa,3946
CN,Brown-Hilpert,1284,,28.153607,120.692025,China,0,Northridge,46
CN,Hudson-Cremin,2428,,31.135176,121.439288,China,0,Onsgard,7
MA,Moore-Rolfson,2268,,31.4374773,-7.4060306,Morocco,0,Mayfield,71
CO,Nolan Group,2327,,11.3451287,-72.3628361,Colombia,442009,Hollow Ridge,1312
CZ,"Carter, Greenfelder and Stamm",1544,,49.4259425,17.5920528,Czech Republic,751 14,Warner,4879
PH,Kunde-Rath,2418,,13.9289816,121.3567739,Philippines,4323,Novick,9415
CN,Carroll and Sons,1551,,26.641315,100.222545,China,0,Fair Oaks,47172
FR,"Pollich, Barrows and Donnelly",1271,,48.8805451,2.1476836,France,78294 CEDEX,Banding,9866
PH,Conn-Brown,2025,,17.8145613,121.2831831,Philippines,3807,Claremont,4
CN,Stracke and Sons,1915,,23.099153,113.810423,China,0,Karstens,45183
PH,"Huel, Baumbach and Lebsack",2585,,14.593975,121.0038631,Philippines,3714,Pine View,20446
CN,"Bashirian, Mante and Jakubowski",2116,,31.210297,96.600578,China,0,Fulton,37963
CN,O'Reilly-Koss,1371,,27.948308,109.599191,China,0,Debra,905
CN,Ledner LLC,2513,,-34.6156429,-58.4176515,China,0,Monterey,3552
PH,Ernser-Reilly,1834,,12.7145722,124.0576816,Philippines,6404,Evergreen,1
US,"McCullough, Mitchell and Schmitt",1535,,42.3784509,-83.3032607,United States,92640,Arizona,60777
PT,"Beatty, Anderson and Gutkowski",1761,,38.5100219,-9.1705519,Portugal,2970-267,Dovetail,64
CN,Cronin-Crist,2446,,36.650038,101.766228,China,0,Cordelia,3
SE,"Quigley, Senger and Monahan",1100,,56.2094069,14.8470274,Sweden,374 53,Judy,226
CN,"Lehner, Feest and Prohaska",1611,,44.2,118.46667,China,0,Elka,7
KE,"Abbott, Adams and Kulas",1400,,0.2827307,34.7518631,Kenya,0,Nobel,28
AR,VonRueden-Armstrong,2209,,-27.3777068,-55.9237269,Argentina,3300,Crowley,574
TH,"Sporer, Gulgowski and Waelchi",2287,,7.0086472,100.4746879,Thailand,90110,Redwing,9972
CN,"Mayert, Feil and Prosacco",2472,,23.297493,116.165777,China,0,Coleman,631
CN,Dietrich LLC,1316,,27.9937685,120.6784858,China,0,Dottie,88150
CN,Cronin and Sons,1794,,39.9368237,116.4442945,China,0,4th,6082
CN,"Gutmann, Barrows and Watsica",1313,,39.9226132,116.4606871,China,0,Hollow Ridge,3
BR,Conroy-Swift,1582,,-22.3595631,-47.3853435,Brazil,13600-000,Lakeland,13
CN,"Muller, Jacobi and Goodwin",1133,,39.525207,117.711487,China,0,Kipling,9
PH,Willms-Cruickshank,1129,,7.5823695,125.8470159,Philippines,8104,Fairview,4023
GR,Wunsch-Bechtelar,1586,,36.8634887,21.9208543,Greece,0,Caliangt,77
SE,Conroy-Kovacek,1401,,56.8744773,16.6629189,Sweden,387 34,Lunder,37
CN,"Hickle, Collins and Stark",1585,,34.683646,112.469023,China,0,Riverside,1799
CN,Stokes-Tillman,2285,,25.763034,107.701307,China,0,Westend,7044
